{
"type": "FeatureCollection",
"name": "naujan_muniboundary",
"crs": { "type": "name", "properties": { "name": "urn:ogc:def:crs:OGC:1.3:CRS84" } },
"features": [
{ "type": "Feature", "properties": { "NAME_2": "Naujan", "ID": "1" }, "geometry": { "type": "MultiPolygon", "coordinates": [ [ [ [ 121.36519, 13.2178 ], [ 121.363870000000134, 13.21917 ], [ 121.364300000000185, 13.219770000000153 ], [ 121.36501, 13.22074 ], [ 121.36596, 13.22164000000015 ], [ 121.367170000000328, 13.22191 ], [ 121.368140000000153, 13.221580000000131 ], [ 121.36818, 13.220850000000155 ], [ 121.367970000000128, 13.219160000000102 ], [ 121.367460000000165, 13.21762 ], [ 121.3661400000002, 13.21744 ], [ 121.36519, 13.2178 ] ] ], [ [ [ 121.306080000000179, 13.34088 ], [ 121.306250000000205, 13.34065 ], [ 121.306410000000142, 13.340420000000165 ], [ 121.306580000000167, 13.34014 ], [ 121.30677, 13.33982 ], [ 121.306900000000155, 13.339400000000126 ], [ 121.30696, 13.338900000000194 ], [ 121.307010000000218, 13.338350000000162 ], [ 121.307160000000181, 13.33775 ], [ 121.307370000000105, 13.337470000000167 ], [ 121.30756, 13.337210000000141 ], [ 121.30804, 13.3369 ], [ 121.30849000000012, 13.33658 ], [ 121.3088, 13.336190000000101 ], [ 121.309000000000196, 13.335770000000196 ], [ 121.30914, 13.335400000000107 ], [ 121.30923, 13.3350200000001 ], [ 121.309340000000248, 13.33466 ], [ 121.30952, 13.33439 ], [ 121.30972, 13.33418 ], [ 121.30993, 13.33398 ], [ 121.31013, 13.3338 ], [ 121.310230000000161, 13.33358 ], [ 121.310230000000161, 13.333300000000122 ], [ 121.310170000000198, 13.33296 ], [ 121.310230000000161, 13.33252 ], [ 121.31043, 13.332120000000145 ], [ 121.31062, 13.33182 ], [ 121.310750000000212, 13.331560000000195 ], [ 121.310900000000174, 13.33133 ], [ 121.31105, 13.33106 ], [ 121.311320000000137, 13.33076 ], [ 121.311580000000163, 13.33045 ], [ 121.3116500000001, 13.330380000000105 ], [ 121.31197, 13.32991 ], [ 121.3123, 13.329460000000154 ], [ 121.31268, 13.329110000000185 ], [ 121.313150000000178, 13.32886 ], [ 121.31344, 13.32848 ], [ 121.31367, 13.32805 ], [ 121.31394, 13.327640000000201 ], [ 121.31429, 13.327250000000106 ], [ 121.314660000000117, 13.326850000000206 ], [ 121.31503, 13.326450000000136 ], [ 121.315430000000219, 13.326080000000104 ], [ 121.315830000000233, 13.32583 ], [ 121.315830000000233, 13.32556 ], [ 121.316670000000158, 13.324720000000184 ], [ 121.316670000000158, 13.324170000000152 ], [ 121.31805, 13.32278 ], [ 121.31805, 13.3225 ], [ 121.318340000000262, 13.322220000000129 ], [ 121.31861, 13.322220000000129 ], [ 121.31972, 13.32112 ], [ 121.320000000000164, 13.32111 ], [ 121.320560000000114, 13.32056 ], [ 121.320560000000114, 13.31972 ], [ 121.320830000000228, 13.319440000000156 ], [ 121.32111, 13.319440000000156 ], [ 121.322500000000218, 13.318060000000173 ], [ 121.32278, 13.318060000000173 ], [ 121.323060000000169, 13.31778 ], [ 121.323390000000131, 13.31728 ], [ 121.323750000000246, 13.316840000000127 ], [ 121.32419, 13.316450000000202 ], [ 121.32469, 13.31624 ], [ 121.3252, 13.316100000000176 ], [ 121.325660000000198, 13.315840000000151 ], [ 121.32609, 13.31553 ], [ 121.326510000000212, 13.31515 ], [ 121.32696, 13.31477 ], [ 121.327480000000151, 13.314390000000117 ], [ 121.328000000000202, 13.31396 ], [ 121.32854, 13.313540000000103 ], [ 121.32906000000014, 13.31308 ], [ 121.329570000000217, 13.31264 ], [ 121.33008000000018, 13.3122 ], [ 121.33061, 13.31183 ], [ 121.33111, 13.31145 ], [ 121.33159, 13.311080000000118 ], [ 121.332080000000246, 13.31074 ], [ 121.3326, 13.31045 ], [ 121.33314, 13.310110000000179 ], [ 121.333560000000148, 13.309640000000172 ], [ 121.33381, 13.30908 ], [ 121.333980000000111, 13.30856000000017 ], [ 121.33411, 13.30814 ], [ 121.33413, 13.307770000000176 ], [ 121.33389000000011, 13.3075 ], [ 121.33305, 13.3075 ], [ 121.33278, 13.30778 ], [ 121.33278, 13.308060000000182 ], [ 121.332570000000146, 13.30828 ], [ 121.332270000000335, 13.308530000000189 ], [ 121.33186, 13.308710000000133 ], [ 121.331410000000233, 13.3089 ], [ 121.330960000000118, 13.30908 ], [ 121.33054, 13.309230000000184 ], [ 121.330150000000117, 13.30925 ], [ 121.329840000000218, 13.30900000000014 ], [ 121.329670000000192, 13.30858 ], [ 121.32977, 13.308 ], [ 121.329830000000243, 13.30787 ], [ 121.32998, 13.307390000000169 ], [ 121.3301, 13.306760000000111 ], [ 121.33018, 13.306230000000141 ], [ 121.33013, 13.30583 ], [ 121.32987, 13.30553 ], [ 121.329480000000103, 13.305350000000146 ], [ 121.32906000000014, 13.30525 ], [ 121.328710000000115, 13.305090000000121 ], [ 121.32851, 13.30476 ], [ 121.32855, 13.30435000000017 ], [ 121.32878, 13.304030000000182 ], [ 121.3291, 13.303770000000156 ], [ 121.32953, 13.303560000000175 ], [ 121.32999000000018, 13.303360000000168 ], [ 121.33043000000032, 13.303120000000206 ], [ 121.330840000000194, 13.30286000000018 ], [ 121.33087, 13.302840000000117 ], [ 121.331240000000207, 13.302600000000155 ], [ 121.331630000000132, 13.302340000000129 ], [ 121.332060000000183, 13.30212 ], [ 121.33252, 13.30190000000016 ], [ 121.332970000000159, 13.301660000000197 ], [ 121.33343, 13.30153 ], [ 121.333850000000325, 13.30153 ], [ 121.334230000000161, 13.30159 ], [ 121.33459, 13.30168 ], [ 121.334900000000175, 13.30181000000016 ], [ 121.335160000000201, 13.30199000000016 ], [ 121.33536, 13.302220000000148 ], [ 121.33561, 13.302450000000192 ], [ 121.33597, 13.30261 ], [ 121.336, 13.30261 ], [ 121.33641, 13.302630000000136 ], [ 121.33688, 13.302480000000173 ], [ 121.337360000000103, 13.302250000000129 ], [ 121.337810000000104, 13.302020000000141 ], [ 121.3382, 13.30189 ], [ 121.33846, 13.30194 ], [ 121.33855, 13.30224 ], [ 121.33852, 13.302600000000155 ], [ 121.33837, 13.30299 ], [ 121.3381, 13.303360000000168 ], [ 121.337800000000129, 13.303720000000112 ], [ 121.33752, 13.30408 ], [ 121.337270000000103, 13.30444000000017 ], [ 121.337010000000305, 13.30478 ], [ 121.33669, 13.30506000000014 ], [ 121.33631000000014, 13.30522 ], [ 121.33621, 13.30524 ], [ 121.33593, 13.305290000000127 ], [ 121.33559, 13.30522 ], [ 121.3353, 13.305090000000121 ], [ 121.33503, 13.30496 ], [ 121.334750000000213, 13.305000000000121 ], [ 121.33459, 13.30528 ], [ 121.33459, 13.305690000000197 ], [ 121.334750000000213, 13.30611000000016 ], [ 121.335070000000201, 13.30642 ], [ 121.33552, 13.30654 ], [ 121.33603, 13.30651 ], [ 121.3365, 13.30636 ], [ 121.33656000000019, 13.30632 ], [ 121.336890000000153, 13.30611000000016 ], [ 121.33726, 13.305810000000179 ], [ 121.33762, 13.305500000000109 ], [ 121.337910000000193, 13.30513 ], [ 121.338170000000218, 13.304770000000133 ], [ 121.338490000000206, 13.30444000000017 ], [ 121.338830000000257, 13.304150000000163 ], [ 121.33918, 13.303860000000157 ], [ 121.33953, 13.30355 ], [ 121.33987, 13.303190000000143 ], [ 121.340160000000196, 13.30276 ], [ 121.340320000000133, 13.30227 ], [ 121.340480000000184, 13.301780000000178 ], [ 121.34067, 13.30137000000019 ], [ 121.340900000000147, 13.301080000000184 ], [ 121.341160000000173, 13.300820000000158 ], [ 121.3415, 13.30054 ], [ 121.3419200000003, 13.300300000000107 ], [ 121.34234, 13.30005 ], [ 121.34275, 13.2998300000001 ], [ 121.34313, 13.299600000000112 ], [ 121.34343, 13.29928 ], [ 121.34366, 13.298860000000161 ], [ 121.343890000000101, 13.298450000000173 ], [ 121.344150000000127, 13.298050000000103 ], [ 121.344410000000266, 13.29767 ], [ 121.344670000000292, 13.2973 ], [ 121.34501, 13.296960000000126 ], [ 121.345400000000154, 13.296660000000202 ], [ 121.34584, 13.296350000000132 ], [ 121.34628, 13.296000000000106 ], [ 121.346630000000118, 13.295560000000137 ], [ 121.34694, 13.295120000000168 ], [ 121.34726, 13.29473 ], [ 121.3476, 13.294390000000135 ], [ 121.34792, 13.294030000000191 ], [ 121.348260000000323, 13.293650000000184 ], [ 121.34857, 13.293220000000133 ], [ 121.348880000000122, 13.292720000000145 ], [ 121.34920000000011, 13.29218 ], [ 121.34956000000011, 13.29169 ], [ 121.349980000000187, 13.29134 ], [ 121.35036, 13.29096 ], [ 121.350720000000138, 13.290590000000122 ], [ 121.351, 13.290180000000134 ], [ 121.35103, 13.290150000000153 ], [ 121.351410000000214, 13.289800000000128 ], [ 121.351900000000228, 13.28948000000014 ], [ 121.352390000000128, 13.28918 ], [ 121.352800000000116, 13.288810000000126 ], [ 121.353120000000104, 13.28839 ], [ 121.353290000000129, 13.28790000000015 ], [ 121.353390000000104, 13.287400000000162 ], [ 121.35362, 13.286990000000173 ], [ 121.353910000000269, 13.28663 ], [ 121.354230000000143, 13.28631 ], [ 121.354550000000131, 13.28604 ], [ 121.354720000000157, 13.28583 ], [ 121.355830000000196, 13.284720000000107 ], [ 121.355830000000196, 13.28444 ], [ 121.35611, 13.28417 ], [ 121.35611, 13.28389 ], [ 121.355550000000108, 13.283330000000205 ], [ 121.355280000000107, 13.283610000000124 ], [ 121.35361, 13.283610000000124 ], [ 121.35278, 13.28444 ], [ 121.352500000000305, 13.28444 ], [ 121.352240000000165, 13.2845200000001 ], [ 121.351890000000139, 13.28474000000017 ], [ 121.351570000000152, 13.284920000000113 ], [ 121.35135, 13.284920000000113 ], [ 121.35126, 13.28465000000017 ], [ 121.351330000000189, 13.28418 ], [ 121.351640000000202, 13.283750000000168 ], [ 121.352120000000127, 13.283400000000142 ], [ 121.352650000000153, 13.28307000000018 ], [ 121.353170000000318, 13.282730000000129 ], [ 121.35362, 13.28236 ], [ 121.35403, 13.282060000000115 ], [ 121.354470000000106, 13.28192 ], [ 121.35493, 13.282060000000115 ], [ 121.35543, 13.28214000000014 ], [ 121.355890000000159, 13.28212 ], [ 121.356240000000184, 13.281970000000115 ], [ 121.356540000000109, 13.281770000000108 ], [ 121.35677, 13.28152 ], [ 121.357000000000312, 13.281290000000183 ], [ 121.35722, 13.281080000000202 ], [ 121.357410000000186, 13.28084 ], [ 121.3576, 13.280530000000169 ], [ 121.357800000000111, 13.280160000000137 ], [ 121.3579900000002, 13.27976 ], [ 121.35813, 13.27935 ], [ 121.3583, 13.279010000000198 ], [ 121.35844, 13.278700000000129 ], [ 121.35859, 13.27842 ], [ 121.358730000000151, 13.278140000000121 ], [ 121.358880000000113, 13.277900000000159 ], [ 121.359050000000138, 13.277640000000133 ], [ 121.35928, 13.27737000000019 ], [ 121.359490000000278, 13.27704 ], [ 121.359720000000152, 13.27669 ], [ 121.359920000000329, 13.27634 ], [ 121.36008, 13.276000000000181 ], [ 121.360280000000103, 13.27575 ], [ 121.360470000000191, 13.275530000000174 ], [ 121.360650000000192, 13.27529 ], [ 121.36084, 13.275070000000142 ], [ 121.361040000000116, 13.27486000000016 ], [ 121.3612, 13.274600000000135 ], [ 121.36134, 13.2743 ], [ 121.36143, 13.27394 ], [ 121.36162000000013, 13.273610000000133 ], [ 121.36187, 13.273290000000145 ], [ 121.362150000000156, 13.27295 ], [ 121.36243, 13.27259 ], [ 121.36274, 13.27222 ], [ 121.36301, 13.27178 ], [ 121.36327, 13.271270000000129 ], [ 121.363610000000108, 13.27083000000016 ], [ 121.363990000000285, 13.270400000000109 ], [ 121.36443, 13.270010000000184 ], [ 121.36486, 13.269600000000139 ], [ 121.364950000000135, 13.269430000000114 ], [ 121.365150000000199, 13.26907 ], [ 121.36523, 13.268410000000131 ], [ 121.36546, 13.267880000000162 ], [ 121.365740000000187, 13.267410000000154 ], [ 121.36608, 13.267030000000148 ], [ 121.36642, 13.26671000000016 ], [ 121.366740000000277, 13.266380000000197 ], [ 121.367030000000113, 13.26600000000019 ], [ 121.367390000000228, 13.265630000000158 ], [ 121.367800000000102, 13.265300000000195 ], [ 121.368060000000241, 13.265 ], [ 121.36833, 13.265 ], [ 121.368610000000103, 13.264720000000182 ], [ 121.368610000000103, 13.26444 ], [ 121.368890000000192, 13.264170000000149 ], [ 121.368890000000192, 13.26389 ], [ 121.369160000000306, 13.263610000000142 ], [ 121.369160000000306, 13.262500000000159 ], [ 121.369450000000143, 13.26222 ], [ 121.369450000000143, 13.26194 ], [ 121.369720000000143, 13.26167 ], [ 121.369720000000143, 13.261390000000119 ], [ 121.370550000000208, 13.26056 ], [ 121.370550000000208, 13.260280000000137 ], [ 121.37083, 13.26 ], [ 121.37083, 13.259720000000186 ], [ 121.370550000000208, 13.25944 ], [ 121.370550000000208, 13.259170000000154 ], [ 121.37028, 13.25889 ], [ 121.37028, 13.258330000000115 ], [ 121.37083, 13.25778 ], [ 121.37083, 13.257500000000164 ], [ 121.371390000000133, 13.25694 ], [ 121.371390000000133, 13.25667 ], [ 121.371670000000336, 13.256390000000181 ], [ 121.371670000000336, 13.25611 ], [ 121.372220000000198, 13.25556 ], [ 121.372220000000198, 13.255280000000141 ], [ 121.37278, 13.254720000000191 ], [ 121.37278, 13.254440000000102 ], [ 121.373050000000148, 13.254170000000158 ], [ 121.3733900000002, 13.254020000000196 ], [ 121.37376, 13.25375 ], [ 121.374150000000213, 13.253460000000189 ], [ 121.374540000000138, 13.253120000000138 ], [ 121.374970000000189, 13.252770000000112 ], [ 121.37537, 13.252350000000206 ], [ 121.375790000000165, 13.251950000000136 ], [ 121.376220000000217, 13.251540000000148 ], [ 121.376620000000116, 13.25112 ], [ 121.377060000000256, 13.25068 ], [ 121.377560000000244, 13.25027 ], [ 121.37809, 13.24986 ], [ 121.378650000000221, 13.24949 ], [ 121.379210000000171, 13.24918 ], [ 121.37944, 13.24904 ], [ 121.379740000000311, 13.24886 ], [ 121.38019, 13.24852 ], [ 121.38052, 13.248150000000123 ], [ 121.380700000000161, 13.247770000000116 ], [ 121.380550000000198, 13.24741 ], [ 121.3802, 13.247090000000185 ], [ 121.37978, 13.24688 ], [ 121.379390000000171, 13.246680000000197 ], [ 121.37903, 13.2465 ], [ 121.378720000000158, 13.246280000000127 ], [ 121.3785, 13.245980000000202 ], [ 121.37836, 13.245610000000113 ], [ 121.37827, 13.245220000000188 ], [ 121.378130000000169, 13.24483 ], [ 121.37803, 13.24441000000013 ], [ 121.37792, 13.244000000000142 ], [ 121.377890000000207, 13.24357 ], [ 121.378020000000106, 13.243000000000166 ], [ 121.37812, 13.242330000000152 ], [ 121.37817, 13.24164 ], [ 121.378220000000169, 13.241010000000188 ], [ 121.378390000000195, 13.24048 ], [ 121.378630000000157, 13.240000000000123 ], [ 121.378920000000107, 13.239610000000198 ], [ 121.37927, 13.239500000000135 ], [ 121.379650000000197, 13.239550000000179 ], [ 121.38002, 13.239700000000141 ], [ 121.38028, 13.239720000000204 ], [ 121.380550000000198, 13.240000000000123 ], [ 121.38111, 13.240000000000123 ], [ 121.381400000000212, 13.239710000000116 ], [ 121.381580000000326, 13.239530000000116 ], [ 121.382220000000189, 13.23889 ], [ 121.3825, 13.23889 ], [ 121.38333, 13.238060000000189 ], [ 121.383690000000115, 13.238360000000114 ], [ 121.383690000000115, 13.238420000000133 ], [ 121.38366, 13.23881 ], [ 121.38367, 13.239240000000109 ], [ 121.383780000000115, 13.2396 ], [ 121.383950000000141, 13.23992 ], [ 121.38416, 13.240200000000129 ], [ 121.3844, 13.24044 ], [ 121.384770000000117, 13.240520000000174 ], [ 121.38519, 13.240520000000174 ], [ 121.385560000000169, 13.240510000000199 ], [ 121.38583, 13.240630000000181 ], [ 121.38578, 13.24095 ], [ 121.38581000000022, 13.241290000000106 ], [ 121.38576, 13.241630000000157 ], [ 121.385620000000131, 13.241950000000145 ], [ 121.385560000000169, 13.242220000000145 ], [ 121.38528, 13.2425 ], [ 121.38528, 13.243060000000185 ], [ 121.38591, 13.243680000000154 ], [ 121.38615, 13.243930000000205 ], [ 121.38639, 13.244170000000167 ], [ 121.38695, 13.244170000000167 ], [ 121.387310000000184, 13.24381 ], [ 121.388050000000135, 13.243060000000185 ], [ 121.38834, 13.243060000000185 ], [ 121.38861, 13.24278 ], [ 121.38861, 13.241670000000113 ], [ 121.388890000000174, 13.241390000000195 ], [ 121.389120000000162, 13.241200000000106 ], [ 121.389380000000187, 13.24095 ], [ 121.38969, 13.24091 ], [ 121.390060000000176, 13.24104 ], [ 121.3905, 13.24109 ], [ 121.39095, 13.241110000000106 ], [ 121.39142, 13.241190000000188 ], [ 121.39184, 13.24145 ], [ 121.39223, 13.241860000000202 ], [ 121.392250000000104, 13.24188 ], [ 121.392630000000167, 13.24232 ], [ 121.393040000000155, 13.242760000000203 ], [ 121.393330000000105, 13.243060000000185 ], [ 121.39472, 13.24445 ], [ 121.395, 13.24445 ], [ 121.39528, 13.2447200000002 ], [ 121.395550000000185, 13.24445 ], [ 121.39694, 13.24445 ], [ 121.397220000000175, 13.244170000000167 ], [ 121.397220000000175, 13.24389 ], [ 121.3975, 13.24361 ], [ 121.3975, 13.243440000000192 ], [ 121.3975, 13.2425 ], [ 121.397780000000125, 13.242220000000145 ], [ 121.397780000000125, 13.241770000000201 ], [ 121.397780000000125, 13.241670000000113 ], [ 121.398060000000214, 13.241390000000195 ], [ 121.398060000000214, 13.241110000000106 ], [ 121.397780000000125, 13.24083 ], [ 121.397780000000125, 13.24056 ], [ 121.397220000000175, 13.24056 ], [ 121.39686, 13.240050000000167 ], [ 121.39648, 13.239710000000116 ], [ 121.396130000000198, 13.2394 ], [ 121.395790000000147, 13.239120000000128 ], [ 121.39542, 13.238880000000165 ], [ 121.39507, 13.238640000000203 ], [ 121.39476, 13.2384 ], [ 121.39458, 13.23814 ], [ 121.394620000000145, 13.2379 ], [ 121.39478, 13.237660000000119 ], [ 121.395050000000197, 13.23743 ], [ 121.395380000000159, 13.237170000000106 ], [ 121.39582, 13.236950000000149 ], [ 121.396290000000135, 13.23674 ], [ 121.396720000000187, 13.23656 ], [ 121.397, 13.23656 ], [ 121.39718, 13.23656 ], [ 121.397710000000188, 13.23647 ], [ 121.39835, 13.23645 ], [ 121.398960000000216, 13.236340000000155 ], [ 121.399380000000178, 13.236260000000129 ], [ 121.399560000000292, 13.236220000000174 ], [ 121.399940000000129, 13.236280000000136 ], [ 121.400110000000154, 13.236310000000174 ], [ 121.40051, 13.236570000000199 ], [ 121.400810000000206, 13.23694 ], [ 121.40101, 13.23738 ], [ 121.40099, 13.237890000000164 ], [ 121.400940000000105, 13.23848 ], [ 121.40107, 13.239120000000128 ], [ 121.40144, 13.2396 ], [ 121.40186000000017, 13.23985000000016 ], [ 121.402310000000284, 13.239960000000167 ], [ 121.40281, 13.23998 ], [ 121.40333, 13.239940000000104 ], [ 121.403790000000186, 13.23976000000016 ], [ 121.40416, 13.23946 ], [ 121.40419, 13.239420000000109 ], [ 121.404470000000174, 13.2391 ], [ 121.40472, 13.2387 ], [ 121.404970000000276, 13.238300000000152 ], [ 121.40520000000015, 13.23794 ], [ 121.4054900000001, 13.237800000000163 ], [ 121.40583, 13.237770000000182 ], [ 121.405880000000252, 13.237770000000182 ], [ 121.405930000000126, 13.237770000000182 ], [ 121.406210000000215, 13.237770000000182 ], [ 121.406630000000177, 13.23781 ], [ 121.40707, 13.23794 ], [ 121.40714, 13.23799 ], [ 121.4075, 13.23819 ], [ 121.40793, 13.23848 ], [ 121.40836000000013, 13.23878 ], [ 121.408800000000269, 13.23907 ], [ 121.40922, 13.23937 ], [ 121.409640000000195, 13.23965 ], [ 121.410050000000183, 13.239970000000142 ], [ 121.410520000000133, 13.240230000000111 ], [ 121.41101, 13.240460000000155 ], [ 121.41149, 13.24071 ], [ 121.411870000000135, 13.241050000000143 ], [ 121.41224, 13.24141 ], [ 121.41264, 13.241750000000138 ], [ 121.413110000000188, 13.241980000000183 ], [ 121.413610000000176, 13.24211 ], [ 121.414110000000164, 13.24203 ], [ 121.414530000000127, 13.241780000000119 ], [ 121.41475, 13.241310000000169 ], [ 121.41482, 13.24085 ], [ 121.41483, 13.240760000000137 ], [ 121.414790000000153, 13.240170000000148 ], [ 121.41483, 13.2396 ], [ 121.41497, 13.239090000000147 ], [ 121.415120000000229, 13.23861 ], [ 121.4153, 13.23817 ], [ 121.415530000000103, 13.23781 ], [ 121.41582, 13.237590000000182 ], [ 121.416110000000117, 13.237560000000201 ], [ 121.41632, 13.237720000000138 ], [ 121.4165, 13.237960000000101 ], [ 121.41666, 13.238330000000133 ], [ 121.416950000000156, 13.238330000000133 ], [ 121.4175, 13.23889 ], [ 121.4175, 13.239440000000116 ], [ 121.417780000000107, 13.239720000000204 ], [ 121.41833, 13.239720000000204 ], [ 121.41889, 13.239170000000172 ], [ 121.42, 13.239170000000172 ], [ 121.420280000000162, 13.23889 ], [ 121.42056, 13.23889 ], [ 121.42083, 13.23861 ], [ 121.421390000000315, 13.23861 ], [ 121.4225, 13.2375 ], [ 121.4225, 13.23694 ], [ 121.42223, 13.236670000000117 ], [ 121.421940000000177, 13.236670000000117 ], [ 121.421940000000177, 13.23642 ], [ 121.421940000000177, 13.236390000000199 ], [ 121.42199, 13.23612 ], [ 121.422120000000177, 13.235820000000103 ], [ 121.422290000000203, 13.235500000000116 ], [ 121.422530000000165, 13.235140000000172 ], [ 121.422870000000216, 13.23475 ], [ 121.423360000000116, 13.234470000000158 ], [ 121.42392, 13.23434 ], [ 121.424440000000118, 13.23448 ], [ 121.424670000000106, 13.23458 ], [ 121.42491, 13.234700000000146 ], [ 121.42538, 13.23487 ], [ 121.425860000000171, 13.234800000000121 ], [ 121.42633, 13.23481 ], [ 121.426800000000298, 13.23493000000019 ], [ 121.427280000000223, 13.235020000000191 ], [ 121.427780000000212, 13.234880000000146 ], [ 121.42832, 13.234790000000146 ], [ 121.42883, 13.234880000000146 ], [ 121.42924, 13.23484 ], [ 121.429580000000101, 13.234640000000184 ], [ 121.42995000000019, 13.23446 ], [ 121.430370000000153, 13.23427 ], [ 121.430860000000166, 13.234150000000113 ], [ 121.43135000000018, 13.23399 ], [ 121.43184, 13.233850000000189 ], [ 121.432290000000194, 13.233650000000182 ], [ 121.43271000000027, 13.23346 ], [ 121.43301, 13.23317 ], [ 121.43311000000017, 13.232780000000105 ], [ 121.432770000000119, 13.23226 ], [ 121.43225, 13.231760000000122 ], [ 121.43162000000018, 13.231380000000115 ], [ 121.43098, 13.231080000000134 ], [ 121.430450000000178, 13.23104 ], [ 121.42992, 13.2308 ], [ 121.42968, 13.230760000000146 ], [ 121.42932, 13.23069 ], [ 121.428860000000213, 13.230490000000202 ], [ 121.42839, 13.230300000000113 ], [ 121.42792, 13.230140000000176 ], [ 121.42751, 13.22996 ], [ 121.427180000000135, 13.22972 ], [ 121.42689, 13.22945 ], [ 121.426620000000185, 13.22917 ], [ 121.426370000000247, 13.228890000000149 ], [ 121.426130000000285, 13.228630000000123 ], [ 121.42599, 13.22838 ], [ 121.42608, 13.22817 ], [ 121.426100000000133, 13.22811 ], [ 121.426380000000222, 13.227870000000109 ], [ 121.42682, 13.22774 ], [ 121.427270000000135, 13.227630000000147 ], [ 121.42774, 13.22771 ], [ 121.4282800000002, 13.22779 ], [ 121.428850000000125, 13.227870000000109 ], [ 121.429440000000113, 13.22773 ], [ 121.42995000000019, 13.227510000000166 ], [ 121.43038, 13.22725000000014 ], [ 121.43083, 13.227 ], [ 121.431290000000217, 13.226720000000171 ], [ 121.431680000000142, 13.226310000000183 ], [ 121.432, 13.225810000000195 ], [ 121.43234, 13.2254 ], [ 121.432730000000106, 13.225140000000181 ], [ 121.43322, 13.22504 ], [ 121.43375, 13.2250200000002 ], [ 121.4343, 13.225030000000118 ], [ 121.43485, 13.2249 ], [ 121.435040000000186, 13.22487 ], [ 121.435440000000199, 13.22479 ], [ 121.436, 13.22481 ], [ 121.436440000000175, 13.225010000000111 ], [ 121.43675, 13.22528 ], [ 121.436940000000163, 13.225610000000188 ], [ 121.437020000000189, 13.225810000000195 ], [ 121.437090000000126, 13.226000000000113 ], [ 121.437260000000151, 13.22642 ], [ 121.43747, 13.22686 ], [ 121.437730000000101, 13.22725000000014 ], [ 121.43797, 13.22764 ], [ 121.4383, 13.227950000000135 ], [ 121.438790000000267, 13.22814 ], [ 121.43889, 13.228330000000142 ], [ 121.439450000000193, 13.228330000000142 ], [ 121.44, 13.228890000000149 ], [ 121.440280000000143, 13.22861 ], [ 121.44055, 13.22861 ], [ 121.441380000000208, 13.22779 ], [ 121.4418, 13.22716000000014 ], [ 121.4418, 13.22647000000012 ], [ 121.441110000000208, 13.22639 ], [ 121.44055, 13.22583 ], [ 121.44055, 13.225560000000144 ], [ 121.440280000000143, 13.22528 ], [ 121.440280000000143, 13.22472 ], [ 121.44055, 13.224440000000186 ], [ 121.44055, 13.22417 ], [ 121.440830000000119, 13.223890000000154 ], [ 121.440830000000119, 13.22361 ], [ 121.441950000000247, 13.2225 ], [ 121.441950000000247, 13.22194 ], [ 121.44222, 13.221670000000131 ], [ 121.441960000000222, 13.221470000000124 ], [ 121.441040000000271, 13.22127 ], [ 121.44048, 13.22092 ], [ 121.440830000000119, 13.219720000000109 ], [ 121.440830000000119, 13.219440000000191 ], [ 121.442500000000109, 13.217780000000175 ], [ 121.442780000000198, 13.217780000000175 ], [ 121.443610000000149, 13.21694 ], [ 121.443610000000149, 13.216110000000185 ], [ 121.44417, 13.215560000000153 ], [ 121.44417, 13.214720000000113 ], [ 121.443440000000123, 13.2145 ], [ 121.443370000000186, 13.21437 ], [ 121.44282, 13.214 ], [ 121.442180000000121, 13.2138300000002 ], [ 121.44164, 13.213630000000137 ], [ 121.4414, 13.2139600000001 ], [ 121.43591, 13.21175 ], [ 121.4129, 13.20137 ], [ 121.39516, 13.192870000000198 ], [ 121.38136, 13.186570000000131 ], [ 121.379040000000145, 13.19064 ], [ 121.37801, 13.195420000000126 ], [ 121.37877, 13.199220000000139 ], [ 121.376650000000268, 13.20175 ], [ 121.375910000000317, 13.205270000000155 ], [ 121.377210000000105, 13.207990000000166 ], [ 121.37704, 13.212950000000205 ], [ 121.37728, 13.216440000000148 ], [ 121.37657, 13.218020000000138 ], [ 121.375720000000229, 13.22183 ], [ 121.37157, 13.22379 ], [ 121.36929, 13.226080000000138 ], [ 121.366890000000126, 13.22575 ], [ 121.365070000000173, 13.22697 ], [ 121.36319, 13.229040000000111 ], [ 121.36409, 13.231400000000178 ], [ 121.363970000000108, 13.232650000000206 ], [ 121.362670000000321, 13.23422 ], [ 121.36137, 13.23545 ], [ 121.35744, 13.236340000000155 ], [ 121.35551, 13.2367 ], [ 121.355040000000145, 13.23703 ], [ 121.3531, 13.23328 ], [ 121.35134, 13.233530000000201 ], [ 121.348970000000122, 13.23662 ], [ 121.347400000000221, 13.23664 ], [ 121.34519, 13.23499 ], [ 121.34453, 13.232010000000173 ], [ 121.343800000000101, 13.22908 ], [ 121.34127, 13.22621 ], [ 121.3386, 13.22461 ], [ 121.33545, 13.224760000000174 ], [ 121.332150000000183, 13.2272 ], [ 121.331720000000132, 13.22874000000013 ], [ 121.33246, 13.23042 ], [ 121.3326, 13.2335700000001 ], [ 121.33188, 13.23493000000019 ], [ 121.328900000000203, 13.23457 ], [ 121.326340000000187, 13.22879 ], [ 121.32602, 13.226260000000138 ], [ 121.32445, 13.22112 ], [ 121.324080000000208, 13.22045 ], [ 121.32068, 13.219130000000121 ], [ 121.318920000000162, 13.21794 ], [ 121.31664000000012, 13.218650000000196 ], [ 121.315000000000168, 13.218560000000195 ], [ 121.31412, 13.21818 ], [ 121.31287, 13.21674 ], [ 121.31148, 13.21595 ], [ 121.30873, 13.215590000000134 ], [ 121.30587, 13.21549 ], [ 121.30277, 13.21575 ], [ 121.301430000000209, 13.214480000000151 ], [ 121.30010000000027, 13.213510000000156 ], [ 121.298900000000117, 13.21376 ], [ 121.298260000000255, 13.212760000000117 ], [ 121.29695, 13.21271 ], [ 121.296330000000125, 13.212370000000192 ], [ 121.29481, 13.212060000000122 ], [ 121.29313, 13.212520000000154 ], [ 121.291760000000181, 13.21177 ], [ 121.290270000000191, 13.210030000000188 ], [ 121.288190000000213, 13.210230000000195 ], [ 121.287240000000111, 13.21128 ], [ 121.28597, 13.211490000000197 ], [ 121.283080000000155, 13.210680000000139 ], [ 121.282510000000229, 13.209190000000149 ], [ 121.27679, 13.2075 ], [ 121.27524, 13.20645 ], [ 121.268590000000131, 13.20605 ], [ 121.24083, 13.204750000000104 ], [ 121.201280000000111, 13.201290000000199 ], [ 121.185570000000212, 13.20292 ], [ 121.183460000000196, 13.20114 ], [ 121.18161, 13.20028 ], [ 121.180320000000279, 13.196410000000185 ], [ 121.18106, 13.19061 ], [ 121.185040000000186, 13.187560000000133 ], [ 121.183130000000119, 13.183090000000107 ], [ 121.183040000000119, 13.17989 ], [ 121.184220000000209, 13.17811 ], [ 121.185390000000211, 13.175030000000106 ], [ 121.185780000000136, 13.174150000000111 ], [ 121.183720000000221, 13.17156 ], [ 121.17945, 13.16393 ], [ 121.178890000000138, 13.160380000000146 ], [ 121.17718, 13.158070000000123 ], [ 121.17571, 13.154360000000111 ], [ 121.174380000000156, 13.149270000000115 ], [ 121.17425, 13.145060000000171 ], [ 121.17268, 13.1402 ], [ 121.172510000000102, 13.138970000000199 ], [ 121.17078, 13.132810000000177 ], [ 121.16788, 13.12753 ], [ 121.167780000000107, 13.125130000000127 ], [ 121.16676, 13.122230000000172 ], [ 121.167920000000322, 13.11679 ], [ 121.16676, 13.11222 ], [ 121.163420000000315, 13.108690000000195 ], [ 121.16353, 13.10415 ], [ 121.16087, 13.102010000000121 ], [ 121.156930000000102, 13.10123 ], [ 121.149570000000153, 13.09354 ], [ 121.130080000000248, 13.102800000000116 ], [ 121.123410000000149, 13.10597 ], [ 121.09241, 13.12529 ], [ 121.07532, 13.135760000000175 ], [ 121.04713, 13.15323 ], [ 121.05206, 13.167000000000201 ], [ 121.055930000000103, 13.175490000000138 ], [ 121.06467, 13.19655 ], [ 121.06814, 13.20625 ], [ 121.1084800000001, 13.23291 ], [ 121.12988, 13.24793 ], [ 121.15858, 13.264320000000112 ], [ 121.16956000000016, 13.27092000000016 ], [ 121.172960000000103, 13.27225 ], [ 121.17487, 13.273260000000107 ], [ 121.17743, 13.27446 ], [ 121.181740000000218, 13.28025 ], [ 121.2, 13.2911 ], [ 121.214770000000158, 13.298620000000199 ], [ 121.235360000000128, 13.310930000000155 ], [ 121.24264, 13.31532 ], [ 121.256660000000124, 13.323300000000131 ], [ 121.2859, 13.3365 ], [ 121.290890000000104, 13.33887 ], [ 121.300830000000133, 13.344390000000203 ], [ 121.300830000000133, 13.344170000000133 ], [ 121.30028, 13.343610000000126 ], [ 121.30028, 13.34333 ], [ 121.300000000000182, 13.34306 ], [ 121.29972, 13.34333 ], [ 121.29945, 13.34306 ], [ 121.2997, 13.3427 ], [ 121.299840000000245, 13.342410000000143 ], [ 121.30002, 13.34208 ], [ 121.30028, 13.34172 ], [ 121.30064, 13.341360000000122 ], [ 121.30107, 13.341150000000198 ], [ 121.30145, 13.34131 ], [ 121.30179, 13.341570000000104 ], [ 121.302090000000248, 13.341880000000174 ], [ 121.302320000000122, 13.3422300000002 ], [ 121.30255, 13.34263 ], [ 121.302690000000212, 13.343090000000132 ], [ 121.302760000000262, 13.343580000000145 ], [ 121.302660000000174, 13.344050000000152 ], [ 121.302420000000211, 13.344510000000184 ], [ 121.30227, 13.34497 ], [ 121.30224, 13.34517 ], [ 121.3022, 13.345420000000161 ], [ 121.30246, 13.34585 ], [ 121.30287, 13.346070000000111 ], [ 121.30323, 13.346010000000149 ], [ 121.30345, 13.34584 ], [ 121.30352, 13.345780000000104 ], [ 121.30375000000015, 13.345450000000142 ], [ 121.3039500000001, 13.34511 ], [ 121.304090000000201, 13.344800000000191 ], [ 121.304250000000138, 13.344540000000165 ], [ 121.30443, 13.344250000000159 ], [ 121.30462, 13.343840000000171 ], [ 121.30478, 13.34325 ], [ 121.304820000000177, 13.342650000000106 ], [ 121.304920000000152, 13.34213 ], [ 121.30493, 13.342050000000199 ], [ 121.305210000000102, 13.3416 ], [ 121.30555, 13.34134 ], [ 121.305840000000217, 13.3411 ], [ 121.306080000000179, 13.34088 ] ] ] ] } }
]
}
