{
"type": "FeatureCollection",
"name": "naujan_mangrove",
"crs": { "type": "name", "properties": { "name": "urn:ogc:def:crs:OGC:1.3:CRS84" } },
"features": [
{ "type": "Feature", "properties": { "id": 1, "NAME": "Brgy. San Antonio Mangrove Area" }, "geometry": { "type": "MultiPolygon", "coordinates": [ [ [ [ 121.316625919967066, 13.303173118806358 ], [ 121.31940096873663, 13.305575166875583 ], [ 121.322587811145567, 13.306999889251687 ], [ 121.322781446387225, 13.307741670974741 ], [ 121.32393757070102, 13.307293092321286 ], [ 121.325829369744213, 13.305890503066932 ], [ 121.326765619913274, 13.307240976184985 ], [ 121.325875956182898, 13.308632179234431 ], [ 121.323219998334679, 13.311047657446146 ], [ 121.322067318184125, 13.312450230375866 ], [ 121.323719598387498, 13.313906490716104 ], [ 121.325461989046502, 13.312810431305312 ], [ 121.326398871523438, 13.311512281523813 ], [ 121.329918389692409, 13.310091936058598 ], [ 121.33213340464188, 13.307441225177991 ], [ 121.332252841415723, 13.303686305943677 ], [ 121.3334017914177, 13.301643523154175 ], [ 121.33263038713558, 13.299789903262266 ], [ 121.333137490306001, 13.299315710536785 ], [ 121.334080190542053, 13.301886639108741 ], [ 121.332690033082329, 13.304170018738196 ], [ 121.333180434713469, 13.306317457833845 ], [ 121.334901113118562, 13.304905401073119 ], [ 121.338823423286414, 13.30052436704959 ], [ 121.338826817803877, 13.297021484319995 ], [ 121.33947801586568, 13.294889212700406 ], [ 121.335124583913128, 13.295992014360712 ], [ 121.333926726884755, 13.296033884320101 ], [ 121.334670243617865, 13.294755736242273 ], [ 121.332094879910187, 13.292104632447627 ], [ 121.329296730838962, 13.291498079526695 ], [ 121.325954683894864, 13.29400119227617 ], [ 121.325332762541564, 13.292612240993828 ], [ 121.323006236845941, 13.29444079751979 ], [ 121.322472525792691, 13.298076913530545 ], [ 121.319387133546982, 13.298543652326053 ], [ 121.320186668247416, 13.301362303476555 ], [ 121.318523355018442, 13.300229898617264 ], [ 121.316065326643596, 13.300704295473341 ], [ 121.314780382881352, 13.300162740076436 ], [ 121.314021854518387, 13.298549272207413 ], [ 121.313148987460963, 13.298880649438001 ], [ 121.312131178033752, 13.298596171355305 ], [ 121.311494855172114, 13.299229675200834 ], [ 121.311800081632271, 13.300027280827832 ], [ 121.312308649825738, 13.304131860681181 ], [ 121.313972699106898, 13.304056486114334 ], [ 121.316625919967066, 13.303173118806358 ] ] ], [ [ [ 121.302746544608311, 13.315746949806103 ], [ 121.30293955166016, 13.317256948326364 ], [ 121.301630541073692, 13.318036958206513 ], [ 121.302605550552471, 13.318200955071667 ], [ 121.30494658345107, 13.320601959599891 ], [ 121.305684590779578, 13.321924960595361 ], [ 121.30662460139105, 13.321902962030137 ], [ 121.309111506030831, 13.316322241463892 ], [ 121.309493152046173, 13.31452603350469 ], [ 121.309430554087456, 13.310241166445804 ], [ 121.308242606849191, 13.308524911312382 ], [ 121.306590651727745, 13.307176159757569 ], [ 121.30606559403067, 13.305699320934705 ], [ 121.304536093434677, 13.305327576740641 ], [ 121.303306378130543, 13.305644779866791 ], [ 121.301398308189775, 13.305297609180268 ], [ 121.300261283172432, 13.304232465394378 ], [ 121.299903028882767, 13.305314738887223 ], [ 121.30077049871845, 13.307062915207798 ], [ 121.299883493128263, 13.308176916414746 ], [ 121.300763505959026, 13.308893922121984 ], [ 121.299439490277791, 13.309512924009624 ], [ 121.299615497080509, 13.311665934909195 ], [ 121.300331518016833, 13.313876941934179 ], [ 121.301482530362193, 13.316058956255061 ], [ 121.302746544608311, 13.315746949806103 ] ] ], [ [ [ 121.301148943603437, 13.33710378228362 ], [ 121.302583463541666, 13.336562005998674 ], [ 121.302694322081592, 13.335224991648719 ], [ 121.3034223933536, 13.334063842207673 ], [ 121.303444343784591, 13.332238133607481 ], [ 121.303734880293888, 13.33160735210889 ], [ 121.303715625894725, 13.330396012253985 ], [ 121.301583739530372, 13.329025933064802 ], [ 121.299392541616527, 13.32954456599445 ], [ 121.298651018487377, 13.332630893304948 ], [ 121.297069658687832, 13.333054159227951 ], [ 121.296943600202937, 13.333921044392035 ], [ 121.297670244322958, 13.334287471403954 ], [ 121.298408844573032, 13.335584979786976 ], [ 121.299592203642177, 13.336641416648447 ], [ 121.301148943603437, 13.33710378228362 ] ] ], [ [ [ 121.303003538006152, 13.338301890181578 ], [ 121.303608151914645, 13.33801077978119 ], [ 121.303850229670303, 13.337805944757193 ], [ 121.303719243912198, 13.337856133456146 ], [ 121.303316873825224, 13.338011985685538 ], [ 121.302726554552962, 13.338086106491028 ], [ 121.302652338485046, 13.338085192604725 ], [ 121.303003538006152, 13.338301890181578 ] ] ], [ [ [ 121.306340111056755, 13.340149321568644 ], [ 121.306519255918531, 13.339578297321729 ], [ 121.306631221457152, 13.339040862736399 ], [ 121.306676007672593, 13.338145138427512 ], [ 121.306586435241698, 13.33750693485743 ], [ 121.306172162748837, 13.337383772764959 ], [ 121.305780283363703, 13.337428558980402 ], [ 121.304985328039564, 13.337753259042373 ], [ 121.304268748592463, 13.338066762550485 ], [ 121.304056014069104, 13.33844744538176 ], [ 121.303720117453267, 13.338872914428482 ], [ 121.303473793268324, 13.339141631721148 ], [ 121.303205075975654, 13.339085648951842 ], [ 121.30308191388319, 13.338906504090065 ], [ 121.302891572467544, 13.338805735105314 ], [ 121.302790803482793, 13.338962486859369 ], [ 121.302891572467544, 13.339208811044314 ], [ 121.303261058744965, 13.33948872489084 ], [ 121.303664134683956, 13.339914193937561 ], [ 121.304134389946128, 13.340485218184478 ], [ 121.304806183177789, 13.34114581486228 ], [ 121.305332421209258, 13.341246583847031 ], [ 121.305545155732617, 13.341101028646836 ], [ 121.305735497148262, 13.340933080338921 ], [ 121.305948231671621, 13.340653166492393 ], [ 121.306340111056755, 13.340149321568644 ] ] ], [ [ [ 121.296212828089367, 13.348126866194654 ], [ 121.295697786611768, 13.346895245269934 ], [ 121.294958814056926, 13.346492169330936 ], [ 121.29500360027231, 13.345764393329969 ], [ 121.29531710378042, 13.345406103606415 ], [ 121.295720179719424, 13.345226958744638 ], [ 121.296100862550702, 13.345025420775137 ], [ 121.296280007412477, 13.344599951728416 ], [ 121.29652633159742, 13.34453277240525 ], [ 121.29679504889009, 13.344644737943861 ], [ 121.297130945505913, 13.34453277240525 ], [ 121.297287697259975, 13.344443199974361 ], [ 121.297802738737587, 13.344084910250807 ], [ 121.298541711292415, 13.343144399726476 ], [ 121.299437435601291, 13.342427820279367 ], [ 121.299862904648023, 13.342360640956201 ], [ 121.300557090987411, 13.340860302738816 ], [ 121.301878284343019, 13.340949875169704 ], [ 121.301900677450732, 13.34027808193804 ], [ 121.302281360282009, 13.339875005999037 ], [ 121.301161704895904, 13.339158426551927 ], [ 121.300736235849186, 13.339136033444206 ], [ 121.300557090987397, 13.339270392090539 ], [ 121.300064442617511, 13.339337571413706 ], [ 121.299638973570794, 13.339091247228762 ], [ 121.299168718308636, 13.338531419535707 ], [ 121.298877607908238, 13.337904412519487 ], [ 121.298676069938736, 13.337680481442266 ], [ 121.29724291104452, 13.33772526765771 ], [ 121.296089015659817, 13.337881969500076 ], [ 121.293903526575889, 13.335267066125851 ], [ 121.29098750081792, 13.33747408105449 ], [ 121.289766493217371, 13.338040085804105 ], [ 121.282343441200723, 13.343717135081047 ], [ 121.282199819029884, 13.346087372831812 ], [ 121.277925243088092, 13.35140030712731 ], [ 121.276167874011946, 13.351722208074566 ], [ 121.276473800893172, 13.352642087784213 ], [ 121.276526806427029, 13.353044676401719 ], [ 121.276226771531043, 13.35358173559594 ], [ 121.276717077381633, 13.354285562117321 ], [ 121.278362822276733, 13.353482194865187 ], [ 121.281688612680952, 13.350503877271576 ], [ 121.284822306964259, 13.349883333772061 ], [ 121.288709432442431, 13.345824044905356 ], [ 121.291296367879681, 13.345498005092635 ], [ 121.294347913528597, 13.343035079197493 ], [ 121.294339693863819, 13.343056180972695 ], [ 121.294368399264428, 13.343018545003002 ], [ 121.294984396743388, 13.342521368713733 ], [ 121.294925224395371, 13.342629358248864 ], [ 121.294622917441117, 13.342819699664501 ], [ 121.294370994979246, 13.343256365265084 ], [ 121.294315012209935, 13.343485894619237 ], [ 121.294247832886768, 13.343709825696459 ], [ 121.294051893194194, 13.344068115420015 ], [ 121.293895141440146, 13.344454396528223 ], [ 121.293900739717074, 13.344583156897624 ], [ 121.293660013809031, 13.34515977942147 ], [ 121.293648817255175, 13.345641231237497 ], [ 121.293615227593591, 13.345999520961051 ], [ 121.293704800024486, 13.346626527977271 ], [ 121.293760782793782, 13.34691763837766 ], [ 121.294175055286658, 13.34725353499349 ], [ 121.295070779595548, 13.347902935117432 ], [ 121.295595627067058, 13.348319193456916 ], [ 121.295771772912076, 13.348223781124197 ], [ 121.296068256134021, 13.348117894259214 ], [ 121.296163002034447, 13.348156308863469 ], [ 121.296212828089367, 13.348126866194654 ] ], [ [ 121.295752493819933, 13.341901431672813 ], [ 121.295955274521262, 13.341737765813679 ], [ 121.295865734919701, 13.342013547786504 ], [ 121.295585821073175, 13.342142308155907 ], [ 121.295416365752985, 13.342172723213377 ], [ 121.295735535716162, 13.341915118688421 ], [ 121.295748171104151, 13.341912778801756 ], [ 121.295752493819933, 13.341901431672813 ] ] ], [ [ [ 121.299107137262467, 13.347079988408654 ], [ 121.300193202986989, 13.346217853761349 ], [ 121.301010551418855, 13.34570281228374 ], [ 121.301480806681028, 13.34540050532949 ], [ 121.302522086190109, 13.345053412159798 ], [ 121.303484989822152, 13.344325636158826 ], [ 121.30417917616154, 13.343564270496273 ], [ 121.304548662438961, 13.342634956525805 ], [ 121.304380714131042, 13.341907180524833 ], [ 121.303832082991846, 13.340966670000501 ], [ 121.303339434621961, 13.340328466430419 ], [ 121.302566872405549, 13.33982462150667 ], [ 121.302365334436047, 13.339869407722114 ], [ 121.301984651604769, 13.340283680214975 ], [ 121.302186189574272, 13.34044043196903 ], [ 121.302331744774463, 13.341302566616333 ], [ 121.302746017267324, 13.341929573632553 ], [ 121.302891572467516, 13.342556580648774 ], [ 121.302902769021372, 13.343015639357079 ], [ 121.302253368897439, 13.343474698065382 ], [ 121.30141362735786, 13.343799398127354 ], [ 121.300786620341626, 13.344023329204575 ], [ 121.300573885818267, 13.344034525758437 ], [ 121.29989089603275, 13.342847691049162 ], [ 121.299946878802047, 13.342355042679275 ], [ 121.299465426986018, 13.342433418556302 ], [ 121.298580899231013, 13.343116408341828 ], [ 121.297965088768649, 13.344012132650715 ], [ 121.298043464645673, 13.34448238791288 ], [ 121.297841926676185, 13.344941446621183 ], [ 121.297606799045099, 13.345366915667904 ], [ 121.296979792028878, 13.345904350253237 ], [ 121.296263212581763, 13.346150674438181 ], [ 121.295860136642773, 13.346564946931041 ], [ 121.295680991780998, 13.346856057331429 ], [ 121.29627440913562, 13.34808767825615 ], [ 121.297024578244304, 13.348042892040706 ], [ 121.297920302553194, 13.347718191978734 ], [ 121.299107137262467, 13.347079988408654 ] ] ], [ [ [ 121.293543898335543, 13.345022070978459 ], [ 121.293627393442478, 13.344788049481528 ], [ 121.293554164174708, 13.344908877773374 ], [ 121.293543898335543, 13.345022070978459 ] ] ], [ [ [ 121.293479639838992, 13.345730598071235 ], [ 121.293426258609045, 13.346319190237223 ], [ 121.293439555759633, 13.346379065846174 ], [ 121.293464074116528, 13.346352212407675 ], [ 121.293531253439696, 13.345915546807092 ], [ 121.293479639838992, 13.345730598071235 ] ] ] ] } }
]
}
