{
"type": "FeatureCollection",
"name": "naujan_vuln",
"crs": { "type": "name", "properties": { "name": "urn:ogc:def:crs:OGC:1.3:CRS84" } },
"features": [
{ "type": "Feature", "properties": { "id": 1, "Ty_Disabil": "N/A", "Ty_Vul": "Senior" }, "geometry": null },
{ "type": "Feature", "properties": { "id": 1, "Ty_Disabil": "N/A", "Ty_Vul": "Senior" }, "geometry": { "type": "Point", "coordinates": [ 121.297308583781657, 13.336033478319148 ] } },
{ "type": "Feature", "properties": { "id": 2, "Ty_Disabil": "Mental", "Ty_Vul": "N/A" }, "geometry": { "type": "Point", "coordinates": [ 121.297186630988918, 13.336123249124917 ] } },
{ "type": "Feature", "properties": { "id": 3, "Ty_Disabil": "N/A", "Ty_Vul": "Senior" }, "geometry": { "type": "Point", "coordinates": [ 121.297740685148099, 13.33625425440372 ] } },
{ "type": "Feature", "properties": { "id": 4, "Ty_Disabil": "Speech", "Ty_Vul": "N/A" }, "geometry": { "type": "Point", "coordinates": [ 121.29749017431844, 13.336471803282103 ] } },
{ "type": "Feature", "properties": { "id": 5, "Ty_Disabil": "N/A", "Ty_Vul": "Senior" }, "geometry": { "type": "Point", "coordinates": [ 121.297365742952607, 13.336041649818029 ] } },
{ "type": "Feature", "properties": { "id": 6, "Ty_Disabil": "Speech", "Ty_Vul": "N/A" }, "geometry": { "type": "Point", "coordinates": [ 121.297210821781647, 13.336163609037728 ] } },
{ "type": "Feature", "properties": { "id": 7, "Ty_Disabil": "N/A", "Ty_Vul": "Senior" }, "geometry": { "type": "Point", "coordinates": [ 121.298393331783487, 13.336199867184126 ] } },
{ "type": "Feature", "properties": { "id": 8, "Ty_Disabil": "Deaf", "Ty_Vul": "Senior" }, "geometry": { "type": "Point", "coordinates": [ 121.298279613051605, 13.336272383476921 ] } },
{ "type": "Feature", "properties": { "id": 9, "Ty_Disabil": "Deaf", "Ty_Vul": "Senior" }, "geometry": { "type": "Point", "coordinates": [ 121.298253243490592, 13.33610757372057 ] } },
{ "type": "Feature", "properties": { "id": 10, "Ty_Disabil": "Mental", "Ty_Vul": "Senior" }, "geometry": { "type": "Point", "coordinates": [ 121.298500458125147, 13.336260022745194 ] } },
{ "type": "Feature", "properties": { "id": 11, "Ty_Disabil": "N/A", "Ty_Vul": "Senior" }, "geometry": { "type": "Point", "coordinates": [ 121.298575240552154, 13.336326976708724 ] } },
{ "type": "Feature", "properties": { "id": 12, "Ty_Disabil": "N/A", "Ty_Vul": "Senior" }, "geometry": { "type": "Point", "coordinates": [ 121.298668358064518, 13.336374771538066 ] } },
{ "type": "Feature", "properties": { "id": 13, "Ty_Disabil": "N/A", "Ty_Vul": "Senior" }, "geometry": { "type": "Point", "coordinates": [ 121.298923401162497, 13.336483545977261 ] } },
{ "type": "Feature", "properties": { "id": 14, "Ty_Disabil": "N/A", "Ty_Vul": "Senior" }, "geometry": { "type": "Point", "coordinates": [ 121.299011574382163, 13.336460472611373 ] } },
{ "type": "Feature", "properties": { "id": 15, "Ty_Disabil": "Physical", "Ty_Vul": "N/A" }, "geometry": { "type": "Point", "coordinates": [ 121.298651877088943, 13.336603445075006 ] } },
{ "type": "Feature", "properties": { "id": 16, "Ty_Disabil": "Physical", "Ty_Vul": "N/A" }, "geometry": { "type": "Point", "coordinates": [ 121.298577300674239, 13.336625282367727 ] } },
{ "type": "Feature", "properties": { "id": 17, "Ty_Disabil": "Physical", "Ty_Vul": "Senior" }, "geometry": { "type": "Point", "coordinates": [ 121.298674538430475, 13.336671429099505 ] } },
{ "type": "Feature", "properties": { "id": 18, "Ty_Disabil": "Mental", "Ty_Vul": "N/A" }, "geometry": { "type": "Point", "coordinates": [ 121.298692667503659, 13.33680574905093 ] } },
{ "type": "Feature", "properties": { "id": 19, "Ty_Disabil": "Deaf", "Ty_Vul": "Senior" }, "geometry": { "type": "Point", "coordinates": [ 121.29878084072331, 13.336844479343677 ] } },
{ "type": "Feature", "properties": { "id": 20, "Ty_Disabil": "N/A", "Ty_Vul": "Senior" }, "geometry": { "type": "Point", "coordinates": [ 121.29841661116177, 13.336765370660629 ] } },
{ "type": "Feature", "properties": { "id": 21, "Ty_Disabil": "N/A", "Ty_Vul": "Senior" }, "geometry": { "type": "Point", "coordinates": [ 121.298523737503402, 13.336801628807025 ] } },
{ "type": "Feature", "properties": { "id": 22, "Ty_Disabil": "N/A", "Ty_Vul": "Senior" }, "geometry": { "type": "Point", "coordinates": [ 121.300578915165076, 13.338906249395624 ] } },
{ "type": "Feature", "properties": { "id": 23, "Ty_Disabil": "N/A", "Ty_Vul": "Senior" }, "geometry": { "type": "Point", "coordinates": [ 121.300633302384682, 13.338860102663846 ] } },
{ "type": "Feature", "properties": { "id": 24, "Ty_Disabil": "N/A", "Ty_Vul": "Senior" }, "geometry": { "type": "Point", "coordinates": [ 121.300567378482143, 13.338813955932068 ] } },
{ "type": "Feature", "properties": { "id": 25, "Ty_Disabil": "N/A", "Ty_Vul": "Breastfeeding" }, "geometry": { "type": "Point", "coordinates": [ 121.300412457311168, 13.338930970859076 ] } },
{ "type": "Feature", "properties": { "id": 26, "Ty_Disabil": "Speech", "Ty_Vul": "Senior" }, "geometry": { "type": "Point", "coordinates": [ 121.300620117604169, 13.338762864907599 ] } },
{ "type": "Feature", "properties": { "id": 27, "Ty_Disabil": "N/A", "Ty_Vul": "Senior" }, "geometry": { "type": "Point", "coordinates": [ 121.300501454579603, 13.338685404322113 ] } },
{ "type": "Feature", "properties": { "id": 28, "Ty_Disabil": "N/A", "Ty_Vul": "Senior" }, "geometry": { "type": "Point", "coordinates": [ 121.300450363555129, 13.338568389395105 ] } },
{ "type": "Feature", "properties": { "id": 29, "Ty_Disabil": "N/A", "Ty_Vul": "Senior" }, "geometry": { "type": "Point", "coordinates": [ 121.300920071360736, 13.338116810662706 ] } },
{ "type": "Feature", "properties": { "id": 30, "Ty_Disabil": "N/A", "Ty_Vul": "Senior" }, "geometry": { "type": "Point", "coordinates": [ 121.300834370287433, 13.338164605492047 ] } },
{ "type": "Feature", "properties": { "id": 31, "Ty_Disabil": "N/A", "Ty_Vul": "Breadfeeding" }, "geometry": { "type": "Point", "coordinates": [ 121.300961273799828, 13.338222288906771 ] } },
{ "type": "Feature", "properties": { "id": 32, "Ty_Disabil": "Visual", "Ty_Vul": "Senior" }, "geometry": { "type": "Point", "coordinates": [ 121.300893701799723, 13.338331063345962 ] } },
{ "type": "Feature", "properties": { "id": 33, "Ty_Disabil": "N/A", "Ty_Vul": "Senior" }, "geometry": { "type": "Point", "coordinates": [ 121.300826129799617, 13.338413468224136 ] } },
{ "type": "Feature", "properties": { "id": 34, "Ty_Disabil": "N/A", "Ty_Vul": "Senior" }, "geometry": { "type": "Point", "coordinates": [ 121.300765150189775, 13.33848104022424 ] } },
{ "type": "Feature", "properties": { "id": 35, "Ty_Disabil": "N/A", "Ty_Vul": "Senior" }, "geometry": { "type": "Point", "coordinates": [ 121.300756909701946, 13.338558500809725 ] } },
{ "type": "Feature", "properties": { "id": 36, "Ty_Disabil": "N/A", "Ty_Vul": "Senior" }, "geometry": { "type": "Point", "coordinates": [ 121.300813769067915, 13.338244538223879 ] } },
{ "type": "Feature", "properties": { "id": 37, "Ty_Disabil": "Visual", "Ty_Vul": "Senior" }, "geometry": { "type": "Point", "coordinates": [ 121.300676976970195, 13.338144828321289 ] } },
{ "type": "Feature", "properties": { "id": 38, "Ty_Disabil": "N/A", "Ty_Vul": "Pregnant" }, "geometry": { "type": "Point", "coordinates": [ 121.299342841992583, 13.33724373097845 ] } },
{ "type": "Feature", "properties": { "id": 39, "Ty_Disabil": "N/A", "Ty_Vul": "Pregnant" }, "geometry": { "type": "Point", "coordinates": [ 121.299428543065886, 13.337319543466371 ] } },
{ "type": "Feature", "properties": { "id": 40, "Ty_Disabil": "N/A", "Ty_Vul": "Pregnant" }, "geometry": { "type": "Point", "coordinates": [ 121.299421950675637, 13.337092106002608 ] } },
{ "type": "Feature", "properties": { "id": 41, "Ty_Disabil": "N/A", "Ty_Vul": "Senior" }, "geometry": { "type": "Point", "coordinates": [ 121.299552150383136, 13.337660699662015 ] } },
{ "type": "Feature", "properties": { "id": 42, "Ty_Disabil": "Deaf", "Ty_Vul": "Senior" }, "geometry": { "type": "Point", "coordinates": [ 121.299464801212281, 13.337815620832984 ] } },
{ "type": "Feature", "properties": { "id": 43, "Ty_Disabil": "Deaf", "Ty_Vul": "Senior" }, "geometry": { "type": "Point", "coordinates": [ 121.299410413992689, 13.337769474101206 ] } },
{ "type": "Feature", "properties": { "id": 44, "Ty_Disabil": "N/A", "Ty_Vul": "Senior" }, "geometry": { "type": "Point", "coordinates": [ 121.299656804578376, 13.338266375516605 ] } },
{ "type": "Feature", "properties": { "id": 45, "Ty_Disabil": "N/A", "Ty_Vul": "Senior" }, "geometry": { "type": "Point", "coordinates": [ 121.2997144879931, 13.338387510687523 ] } },
{ "type": "Feature", "properties": { "id": 46, "Ty_Disabil": "N/A", "Ty_Vul": "Senior" }, "geometry": { "type": "Point", "coordinates": [ 121.299915555895851, 13.338392454980214 ] } },
{ "type": "Feature", "properties": { "id": 47, "Ty_Disabil": "Physical", "Ty_Vul": "Senior" }, "geometry": { "type": "Point", "coordinates": [ 121.299979831700824, 13.338443546004683 ] } },
{ "type": "Feature", "properties": { "id": 48, "Ty_Disabil": "N/A", "Ty_Vul": "Senior" }, "geometry": { "type": "Point", "coordinates": [ 121.299889186334838, 13.338258959077571 ] } },
{ "type": "Feature", "properties": { "id": 49, "Ty_Disabil": "Visual", "Ty_Vul": "Senior" }, "geometry": { "type": "Point", "coordinates": [ 121.300105087115654, 13.337843638491568 ] } },
{ "type": "Feature", "properties": { "id": 50, "Ty_Disabil": "Visual", "Ty_Vul": "Senior" }, "geometry": { "type": "Point", "coordinates": [ 121.300088606140008, 13.337952412930759 ] } },
{ "type": "Feature", "properties": { "id": 51, "Ty_Disabil": "Visual", "Ty_Vul": "Senior" }, "geometry": { "type": "Point", "coordinates": [ 121.30001196960329, 13.338058715223607 ] } },
{ "type": "Feature", "properties": { "id": 52, "Ty_Disabil": "Visual", "Ty_Vul": "Senior" }, "geometry": { "type": "Point", "coordinates": [ 121.29997900765197, 13.338160897272543 ] } },
{ "type": "Feature", "properties": { "id": 53, "Ty_Disabil": "N/A Rare Disability", "Ty_Vul": "Senior" }, "geometry": { "type": "Point", "coordinates": [ 121.300031746774039, 13.338592698834184 ] } },
{ "type": "Feature", "properties": { "id": 54, "Ty_Disabil": "N/A", "Ty_Vul": "Senior" }, "geometry": { "type": "Point", "coordinates": [ 121.300211389408432, 13.338708889712409 ] } },
{ "type": "Feature", "properties": { "id": 55, "Ty_Disabil": "N/A", "Ty_Vul": "Senior" }, "geometry": { "type": "Point", "coordinates": [ 121.300250943750001, 13.338527598980427 ] } },
{ "type": "Feature", "properties": { "id": 56, "Ty_Disabil": "N/A", "Ty_Vul": "Breastfeeding" }, "geometry": { "type": "Point", "coordinates": [ 121.300505574823561, 13.338324058931335 ] } },
{ "type": "Feature", "properties": { "id": 57, "Ty_Disabil": "Deaf", "Ty_Vul": "Senior" }, "geometry": { "type": "Point", "coordinates": [ 121.299782884041988, 13.338083436687061 ] } },
{ "type": "Feature", "properties": { "id": 58, "Ty_Disabil": "Physical", "Ty_Vul": "N/A" }, "geometry": { "type": "Point", "coordinates": [ 121.300110855457078, 13.338650382248909 ] } },
{ "type": "Feature", "properties": { "id": 59, "Ty_Disabil": "Visual", "Ty_Vul": "Senior" }, "geometry": { "type": "Point", "coordinates": [ 121.299843039603033, 13.338338891809409 ] } },
{ "type": "Feature", "properties": { "id": 60, "Ty_Disabil": "Deaf", "Ty_Vul": "Senior" }, "geometry": { "type": "Point", "coordinates": [ 121.299701303212601, 13.338211988297017 ] } },
{ "type": "Feature", "properties": { "id": 61, "Ty_Disabil": "Learning", "Ty_Vul": "N/A" }, "geometry": { "type": "Point", "coordinates": [ 121.300262068408529, 13.338075196199247 ] } },
{ "type": "Feature", "properties": { "id": 62, "Ty_Disabil": "N/A", "Ty_Vul": "Senior" }, "geometry": { "type": "Point", "coordinates": [ 121.30027195699391, 13.338185618736002 ] } },
{ "type": "Feature", "properties": { "id": 63, "Ty_Disabil": "N/A", "Ty_Vul": "Senior" }, "geometry": { "type": "Point", "coordinates": [ 121.300393916213636, 13.338261019199537 ] } },
{ "type": "Feature", "properties": { "id": 64, "Ty_Disabil": "Deaf", "Ty_Vul": "Senior" }, "geometry": { "type": "Point", "coordinates": [ 121.300193672359782, 13.338363201248475 ] } },
{ "type": "Feature", "properties": { "id": 65, "Ty_Disabil": "Visual", "Ty_Vul": "Senior" }, "geometry": { "type": "Point", "coordinates": [ 121.300407925043089, 13.337982490711305 ] } },
{ "type": "Feature", "properties": { "id": 66, "Ty_Disabil": "N/A", "Ty_Vul": "Breastfeeding" }, "geometry": { "type": "Point", "coordinates": [ 121.30071529523866, 13.338082200613897 ] } },
{ "type": "Feature", "properties": { "id": 67, "Ty_Disabil": "N/A", "Ty_Vul": "Senior" }, "geometry": { "type": "Point", "coordinates": [ 121.300436766750494, 13.33840440368756 ] } },
{ "type": "Feature", "properties": { "id": 68, "Ty_Disabil": "Speech", "Ty_Vul": "Senior" }, "geometry": { "type": "Point", "coordinates": [ 121.300294206311236, 13.338364849346037 ] } }
]
}
