{
"type": "FeatureCollection",
"name": "naujan_muniwaterLine",
"crs": { "type": "name", "properties": { "name": "urn:ogc:def:crs:OGC:1.3:CRS84" } },
"features": [
{ "type": "Feature", "properties": { "Id": 0, "Name": null }, "geometry": { "type": "MultiPolygon", "coordinates": [ [ [ [ 121.278801091829564, 13.359699927815173 ], [ 121.2942555365929, 13.389770122518765 ], [ 121.309342580238919, 13.374701279637449 ], [ 121.322723185175647, 13.362915386154713 ], [ 121.334933457482734, 13.351011942988952 ], [ 121.349497135019732, 13.340182269521101 ], [ 121.359108084886074, 13.330925727982153 ], [ 121.367495656519978, 13.318629428084082 ], [ 121.380491796301882, 13.30074468009502 ], [ 121.391752760121179, 13.290025255489478 ], [ 121.40678654753431, 13.27671169001357 ], [ 121.420539894273702, 13.261928299352469 ], [ 121.433657018963601, 13.25420113831186 ], [ 121.45002033984882, 13.250816750365875 ], [ 121.465068081154129, 13.241732153301246 ], [ 121.449716421125146, 13.220496704599705 ], [ 121.437689229865569, 13.225003749720349 ], [ 121.437426903652792, 13.225036606987182 ], [ 121.437305092711725, 13.225145660643919 ], [ 121.436763937950744, 13.224983854367109 ], [ 121.436432877030683, 13.224923407576588 ], [ 121.435741965236687, 13.224828109398107 ], [ 121.43519400071041, 13.224963115150956 ], [ 121.434796924966733, 13.22510606241868 ], [ 121.434348229376383, 13.225078267116622 ], [ 121.433994831964512, 13.224959144393519 ], [ 121.433002142605318, 13.225300629533081 ], [ 121.432859195337599, 13.225471372102861 ], [ 121.432581242317013, 13.225503138162356 ], [ 121.432116663696917, 13.225602407098275 ], [ 121.43156869917064, 13.225578582553654 ], [ 121.431167652669529, 13.225777120425493 ], [ 121.431104120550543, 13.225912126178342 ], [ 121.431290746150069, 13.226142430109675 ], [ 121.431255009333142, 13.226241699045593 ], [ 121.431540903868594, 13.226329055709202 ], [ 121.431719587953239, 13.226527593581041 ], [ 121.431227214031082, 13.226730102210315 ], [ 121.431032646916677, 13.226646716304144 ], [ 121.430897641163838, 13.226694365393385 ], [ 121.430857933589465, 13.226955442694852 ], [ 121.430512477692474, 13.227340606166218 ], [ 121.430000249983124, 13.227749594182203 ], [ 121.429845390443091, 13.227832980088376 ], [ 121.429349045763502, 13.227872687662744 ], [ 121.429150507891663, 13.227781360241698 ], [ 121.428824905781852, 13.227852833875559 ], [ 121.42855886503358, 13.22772874770566 ], [ 121.428141935502723, 13.227764484522591 ], [ 121.42715321690099, 13.227523261008308 ], [ 121.426966591301465, 13.227666208276032 ], [ 121.426774009565762, 13.227697477990848 ], [ 121.426579442451356, 13.227624018978267 ], [ 121.42641267063901, 13.227639902008015 ], [ 121.426186337465126, 13.2275843114039 ], [ 121.425904413687107, 13.227913884271151 ], [ 121.425817057023494, 13.228246435206479 ], [ 121.425640358317551, 13.228738312783959 ], [ 121.425741612632194, 13.228972587472727 ], [ 121.425727714981164, 13.229157227693538 ], [ 121.42583294005324, 13.229032148834278 ], [ 121.426037434061229, 13.228944792170671 ], [ 121.426230015796918, 13.2290559733789 ], [ 121.426607237753416, 13.229406889067373 ], [ 121.426833570927315, 13.229781629300467 ], [ 121.426750185021135, 13.229922094844794 ], [ 121.426404729124144, 13.229951875525568 ], [ 121.426317372460531, 13.230019378401995 ], [ 121.426394802230547, 13.230136515746379 ], [ 121.42701424039069, 13.230317185209751 ], [ 121.42749668741925, 13.230454176341318 ], [ 121.42762772241467, 13.230432337175417 ], [ 121.427756772031358, 13.230392629601049 ], [ 121.427909646192674, 13.230414468766952 ], [ 121.428197526106842, 13.230503810809278 ], [ 121.428638280182327, 13.230755457561834 ], [ 121.428801081237239, 13.230941090472003 ], [ 121.428932116232659, 13.231203160462828 ], [ 121.429100873423721, 13.231361990760298 ], [ 121.429565452043818, 13.231530747951361 ], [ 121.42983149279209, 13.231570455525729 ], [ 121.430145182629602, 13.231481113483401 ], [ 121.430770576925894, 13.231417581364413 ], [ 121.431201404107782, 13.231429493636723 ], [ 121.43155281614095, 13.231532733330079 ], [ 121.432001511731301, 13.231693052661589 ], [ 121.433012069498957, 13.232313979855762 ], [ 121.433206636613363, 13.232492663940416 ], [ 121.433329730093917, 13.232769624271631 ], [ 121.433329730093917, 13.23322427599814 ], [ 121.433176855932587, 13.23355533789943 ], [ 121.432908829805612, 13.233759335562743 ], [ 121.432474031866278, 13.233881932698603 ], [ 121.431888345144358, 13.234012967694017 ], [ 121.431465459477337, 13.234020909208891 ], [ 121.43088175813412, 13.234248731416825 ], [ 121.430389384211949, 13.23443734239507 ], [ 121.429970469302376, 13.234538596709708 ], [ 121.429138595619364, 13.234614041101006 ], [ 121.428880496385986, 13.234518742922525 ], [ 121.42863033866746, 13.234385722548392 ], [ 121.428392093221248, 13.234387707927111 ], [ 121.4276416200657, 13.234832432760028 ], [ 121.427387491589741, 13.234927234593831 ], [ 121.427065860237363, 13.234788258083544 ], [ 121.426988430467347, 13.234602128828696 ], [ 121.426835556306031, 13.234479035348157 ], [ 121.426458334349533, 13.234578304284076 ], [ 121.426138688375872, 13.234710828313528 ], [ 121.425862720734017, 13.235042386559497 ], [ 121.425640358317551, 13.235056284210525 ], [ 121.42543189355213, 13.235010620500002 ], [ 121.425322697722621, 13.234887527019463 ], [ 121.425165852803872, 13.234740608994302 ], [ 121.425062613110526, 13.234599647105298 ], [ 121.425094379170005, 13.234387707927111 ], [ 121.424883929025867, 13.234322190429404 ], [ 121.424367730559055, 13.234300351263503 ], [ 121.423861458985868, 13.234302336642221 ], [ 121.42354578376964, 13.234367357795248 ], [ 121.42317253257059, 13.234486480518351 ], [ 121.422759573797165, 13.2346969306625 ], [ 121.422428015551191, 13.234895468534337 ], [ 121.422330731993981, 13.23507564165303 ], [ 121.422017042156483, 13.23524638422281 ], [ 121.421897919433377, 13.235363521567196 ], [ 121.421810562769764, 13.235607226804877 ], [ 121.421758942923091, 13.236329408313688 ], [ 121.421844314207988, 13.236825256648602 ], [ 121.42204682283726, 13.237100727945778 ], [ 121.422193740862411, 13.23714837703502 ], [ 121.422163960181635, 13.237261543621967 ], [ 121.421959466173647, 13.237182128473233 ], [ 121.421870124131317, 13.237203967639134 ], [ 121.421778796710271, 13.237362301591926 ], [ 121.421645776336135, 13.23744171674066 ], [ 121.421117665597052, 13.23745362901297 ], [ 121.420490285922028, 13.237866091441713 ], [ 121.41958693860515, 13.238295925934244 ], [ 121.41916603831686, 13.238319750478864 ], [ 121.418685576667016, 13.238573878954817 ], [ 121.418324237740265, 13.238992297519715 ], [ 121.417885469043497, 13.239284148191318 ], [ 121.41731566535131, 13.23932981190184 ], [ 121.416847115973781, 13.239033990472802 ], [ 121.416815349914287, 13.238662724652464 ], [ 121.416827262186601, 13.238048249939126 ], [ 121.416712110220928, 13.237680954876225 ], [ 121.416527470000119, 13.237451147289573 ], [ 121.416017227669485, 13.237219354324202 ], [ 121.415735303891466, 13.23717170523496 ], [ 121.415580444351434, 13.237257076519851 ], [ 121.415493087687835, 13.237521131889396 ], [ 121.415304476709579, 13.237669538948595 ], [ 121.414966962327455, 13.237504752514969 ], [ 121.414953064676425, 13.237790647050415 ], [ 121.414947108540275, 13.23794501024577 ], [ 121.415010640659261, 13.238524244486857 ], [ 121.4151337341398, 13.238714840843821 ], [ 121.41527866678625, 13.238802197507431 ], [ 121.41529852057343, 13.238980881592086 ], [ 121.414877620285139, 13.239337257072036 ], [ 121.414758497562033, 13.239511970399253 ], [ 121.414710848472794, 13.239670800696723 ], [ 121.414945123161559, 13.239983497844868 ], [ 121.414959020812589, 13.240273363137751 ], [ 121.414794234378704, 13.240409857924632 ], [ 121.414685038549194, 13.240596483524159 ], [ 121.414651287110985, 13.240777152987532 ], [ 121.414718789987404, 13.240864509651141 ], [ 121.414814088165883, 13.241043193735795 ], [ 121.414978874599512, 13.241148418807869 ], [ 121.415036450582349, 13.241404532662541 ], [ 121.414953064676169, 13.241654194036377 ], [ 121.414706877715091, 13.242047299022616 ], [ 121.414552018175058, 13.242142597201099 ], [ 121.414111264099574, 13.242170392503155 ], [ 121.413515650484072, 13.242098918869294 ], [ 121.412947832170616, 13.241948030086697 ], [ 121.412233095831994, 13.241431831619918 ], [ 121.41217353447044, 13.241431831619918 ], [ 121.411847932360629, 13.241157849356782 ], [ 121.411558067067745, 13.240745883272718 ], [ 121.411307909349233, 13.240690292668603 ], [ 121.411180845111261, 13.24067043888142 ], [ 121.410811564669629, 13.240547345400879 ], [ 121.410410518168518, 13.240297187682364 ], [ 121.410132565147947, 13.239817718721875 ], [ 121.409560776077058, 13.239524875360914 ], [ 121.409302676843666, 13.239107945830053 ], [ 121.409008840793348, 13.238988823106951 ], [ 121.408572057475311, 13.238819073226528 ], [ 121.408206747791127, 13.238644359899311 ], [ 121.408024092949034, 13.23857288626545 ], [ 121.407730256898716, 13.238370377636175 ], [ 121.407523777511997, 13.238235371883325 ], [ 121.407214058431933, 13.238072570828418 ], [ 121.406959929955988, 13.23773902720373 ], [ 121.406745509054403, 13.237635787510374 ], [ 121.406368287097919, 13.237647699782684 ], [ 121.405728995150596, 13.237758880990913 ], [ 121.405087437889449, 13.237896564442892 ], [ 121.404867340786808, 13.238059665866748 ], [ 121.404950726692974, 13.238492478427355 ], [ 121.404875282301688, 13.239231039310592 ], [ 121.404792528465578, 13.239340300129893 ], [ 121.404537767919564, 13.239774040390071 ], [ 121.404180399750246, 13.240107584014758 ], [ 121.403870680670181, 13.240206852950678 ], [ 121.403576844619863, 13.240282297341976 ], [ 121.403425955837264, 13.240290238856849 ], [ 121.40309638297002, 13.240242589767607 ], [ 121.403009026306407, 13.240218765222988 ], [ 121.402727102528402, 13.240262443554792 ], [ 121.402337968299591, 13.240218765222988 ], [ 121.401925009526167, 13.240119496287068 ], [ 121.401782062258448, 13.240059934925517 ], [ 121.401619261203535, 13.239964636747034 ], [ 121.401281746821411, 13.239861397053678 ], [ 121.401047472132646, 13.239643005394656 ], [ 121.400876729562867, 13.239535794943865 ], [ 121.400837021988494, 13.239361081616646 ], [ 121.400729811537701, 13.239151624161858 ], [ 121.400840992745941, 13.238826022052043 ], [ 121.400833051231061, 13.238687045541758 ], [ 121.400868788047987, 13.238457734299784 ], [ 121.4008807003203, 13.238219488853579 ], [ 121.401198360915245, 13.237409454336479 ], [ 121.401222185459858, 13.23723573369862 ], [ 121.401134828796259, 13.23707690340115 ], [ 121.40085290501824, 13.236906160831369 ], [ 121.400467741546876, 13.236520997360003 ], [ 121.400138168679632, 13.23642569918152 ], [ 121.399756975965701, 13.236318488730728 ], [ 121.399554467336429, 13.236310547215854 ], [ 121.399326148783814, 13.236487742266469 ], [ 121.399151435456602, 13.236594952717262 ], [ 121.398714652138551, 13.236821285891157 ], [ 121.398254044275888, 13.23684113967834 ], [ 121.397749758081432, 13.23682922740603 ], [ 121.397225618099768, 13.236579069687515 ], [ 121.396745156449938, 13.236906657176046 ], [ 121.39657441388016, 13.237105195047885 ], [ 121.396010566324136, 13.237260054587919 ], [ 121.395760408605625, 13.237303732919722 ], [ 121.395228327109095, 13.236997984597092 ], [ 121.394905703067352, 13.237243923385829 ], [ 121.39462775004678, 13.237635042993352 ], [ 121.394570174063944, 13.237785435431269 ], [ 121.394538923944452, 13.237862726887728 ], [ 121.394520539595987, 13.2378941349161 ], [ 121.394524510353421, 13.238001345366893 ], [ 121.394517465982645, 13.238075105689246 ], [ 121.394476861264181, 13.238283269144903 ], [ 121.39464164769781, 13.238350772021327 ], [ 121.394762755799633, 13.238404377246724 ], [ 121.395034752684055, 13.238521514591108 ], [ 121.395517199712614, 13.238687293714094 ], [ 121.39571176682702, 13.238989071279288 ], [ 121.396355029531776, 13.239322614903976 ], [ 121.396497976799495, 13.239529094290686 ], [ 121.39663695330978, 13.239866608672811 ], [ 121.396994321479099, 13.239969848366167 ], [ 121.397550227520242, 13.240303391990855 ], [ 121.397629642668974, 13.240662745538883 ], [ 121.397375514193016, 13.240964523104076 ], [ 121.397288157529417, 13.241282183699017 ], [ 121.397486695401255, 13.241651464140636 ], [ 121.397534344490495, 13.242241121619996 ], [ 121.397518461460749, 13.24284864750782 ], [ 121.397407280252509, 13.243317196885357 ], [ 121.39687122799856, 13.243772841301226 ], [ 121.396422532408195, 13.244054765079236 ], [ 121.395918246213725, 13.244058735836672 ], [ 121.395001001245845, 13.244046823564362 ], [ 121.394623779289347, 13.243935642356133 ], [ 121.394242586575416, 13.243729162969421 ], [ 121.393825657044559, 13.243256642834448 ], [ 121.39359932387066, 13.242943945686301 ], [ 121.393237984943923, 13.242598489789303 ], [ 121.392602663754033, 13.242181560258443 ], [ 121.392332652248342, 13.242046554505594 ], [ 121.392288973916536, 13.241686208268208 ], [ 121.392110289831876, 13.241384430703013 ], [ 121.391899839687724, 13.241277220252222 ], [ 121.391741009390259, 13.241217658890669 ], [ 121.391502763944061, 13.241209717375796 ], [ 121.390915091843411, 13.241146185256808 ], [ 121.390676846397213, 13.241054857835763 ], [ 121.390319478227909, 13.240987354959337 ], [ 121.389997846875531, 13.240923822840349 ], [ 121.389592829616973, 13.240907939810603 ], [ 121.388870151763484, 13.241312957069152 ], [ 121.389040894333263, 13.241416196762508 ], [ 121.389076631150189, 13.241586939332288 ], [ 121.389068689635323, 13.241852980080552 ], [ 121.389132221754309, 13.242297704913469 ], [ 121.389052806605577, 13.242424769151445 ], [ 121.388893976308111, 13.242504184300181 ], [ 121.388747058282945, 13.242500213542744 ], [ 121.38853263738136, 13.242428739908881 ], [ 121.388290421177715, 13.242396973849388 ], [ 121.38808394179101, 13.242436681423756 ], [ 121.387940994523277, 13.242611394750973 ], [ 121.387674953775019, 13.242655073082778 ], [ 121.387555831051912, 13.242428739908881 ], [ 121.387524064992419, 13.242607423993537 ], [ 121.38740097151188, 13.242678897627398 ], [ 121.387254053486714, 13.24262727778072 ], [ 121.387138901521055, 13.242752356639977 ], [ 121.38688278766638, 13.243216935260078 ], [ 121.386753738049677, 13.243287416204581 ], [ 121.386698147445571, 13.243676550433383 ], [ 121.386584980858615, 13.243720228765188 ], [ 121.386217685795714, 13.243783760884176 ], [ 121.385898039822052, 13.24382743921598 ], [ 121.38575707793305, 13.243769863233148 ], [ 121.385582364605838, 13.24359514990593 ], [ 121.385548613167614, 13.243326131089589 ], [ 121.385560525439928, 13.243081929507229 ], [ 121.385620086801481, 13.242786108078189 ], [ 121.385699501950214, 13.24257764331276 ], [ 121.38581266853717, 13.242219282454093 ], [ 121.385816639294603, 13.241961183220702 ], [ 121.38597050614527, 13.241953241705824 ], [ 121.386138270646967, 13.241768601485015 ], [ 121.386115438791705, 13.241520429145218 ], [ 121.386005250272831, 13.241269030565002 ], [ 121.385842449217932, 13.241128068675998 ], [ 121.385711414222513, 13.240859298031996 ], [ 121.385025465875316, 13.240796014085348 ], [ 121.384676039220892, 13.240686073738818 ], [ 121.384491399000083, 13.240581841356104 ], [ 121.384423896123636, 13.240451054533029 ], [ 121.384315692983478, 13.240186006474126 ], [ 121.384144950413713, 13.239773544045383 ], [ 121.383930529512142, 13.239345198586891 ], [ 121.383549336798211, 13.239028034336631 ], [ 121.383581102857704, 13.238961027804885 ], [ 121.383547351419494, 13.238796737715939 ], [ 121.383567205206674, 13.238693498022583 ], [ 121.383797509138006, 13.238693498022583 ], [ 121.383917624550463, 13.238631951282315 ], [ 121.383987112805613, 13.238542609239987 ], [ 121.383981156669449, 13.238432420721118 ], [ 121.384072484090495, 13.238411822416914 ], [ 121.384214438668863, 13.238474361846542 ], [ 121.384160833443474, 13.238187474621737 ], [ 121.384144329609882, 13.238165958149347 ], [ 121.384047666856532, 13.237958659724445 ], [ 121.383444111726149, 13.237597817142378 ], [ 121.383124465752473, 13.237575977976476 ], [ 121.382973576969889, 13.237405235406696 ], [ 121.382560618196464, 13.237728355793113 ], [ 121.382612238043137, 13.238103592370885 ], [ 121.382574515847494, 13.238474858191223 ], [ 121.382381934111805, 13.238444084821088 ], [ 121.382097032265705, 13.238518536523028 ], [ 121.381979894921315, 13.238773409516 ], [ 121.38204243435095, 13.239171229776694 ], [ 121.382084127304026, 13.239427839976045 ], [ 121.381892538257702, 13.23970480030726 ], [ 121.381458733007733, 13.239725646783803 ], [ 121.381226443697685, 13.239862389743031 ], [ 121.38080554340938, 13.239768084253908 ], [ 121.380445197171994, 13.239906068074836 ], [ 121.379999479649712, 13.239618436333011 ], [ 121.379871422722374, 13.239439752248357 ], [ 121.379609352731549, 13.239132266719347 ], [ 121.379194408579409, 13.23933576803798 ], [ 121.379078263924384, 13.23945960603554 ], [ 121.378863843022799, 13.239762128117754 ], [ 121.378558094700153, 13.240004840666076 ], [ 121.378241426794574, 13.240194444333682 ], [ 121.378147121305446, 13.240363697869423 ], [ 121.377940641918741, 13.240519550098817 ], [ 121.378095501458773, 13.240686321911161 ], [ 121.378265251339187, 13.240755810166304 ], [ 121.378359556828315, 13.24098139882318 ], [ 121.378454855006794, 13.241315935137226 ], [ 121.378412169364353, 13.241570559957859 ], [ 121.378209660735081, 13.241804586474288 ], [ 121.378168699898282, 13.241875778399564 ], [ 121.378108406420438, 13.241985007765321 ], [ 121.378065720777983, 13.242237647207235 ], [ 121.378040903544004, 13.242448097351383 ], [ 121.378033954718489, 13.242517089261847 ], [ 121.378038918165288, 13.242734240059169 ], [ 121.378019064378108, 13.242838472441886 ], [ 121.377932700403861, 13.243074732509372 ], [ 121.377898948965651, 13.243176483168689 ], [ 121.377838394914733, 13.24338594062348 ], [ 121.377934685782577, 13.243680273018478 ], [ 121.377974393356951, 13.243808081773475 ], [ 121.378016086310026, 13.243959715073091 ], [ 121.378104435663005, 13.244228485717091 ], [ 121.378052815816318, 13.244341652304039 ], [ 121.378138187101214, 13.244460526854802 ], [ 121.378260287892388, 13.24458734292044 ], [ 121.378410183985636, 13.244742202460472 ], [ 121.378440957355764, 13.244772727658267 ], [ 121.378533277466175, 13.244895821138806 ], [ 121.378472723415257, 13.245032564098036 ], [ 121.378475701483339, 13.245215963457147 ], [ 121.378386359441009, 13.245400355505616 ], [ 121.378464781900391, 13.245686994558081 ], [ 121.378441950045129, 13.246226521224802 ], [ 121.378676224733894, 13.246593319943022 ], [ 121.379047490554242, 13.246874995548692 ], [ 121.379152715626319, 13.247034570363184 ], [ 121.379306582476985, 13.247057402218445 ], [ 121.379480303114846, 13.247023650780232 ], [ 121.379876386169173, 13.247041519188697 ], [ 121.380193054074752, 13.247073285248192 ], [ 121.38037670160621, 13.247079241384347 ], [ 121.380702303716021, 13.247224918547808 ], [ 121.380911761170807, 13.247283487220001 ], [ 121.38107456222572, 13.247376800019763 ], [ 121.381133130897908, 13.247304085524203 ], [ 121.38120559722114, 13.247324932000746 ], [ 121.381222472940237, 13.247448025481285 ], [ 121.381296924642186, 13.247543075487428 ], [ 121.381327698012313, 13.247641351733987 ], [ 121.381304866157052, 13.247753029286898 ], [ 121.38122644369767, 13.247742606048625 ], [ 121.381205964351821, 13.247765060447275 ], [ 121.381192692259461, 13.247783058140012 ], [ 121.3810944160129, 13.247894239348241 ], [ 121.381004081281219, 13.247841626812205 ], [ 121.380926651511203, 13.24790788882693 ], [ 121.381040810787511, 13.248180382056029 ], [ 121.380900841587874, 13.248354847210905 ], [ 121.380764843145656, 13.248461064972339 ], [ 121.380626859324735, 13.248547428946589 ], [ 121.380470014405986, 13.24855735584018 ], [ 121.380329052516984, 13.248483896827601 ], [ 121.380170222219519, 13.248293300470635 ], [ 121.37987440079047, 13.248495312755232 ], [ 121.379556740195525, 13.24880304645658 ], [ 121.379080249303115, 13.249200122200257 ], [ 121.378047852369562, 13.250089571866091 ], [ 121.37750841374347, 13.250550196316112 ], [ 121.377134578159101, 13.250844015779077 ], [ 121.37632909878478, 13.251524024577483 ], [ 121.37612510112146, 13.251710153832331 ], [ 121.375550333982474, 13.252232060262925 ], [ 121.375176994742787, 13.252560375681117 ], [ 121.374573439612391, 13.253099406003157 ], [ 121.374128714779474, 13.253548101593511 ], [ 121.373802208020948, 13.253878559651318 ], [ 121.373398095411119, 13.254210225396092 ], [ 121.372782628008423, 13.254880290713544 ], [ 121.372464967413478, 13.255233688125417 ], [ 121.372383158581997, 13.255332601390197 ], [ 121.372106198250776, 13.255596160415061 ], [ 121.371789034000528, 13.255870887195217 ], [ 121.371692246788001, 13.255997455088515 ], [ 121.371544832418181, 13.256151942370041 ], [ 121.37132594441448, 13.256407683966204 ], [ 121.371108545444812, 13.256674221059146 ], [ 121.370961131074978, 13.256901671008569 ], [ 121.370767556649938, 13.257206922986521 ], [ 121.37060823000779, 13.25745782522206 ], [ 121.370456348535825, 13.257670757089606 ], [ 121.370319357404256, 13.257847579881712 ], [ 121.370194278545, 13.258097737600229 ], [ 121.370149607523842, 13.25829540686888 ], [ 121.370052820311315, 13.258480047089689 ], [ 121.370109403604786, 13.258655380847756 ], [ 121.370176410136537, 13.25888283079718 ], [ 121.370484640182568, 13.259391708179939 ], [ 121.370517398931412, 13.25970812791318 ], [ 121.370512931829296, 13.259884950705288 ], [ 121.370495063420833, 13.260079641905859 ], [ 121.370451881433709, 13.260335383502021 ], [ 121.370340203880801, 13.260570650880149 ], [ 121.370131739115379, 13.26085468412305 ], [ 121.369941142758407, 13.261107819909643 ], [ 121.369705875380276, 13.261420144799278 ], [ 121.369632912712376, 13.261504647480981 ], [ 121.369457206695799, 13.261727630328291 ], [ 121.369287456815371, 13.261992678387195 ], [ 121.369144509547652, 13.262224223180226 ], [ 121.368992628075688, 13.262455023456239 ], [ 121.368818411093159, 13.26270964827687 ], [ 121.368791157933487, 13.262867614133425 ], [ 121.368730558084849, 13.263225598571303 ], [ 121.368696310301956, 13.263402049104899 ], [ 121.368636748940418, 13.263562864781088 ], [ 121.368787141378334, 13.263656673925531 ], [ 121.368834790467574, 13.263913904555734 ], [ 121.368769272969857, 13.264181930682714 ], [ 121.368709727719448, 13.264241473893501 ], [ 121.368578676612898, 13.264391512223677 ], [ 121.368408926732471, 13.264688946772923 ], [ 121.368045602427031, 13.265117416317585 ], [ 121.367847560899875, 13.26534635530105 ], [ 121.367634629032324, 13.265588695590862 ], [ 121.367347245462838, 13.265903998548575 ], [ 121.367052416723169, 13.266219301506291 ], [ 121.366823105481188, 13.266521203157653 ], [ 121.366474671516102, 13.266964563042704 ], [ 121.366187287946616, 13.267270559537675 ], [ 121.365950531534452, 13.26768674455152 ], [ 121.365870123696368, 13.26780475049909 ], [ 121.365614009841693, 13.268212373567211 ], [ 121.365407034110305, 13.268548150742957 ], [ 121.365372786327413, 13.268980715131226 ], [ 121.365183679004488, 13.269150092753138 ], [ 121.364902251571152, 13.269473213139555 ], [ 121.364713144248228, 13.269603875876458 ], [ 121.364366199317189, 13.27007106030613 ], [ 121.364078815747703, 13.270393808434036 ], [ 121.363783987008034, 13.270769789528833 ], [ 121.363733359850713, 13.270841263162696 ], [ 121.363661886216846, 13.270915714864636 ], [ 121.363206241800981, 13.271446555499463 ], [ 121.362869720108208, 13.27183333209104 ], [ 121.362801224542423, 13.271924163167405 ], [ 121.362609139151417, 13.272190328001837 ], [ 121.362425987964642, 13.272440113461844 ], [ 121.362150516667498, 13.272819444883227 ], [ 121.361946519004192, 13.273082631649581 ], [ 121.361653179298557, 13.273450050798653 ], [ 121.361470028111754, 13.273689785278897 ], [ 121.361158819997641, 13.274181166511697 ], [ 121.361109681874368, 13.274253756921087 ], [ 121.360858035121808, 13.27458134440962 ], [ 121.360642125186189, 13.274868355720596 ], [ 121.360467908203645, 13.275095805670023 ], [ 121.360287735084981, 13.275342613061952 ], [ 121.360056934808966, 13.275666850223898 ], [ 121.35986931652009, 13.276029802270855 ], [ 121.359587889086754, 13.276584467450302 ], [ 121.359421117274408, 13.276942952395142 ], [ 121.359252856428029, 13.277285057965553 ], [ 121.359072683309336, 13.277854613485392 ], [ 121.358742117752726, 13.278455438720043 ], [ 121.358223933907212, 13.279212612528767 ], [ 121.35777424562751, 13.280006639929951 ], [ 121.357445169104935, 13.280607465164605 ], [ 121.357233726271431, 13.281003175960411 ], [ 121.35703121764216, 13.281272318862923 ], [ 121.356854022591534, 13.281514659152734 ], [ 121.356782548957682, 13.281632292841799 ], [ 121.356510055728577, 13.282034704290783 ], [ 121.356310525167387, 13.282326554962385 ], [ 121.356027608700018, 13.282701419281652 ], [ 121.355525804228947, 13.283391586558631 ], [ 121.355187793502139, 13.28387180003614 ], [ 121.355439440254699, 13.284282028913829 ], [ 121.35562705854359, 13.284226934654395 ], [ 121.355750648368797, 13.284328188969031 ], [ 121.355707466381673, 13.284533303407873 ], [ 121.355293514918898, 13.285049253702317 ], [ 121.355071648847115, 13.285330681135648 ], [ 121.354802133686107, 13.285656407331631 ], [ 121.354550486933533, 13.285973199323383 ], [ 121.35413504643671, 13.286483193481669 ], [ 121.353779167301468, 13.286912779801861 ], [ 121.353543899923338, 13.287198302078798 ], [ 121.353129948460563, 13.28769973429136 ], [ 121.352985512158796, 13.287873579015391 ], [ 121.352718975065841, 13.288200794245412 ], [ 121.351968501910292, 13.289110221784608 ], [ 121.35157837499213, 13.289529384866524 ], [ 121.351051256942398, 13.290076604875779 ], [ 121.35065219581999, 13.290501724093852 ], [ 121.350300783786835, 13.290876960671627 ], [ 121.349922569141015, 13.291311014093939 ], [ 121.349672411422503, 13.291599142180443 ], [ 121.349055951330442, 13.292191033210861 ], [ 121.348680714752646, 13.292613174360858 ], [ 121.348293565902566, 13.293071796844803 ], [ 121.347742623308221, 13.293776109945147 ], [ 121.347435882296224, 13.29412975552936 ], [ 121.347185724577713, 13.294433518473273 ], [ 121.346610957438756, 13.294959892005982 ], [ 121.346128510410196, 13.295522002355625 ], [ 121.345723493151638, 13.295837677571846 ], [ 121.345604370428532, 13.296128783726429 ], [ 121.345193397033839, 13.296425846017167 ], [ 121.344904524430319, 13.296732587029156 ], [ 121.34449057296753, 13.297143560423862 ], [ 121.344174897751302, 13.297613350663099 ], [ 121.343760946288512, 13.297981886587698 ], [ 121.34341251232344, 13.298344466376143 ], [ 121.343013451201045, 13.298710768749684 ], [ 121.342617368146733, 13.299168646716611 ], [ 121.342435705994021, 13.29940019150964 ], [ 121.34232253940705, 13.299575897526218 ], [ 121.341905609876221, 13.300004367070878 ], [ 121.341597379830191, 13.300346472641291 ], [ 121.341237033592805, 13.300740694403061 ], [ 121.340945182921203, 13.301063070272461 ], [ 121.340790323381171, 13.301232447894373 ], [ 121.340477626233024, 13.301663895507112 ], [ 121.339965398523674, 13.302242385231182 ], [ 121.339782247336899, 13.302447499670025 ], [ 121.339368295874124, 13.302876341473194 ], [ 121.339194078891609, 13.303052792006792 ], [ 121.338853090096734, 13.303466371211066 ], [ 121.338582085901635, 13.303800659352774 ], [ 121.338156222166532, 13.304217588883636 ], [ 121.33799540649035, 13.304366492287516 ], [ 121.33780183206531, 13.304610693869876 ], [ 121.337626126048733, 13.304813202499151 ], [ 121.337384902534453, 13.305084206694209 ], [ 121.337143679020144, 13.305356699923307 ], [ 121.336816091531603, 13.305696199684151 ], [ 121.336688034604265, 13.305824256611485 ], [ 121.33646765756653, 13.3061012169427 ], [ 121.336318754162647, 13.306276178442257 ], [ 121.335982232469874, 13.306556116841548 ], [ 121.335830350997924, 13.306690129905039 ], [ 121.335586149415562, 13.306871792057771 ], [ 121.33519900056551, 13.307159175627257 ], [ 121.334927192970312, 13.307554782462844 ], [ 121.33474100085958, 13.307822140405296 ], [ 121.334439412056469, 13.308246310463867 ], [ 121.334373257093205, 13.308361108782471 ], [ 121.334246784369313, 13.30850655241494 ], [ 121.333290942436861, 13.30950422763298 ], [ 121.332813751120952, 13.30994931433435 ], [ 121.332174577431772, 13.310531088864224 ], [ 121.331746515904769, 13.310888131092426 ], [ 121.331165714242005, 13.311400832057718 ], [ 121.330846613830957, 13.311626537226498 ], [ 121.330620908662183, 13.311852242395279 ], [ 121.330374530279812, 13.312063309233997 ], [ 121.329994382245388, 13.312358133290823 ], [ 121.32964706868826, 13.312606214403061 ], [ 121.329245842478414, 13.312891212159562 ], [ 121.328351209701978, 13.313528492420323 ], [ 121.327715927481222, 13.313971146953925 ], [ 121.327280083017371, 13.314281491560999 ], [ 121.326505680800352, 13.314853537419806 ], [ 121.32582759242689, 13.315331215169252 ], [ 121.325454011457879, 13.315623075301296 ], [ 121.325157286990304, 13.315859482008253 ], [ 121.324912124479383, 13.316054055429616 ], [ 121.324655287563189, 13.316263221857582 ], [ 121.324522977636661, 13.316368291505118 ], [ 121.324305055404736, 13.316527841710636 ], [ 121.324083241704372, 13.316687391916153 ], [ 121.323739819615668, 13.31692379862311 ], [ 121.323553029131162, 13.317188418476164 ], [ 121.32333899836766, 13.317285705186846 ], [ 121.322798084256263, 13.317686526434853 ], [ 121.322506224124226, 13.317957956357654 ], [ 121.322249387208032, 13.31819144446329 ], [ 121.322101511407794, 13.318347103200381 ], [ 121.321774628059899, 13.318658420674563 ], [ 121.321368942476354, 13.319023245839618 ], [ 121.320929206544079, 13.319439632961336 ], [ 121.320684044033158, 13.319664365263009 ], [ 121.320437908655123, 13.319912446375247 ], [ 121.32016420870913, 13.320179660540594 ], [ 121.319759495992685, 13.320589561881599 ], [ 121.319078489017912, 13.321293917666932 ], [ 121.318403967823855, 13.322004759232978 ], [ 121.317822841872058, 13.322591073809352 ], [ 121.317438883653892, 13.322985409276649 ], [ 121.317023793688321, 13.323431630989642 ], [ 121.316306466341558, 13.324203438894383 ], [ 121.315901753625127, 13.324768998972477 ], [ 121.315407504639012, 13.32528500085216 ], [ 121.315102252661049, 13.325634551592767 ], [ 121.3145662004071, 13.326257712338 ], [ 121.314254922683801, 13.326623757859208 ], [ 121.314195430931434, 13.326691393501797 ], [ 121.313951229349072, 13.327027915194565 ], [ 121.313644488337076, 13.327441494398839 ], [ 121.31355067919263, 13.32757364616978 ], [ 121.313302010508153, 13.327939576284813 ], [ 121.313165019376584, 13.328143201689619 ], [ 121.312856789330567, 13.328601451915056 ], [ 121.312518478389549, 13.32909417448826 ], [ 121.312332649348903, 13.329367187669503 ], [ 121.312067601290025, 13.329743541022808 ], [ 121.311987193451927, 13.329890955392647 ], [ 121.311759371243994, 13.33029522813418 ], [ 121.31167896340591, 13.330444131538059 ], [ 121.311617913010309, 13.33055245876438 ], [ 121.311470498640475, 13.330802616482897 ], [ 121.311333507508905, 13.331038628378044 ], [ 121.311199494445418, 13.331282829960406 ], [ 121.310964227067288, 13.331711299505068 ], [ 121.310784053948595, 13.33220193622085 ], [ 121.310697689974347, 13.332426035843687 ], [ 121.310583034353357, 13.332734265889718 ], [ 121.31052347299179, 13.332896198341436 ], [ 121.310449021289855, 13.333086794698401 ], [ 121.310384992826187, 13.333261011680939 ], [ 121.310306074022137, 13.333467615153822 ], [ 121.310139302209791, 13.333970536400422 ], [ 121.309889144491279, 13.33441650209504 ], [ 121.309786401142603, 13.334694579201784 ], [ 121.309641964840836, 13.335087311929515 ], [ 121.309634519670638, 13.33527716376946 ], [ 121.309613673194093, 13.335693721041812 ], [ 121.309600271887774, 13.336074913755736 ], [ 121.309519864049676, 13.336637768622399 ], [ 121.309457324620055, 13.336607987941623 ], [ 121.309457324620055, 13.336408457380426 ], [ 121.309496039505063, 13.336170211934219 ], [ 121.309507951777377, 13.335917076147625 ], [ 121.309475193028518, 13.335768172743746 ], [ 121.309329267692718, 13.335860492854151 ], [ 121.309207166901544, 13.336146387389599 ], [ 121.309067197701879, 13.336232751363848 ], [ 121.308572838401005, 13.336286356589245 ], [ 121.307584119799259, 13.337034596193737 ], [ 121.307581141731177, 13.3374247231119 ], [ 121.307539448778073, 13.338180407886583 ], [ 121.307211861289545, 13.339252512394511 ], [ 121.307027221068736, 13.339752827831544 ], [ 121.306818756303315, 13.339770696240011 ], [ 121.306586466993252, 13.33994342418851 ], [ 121.306336309274741, 13.340472031272281 ], [ 121.305853862246181, 13.341121250113193 ], [ 121.305675178161522, 13.341341627150934 ], [ 121.305365459081457, 13.341536690610015 ], [ 121.305043827729079, 13.342126348089376 ], [ 121.304650722742835, 13.342727917841048 ], [ 121.30382281981727, 13.34427502420735 ], [ 121.303292723699457, 13.344481999938742 ], [ 121.303256986882531, 13.34473215765726 ], [ 121.303176579044433, 13.344794697086888 ], [ 121.302872816100546, 13.344827455835741 ], [ 121.302595855769326, 13.345104416166956 ], [ 121.301559488078325, 13.345624833563514 ], [ 121.301240834794029, 13.345984435283881 ], [ 121.300809014922791, 13.346138550306897 ], [ 121.300287853009209, 13.346332124731939 ], [ 121.299596941215199, 13.34687115505398 ], [ 121.29946292815174, 13.346971664851599 ], [ 121.29754207424169, 13.347957405385278 ], [ 121.296291285649104, 13.348257445744094 ], [ 121.296273417240641, 13.348200117933601 ], [ 121.296058996339056, 13.348122688163585 ], [ 121.295764167599387, 13.348226920546299 ], [ 121.295522944085093, 13.34836093360979 ], [ 121.295374040681224, 13.348551529966755 ], [ 121.295338303864312, 13.348747337942857 ], [ 121.295094102281951, 13.349459096213398 ], [ 121.294840966495343, 13.349815719865688 ], [ 121.294692063091475, 13.349973557473801 ], [ 121.294519335142965, 13.350256473941171 ], [ 121.293873094370142, 13.350541623959598 ], [ 121.292842682815319, 13.351181164079259 ], [ 121.292380313836645, 13.351490448012349 ], [ 121.291934372051657, 13.35175816476929 ], [ 121.290740166752542, 13.352525017299268 ], [ 121.290248785519751, 13.352873451264344 ], [ 121.28937918964111, 13.353355153775892 ], [ 121.289063514424896, 13.353483210703228 ], [ 121.28850959376247, 13.353926198329768 ], [ 121.288021190597746, 13.354352062064862 ], [ 121.2877084934496, 13.354387798881794 ], [ 121.286940151885574, 13.354780159351014 ], [ 121.286669147690546, 13.354904493693253 ], [ 121.28574892465457, 13.355541800261856 ], [ 121.284548763219291, 13.355972875616086 ], [ 121.28416757050536, 13.356395761283101 ], [ 121.283232457129017, 13.356998820068812 ], [ 121.282633865445447, 13.357307794631861 ], [ 121.282493896245796, 13.357388202469956 ], [ 121.28189828263028, 13.357793219728507 ], [ 121.281686839796762, 13.357944356683443 ], [ 121.281353296172071, 13.358161755653107 ], [ 121.280671318582307, 13.358574962598871 ], [ 121.280081661102955, 13.358953177244723 ], [ 121.279492003623574, 13.35933362544163 ], [ 121.278229302758689, 13.360072186324871 ], [ 121.27523932240878, 13.36147485638941 ], [ 121.278801091829564, 13.359699927815173 ] ] ] ] } },
{ "type": "Feature", "properties": { "Id": 0, "Name": null }, "geometry": { "type": "MultiPolygon", "coordinates": [ [ [ [ 121.427645690932835, 13.240176402176814 ], [ 121.428003762185426, 13.239521226549387 ], [ 121.427858776230252, 13.238707175431252 ], [ 121.427755987509912, 13.237994411461575 ], [ 121.426944564141849, 13.237434141304565 ], [ 121.426031102839104, 13.237484597182492 ], [ 121.425016729780737, 13.237638592566176 ], [ 121.424409382281112, 13.2389029926573 ], [ 121.424210273425146, 13.239738330089557 ], [ 121.42457019387254, 13.240448090916113 ], [ 121.425639847376672, 13.240957703614171 ], [ 121.426648964935254, 13.240486791343315 ], [ 121.427645690932835, 13.240176402176814 ] ] ] ] } },
{ "type": "Feature", "properties": { "Id": 0, "Name": null }, "geometry": { "type": "MultiPolygon", "coordinates": [ [ [ [ 121.192541344652241, 13.274114557013544 ], [ 121.192562522025227, 13.273902783283583 ], [ 121.191916612148859, 13.27371218692662 ], [ 121.191376589137448, 13.273563945315647 ], [ 121.19106951722901, 13.273341582899189 ], [ 121.190804800066559, 13.273108631796232 ], [ 121.190582437650107, 13.272748616455297 ], [ 121.190349486547149, 13.272388601114365 ], [ 121.190264777055162, 13.272070940519425 ], [ 121.190222422309162, 13.271732102551487 ], [ 121.190190656249669, 13.27134032115106 ], [ 121.190296543114655, 13.270885007631644 ], [ 121.190434196039135, 13.270440282798727 ], [ 121.190667147142079, 13.270006146652308 ], [ 121.190794211380066, 13.269593187878884 ], [ 121.190720090574573, 13.269540244446395 ], [ 121.190624792396093, 13.269423768894917 ], [ 121.190264777055162, 13.27032380724725 ], [ 121.19011653544419, 13.270832064199155 ], [ 121.190010648579204, 13.271276789032072 ], [ 121.189978882519711, 13.271732102551487 ], [ 121.190042414638697, 13.271975642340943 ], [ 121.190084769384697, 13.272261536876389 ], [ 121.190275365741655, 13.272621552217322 ], [ 121.190434196039135, 13.272896858066272 ], [ 121.190550671590614, 13.273235696034208 ], [ 121.190741267947573, 13.273468647137165 ], [ 121.190942452991038, 13.273627477434635 ], [ 121.19118599278049, 13.273722775613118 ], [ 121.192318982235776, 13.274061613581054 ], [ 121.192562522025227, 13.274262798624516 ], [ 121.192541344652241, 13.274114557013544 ] ] ] ] } }
]
}
