{
"type": "FeatureCollection",
"name": "naujan_mpa",
"crs": { "type": "name", "properties": { "name": "urn:ogc:def:crs:OGC:1.3:CRS84" } },
"features": [
{ "type": "Feature", "properties": { "Id": 0, "MPAName": "Masaguing Fish Sanctuary", "Area": "16" }, "geometry": { "type": "MultiPolygon", "coordinates": [ [ [ [ 121.407348725533652, 13.242249484966363 ], [ 121.410416642220724, 13.242759812004456 ], [ 121.412173960042921, 13.24240239002506 ], [ 121.412747846787497, 13.241836063669806 ], [ 121.41261909901668, 13.241796448971002 ], [ 121.412571506357779, 13.241767288151078 ], [ 121.41227769734229, 13.241572515882162 ], [ 121.412062017315904, 13.241425611374257 ], [ 121.411910986277036, 13.241293012174269 ], [ 121.411572060521209, 13.240985998258942 ], [ 121.411349778045093, 13.240812683951884 ], [ 121.410938775545915, 13.240671281485337 ], [ 121.410624884078999, 13.240529879018863 ], [ 121.410196825251063, 13.240076510799859 ], [ 121.409945657057023, 13.239812963012357 ], [ 121.409701366414907, 13.23964239972603 ], [ 121.409542907620008, 13.239502647872095 ], [ 121.409269731260025, 13.239264409475425 ], [ 121.408964643059463, 13.239055882102793 ], [ 121.408626817712076, 13.238873214325125 ], [ 121.408264508280055, 13.238691096751595 ], [ 121.408038649476907, 13.238488071420493 ], [ 121.407177579983951, 13.238097426474194 ], [ 121.407065338337532, 13.237952172578797 ], [ 121.406994637104262, 13.237701829690982 ], [ 121.406217473744206, 13.237649010092197 ], [ 121.405998217390973, 13.237684223157599 ], [ 121.405583363462867, 13.237751898267655 ], [ 121.40508432830012, 13.23790375461245 ], [ 121.404871949498798, 13.238060562794777 ], [ 121.404897258889747, 13.238262487717456 ], [ 121.404898359298215, 13.238519983259168 ], [ 121.404915965831108, 13.238798386558546 ], [ 121.404918166647747, 13.238861109831531 ], [ 121.404867547866289, 13.239241300898426 ], [ 121.404764934792667, 13.239498796440072 ], [ 121.404622982122405, 13.239671560542753 ], [ 121.404451043326077, 13.239912549959882 ], [ 121.404078004913373, 13.240105121411785 ], [ 121.403757786098893, 13.240225065916063 ], [ 121.403377870134236, 13.240279536126568 ], [ 121.403153386841538, 13.240236620202809 ], [ 121.403092589283119, 13.240223965507349 ], [ 121.402961640695722, 13.240260278981095 ], [ 121.402824089658566, 13.240260278981006 ], [ 121.402681036579907, 13.240260278980921 ], [ 121.402574021872979, 13.240256977755962 ], [ 121.40217870019211, 13.24020305774912 ], [ 121.401917903425598, 13.240121627534903 ], [ 121.401773749938585, 13.240061105078436 ], [ 121.401704424215851, 13.240026442216999 ], [ 121.401552567870752, 13.239950514044358 ], [ 121.40134018906933, 13.239873485463368 ], [ 121.40132148212831, 13.23999012874294 ], [ 121.402907981562024, 13.240809579734789 ], [ 121.40446965340999, 13.241617512382186 ], [ 121.406219363390733, 13.242426612682502 ], [ 121.407348725533652, 13.242249484966363 ] ] ] ] } },
{ "type": "Feature", "properties": { "Id": 0, "MPAName": "Tujod Fish Sanctuary", "Area": "29.967" }, "geometry": { "type": "MultiPolygon", "coordinates": [ [ [ [ 121.433626997975196, 13.23901621532867 ], [ 121.435343844924077, 13.237983511589743 ], [ 121.436441316707345, 13.237393568359625 ], [ 121.437097231318333, 13.236305988939632 ], [ 121.437680926428115, 13.235400264764232 ], [ 121.438124651256473, 13.234237673764225 ], [ 121.437754779784001, 13.233071579958503 ], [ 121.437313635621152, 13.232638141066976 ], [ 121.43629777570105, 13.231762595240395 ], [ 121.435090005163218, 13.231684287603219 ], [ 121.433197834580938, 13.232601437246551 ], [ 121.43330347377767, 13.232953567901948 ], [ 121.433218742339051, 13.233431145103184 ], [ 121.433113103142617, 13.233616013697167 ], [ 121.432981054146964, 13.233717251260494 ], [ 121.432659734924187, 13.233853701889233 ], [ 121.432056711177339, 13.234007759050561 ], [ 121.431620949491617, 13.234078185181355 ], [ 121.430159607272969, 13.234535955032376 ], [ 121.429663455792976, 13.235634698219108 ], [ 121.429406878064384, 13.237540658201453 ], [ 121.430645000892781, 13.23864853088757 ], [ 121.431949759481526, 13.239140466652156 ], [ 121.433626997975196, 13.23901621532867 ] ] ] ] } },
{ "type": "Feature", "properties": { "Id": 0, "MPAName": "BUCOMAPA", "Area": "72" }, "geometry": { "type": "MultiPolygon", "coordinates": [ [ [ [ 121.38066513467416, 13.243074383603286 ], [ 121.38157953915119, 13.244651164007523 ], [ 121.38258303598036, 13.245231476456947 ], [ 121.393203469372693, 13.243986324092964 ], [ 121.393315186460129, 13.242738948666098 ], [ 121.393252188085071, 13.242672098861965 ], [ 121.393187745424143, 13.242606899670276 ], [ 121.393133275213401, 13.242552016806378 ], [ 121.393049025203126, 13.242492182105133 ], [ 121.393006109279497, 13.242460820468617 ], [ 121.392964224988674, 13.242428495974838 ], [ 121.392950194782856, 13.242417079238741 ], [ 121.39282770558421, 13.242316804532509 ], [ 121.392698889037845, 13.242212128193101 ], [ 121.392614570251993, 13.2421436277765 ], [ 121.392447789619425, 13.242082967768971 ], [ 121.392341256341112, 13.24199851143204 ], [ 121.392319867154796, 13.24195449510011 ], [ 121.392299715927777, 13.2419146052993 ], [ 121.39229359490659, 13.241854770598099 ], [ 121.392287130007787, 13.241800988142534 ], [ 121.392279977353823, 13.241739502828889 ], [ 121.392218732754486, 13.241647549960453 ], [ 121.39215391182816, 13.241550232601563 ], [ 121.392106147230464, 13.241478912388729 ], [ 121.392053980999606, 13.241402709114064 ], [ 121.39204191089604, 13.241383864621955 ], [ 121.392004978442571, 13.241330150941897 ], [ 121.391887475469048, 13.241249133380885 ], [ 121.391784656068694, 13.241178157045608 ], [ 121.391585069513752, 13.241183934189044 ], [ 121.391523446649089, 13.241182283576565 ], [ 121.391352436322165, 13.241175887453222 ], [ 121.391160518237527, 13.241163370308714 ], [ 121.391052162408016, 13.241116809282543 ], [ 121.390931839638213, 13.241069216623577 ], [ 121.390663615115699, 13.241022449270758 ], [ 121.390594942760359, 13.241014815188144 ], [ 121.390436862230871, 13.240996383349049 ], [ 121.390316780175468, 13.240981802939034 ], [ 121.390289957723212, 13.24097863926516 ], [ 121.390265851903976, 13.240974856611615 ], [ 121.390250996391941, 13.240972724570536 ], [ 121.390227200062498, 13.240969285794591 ], [ 121.390150928012389, 13.240957800282933 ], [ 121.390006843300952, 13.240936411096552 ], [ 121.389976925950393, 13.240931596810229 ], [ 121.389925034821573, 13.240915159461252 ], [ 121.389780675008083, 13.240869423741279 ], [ 121.389676342546366, 13.240865365985613 ], [ 121.389560868450687, 13.240876920272667 ], [ 121.389454747825567, 13.240951060281674 ], [ 121.389351825261997, 13.241012545595249 ], [ 121.389285113009024, 13.241054223559496 ], [ 121.389280711375818, 13.241056974580241 ], [ 121.389253820148056, 13.24107416845988 ], [ 121.389193297691719, 13.241112407648187 ], [ 121.389148112176045, 13.241139298875941 ], [ 121.389116578600778, 13.241158280919061 ], [ 121.389092782271376, 13.241172586226924 ], [ 121.389005678077098, 13.241226437457945 ], [ 121.388934529803151, 13.241271760524668 ], [ 121.388919915005488, 13.241312819509272 ], [ 121.388906572554887, 13.241351402575214 ], [ 121.388901208064468, 13.241393837070197 ], [ 121.388945361947407, 13.241397757274788 ], [ 121.388975932665417, 13.241422516461503 ], [ 121.389041303795977, 13.241658485265926 ], [ 121.389022321752876, 13.241763230380778 ], [ 121.389039378081563, 13.241862542229676 ], [ 121.3890691234934, 13.241938332851205 ], [ 121.389100760231969, 13.241980010815508 ], [ 121.389106537375554, 13.24203434347522 ], [ 121.389129130133441, 13.242082830215869 ], [ 121.389151826054587, 13.242086268991811 ], [ 121.389155264830507, 13.242114742056527 ], [ 121.389177823200612, 13.242127671854035 ], [ 121.389192850651455, 13.242199267168925 ], [ 121.389157087381832, 13.242233173499583 ], [ 121.38911190186613, 13.242308070039329 ], [ 121.389093934261894, 13.242355731473724 ], [ 121.389091183241192, 13.242362540250067 ], [ 121.389090684618637, 13.242362471474546 ], [ 121.389037022520256, 13.242351089126178 ], [ 121.389001929811911, 13.242382347599374 ], [ 121.388981348737943, 13.242403049030466 ], [ 121.388966768328032, 13.242417354338327 ], [ 121.388952514601826, 13.242430421686855 ], [ 121.388928494751994, 13.242452257914003 ], [ 121.388869313418212, 13.242461645772254 ], [ 121.388819760657043, 13.24246711342596 ], [ 121.388780335091013, 13.242463537098963 ], [ 121.388757639169867, 13.24242213423674 ], [ 121.388759702435436, 13.242388709334692 ], [ 121.388734186717983, 13.242372065659174 ], [ 121.388566305677145, 13.242385201783122 ], [ 121.388452757295994, 13.242418351583021 ], [ 121.38837510973552, 13.242441322606199 ], [ 121.388164312771067, 13.242428530359598 ], [ 121.388088178272, 13.242423991175322 ], [ 121.388001486730801, 13.242418626684817 ], [ 121.387933192640858, 13.242410648724611 ], [ 121.387829547934359, 13.242398131580158 ], [ 121.387707368225591, 13.242401983009129 ], [ 121.387595642395652, 13.242414912806552 ], [ 121.387524872387047, 13.242445036483671 ], [ 121.387521296060072, 13.242472890568708 ], [ 121.387467032175934, 13.242489946897294 ], [ 121.387461255032392, 13.242506728123832 ], [ 121.387458228909594, 13.242541803638325 ], [ 121.387450250949485, 13.242599712624997 ], [ 121.387470883605062, 13.242651706917082 ], [ 121.38750802238512, 13.242685406921234 ], [ 121.387527279530374, 13.242746617132818 ], [ 121.387530580755282, 13.242795035097924 ], [ 121.387497843608472, 13.242821444897059 ], [ 121.387460154624279, 13.242802737955968 ], [ 121.387434295029237, 13.242760509787519 ], [ 121.387399563392336, 13.242704526515341 ], [ 121.38735197073342, 13.242629286097939 ], [ 121.38729034786877, 13.242569864049813 ], [ 121.387244405822287, 13.242521446084671 ], [ 121.387224873574993, 13.242476054242365 ], [ 121.387184708672123, 13.242482656692131 ], [ 121.387145919279646, 13.242505215062209 ], [ 121.387125217848563, 13.242549231394115 ], [ 121.387123017032025, 13.242591046909432 ], [ 121.387101283968164, 13.242664774265378 ], [ 121.387082026823037, 13.242745241622154 ], [ 121.387089179476988, 13.242788157545775 ], [ 121.387129069277776, 13.242807414691022 ], [ 121.387157129689371, 13.242826121632095 ], [ 121.387149426831314, 13.242870413066079 ], [ 121.387030582735221, 13.242892971436117 ], [ 121.386990142730255, 13.242891320823638 ], [ 121.386958162114183, 13.242965323281659 ], [ 121.38689867129068, 13.243098197583594 ], [ 121.386846401896619, 13.243217454332843 ], [ 121.386803692299623, 13.243282378422395 ], [ 121.386773981275596, 13.243327907815704 ], [ 121.386745920864129, 13.243484303345024 ], [ 121.386744545353764, 13.243484578447097 ], [ 121.386716209840102, 13.243502735183993 ], [ 121.386732715964627, 13.24358595356153 ], [ 121.386719235963014, 13.24366697112246 ], [ 121.386702385960987, 13.243721853986306 ], [ 121.386680652897127, 13.243720478475922 ], [ 121.386652042281398, 13.243685540512439 ], [ 121.386653692893873, 13.24376697072649 ], [ 121.386618411052851, 13.243768621338912 ], [ 121.386598053499341, 13.24371387602608 ], [ 121.386575770231289, 13.243731482558836 ], [ 121.386537255940894, 13.243729281742215 ], [ 121.386495440425591, 13.243744687458358 ], [ 121.386447847766746, 13.243766420522212 ], [ 121.386401355516199, 13.243777149503087 ], [ 121.386360846735755, 13.243789391545381 ], [ 121.386347366734157, 13.243841660939523 ], [ 121.386301562238771, 13.243846612776835 ], [ 121.386293309176509, 13.243804247057353 ], [ 121.386244341007284, 13.243800395628291 ], [ 121.386197573654641, 13.243792142566017 ], [ 121.386196473246358, 13.243787740932827 ], [ 121.386184918959202, 13.243753078071435 ], [ 121.386125496911134, 13.24373767235523 ], [ 121.386091934458051, 13.243704109902122 ], [ 121.386093585070469, 13.243654866630795 ], [ 121.386080380170839, 13.243593243766105 ], [ 121.386060572821492, 13.243575637233324 ], [ 121.386029211185047, 13.243596544990957 ], [ 121.385986295261432, 13.243634509077214 ], [ 121.385958097298868, 13.243726943374226 ], [ 121.385927285866586, 13.243772060114411 ], [ 121.38588712096373, 13.243779762972475 ], [ 121.38586181157288, 13.243738497661289 ], [ 121.385838152794463, 13.243735746640528 ], [ 121.385837052386208, 13.24376985929776 ], [ 121.385842554427711, 13.243807823384047 ], [ 121.385792210748093, 13.243814425833808 ], [ 121.385681069509985, 13.24368017602138 ], [ 121.385643655627817, 13.243614701727642 ], [ 121.385583133171451, 13.243550878046324 ], [ 121.385582032763097, 13.243439186604082 ], [ 121.385542418064304, 13.24334235067384 ], [ 121.385524811531525, 13.243266972705422 ], [ 121.38556002459687, 13.242979766139698 ], [ 121.385595237662329, 13.242876327759712 ], [ 121.385620547053151, 13.242825708978028 ], [ 121.385624948686313, 13.242737676314199 ], [ 121.385667864609815, 13.242617731809752 ], [ 121.385771302989596, 13.242332726060667 ], [ 121.38578120666422, 13.242150058283212 ], [ 121.385807616463268, 13.242039467249286 ], [ 121.385801014013467, 13.242009756225244 ], [ 121.385808441769427, 13.241954460708278 ], [ 121.385846956059822, 13.241925850092557 ], [ 121.385879968308757, 13.24193217744029 ], [ 121.385924259742694, 13.241908518661914 ], [ 121.386013530365773, 13.241887198251199 ], [ 121.386087532823822, 13.241870141922625 ], [ 121.386115043031182, 13.241813333344263 ], [ 121.386080105067663, 13.24165556230453 ], [ 121.386053970370511, 13.241539744331158 ], [ 121.386017863223202, 13.241448410442411 ], [ 121.385990903219906, 13.241380597781037 ], [ 121.385966144033162, 13.241316774099742 ], [ 121.38590335198468, 13.241231492456615 ], [ 121.385804865441983, 13.241095729582799 ], [ 121.385715835533048, 13.240934519767102 ], [ 121.385665491853402, 13.240881425066695 ], [ 121.38560713582585, 13.240820833834757 ], [ 121.385532927041339, 13.240802058118129 ], [ 121.385418037537491, 13.240773516277827 ], [ 121.385299606094506, 13.240747106478608 ], [ 121.385228320269505, 13.240782869748246 ], [ 121.385145617708389, 13.24079772526021 ], [ 121.385042007389643, 13.240760311378017 ], [ 121.384947956867947, 13.240726129945209 ], [ 121.384850948998974, 13.240690916879611 ], [ 121.384792352257122, 13.240669458917768 ], [ 121.384739738985417, 13.240651852384964 ], [ 121.38468939530577, 13.240634658505282 ], [ 121.384614223663959, 13.240619527891143 ], [ 121.384585716211518, 13.240595456459607 ], [ 121.384546239063809, 13.240562925639274 ], [ 121.384486094872798, 13.240531907880339 ], [ 121.384448646602934, 13.240524480124305 ], [ 121.3844108200677, 13.240522416858724 ], [ 121.384397064963935, 13.240494769100229 ], [ 121.384405593128221, 13.240472417056685 ], [ 121.384443832316578, 13.240441743175404 ], [ 121.384425400477582, 13.240412444804459 ], [ 121.384400641290938, 13.240389886434333 ], [ 121.38437010496061, 13.240340780714028 ], [ 121.384359651081766, 13.240310519485828 ], [ 121.384372305777148, 13.240268153766374 ], [ 121.384354974346437, 13.240236517027791 ], [ 121.384334616792927, 13.240204330085064 ], [ 121.384257244334449, 13.240114096604584 ], [ 121.384219280248161, 13.2400469716984 ], [ 121.384198922694623, 13.239977095771463 ], [ 121.384185442692925, 13.239911208824621 ], [ 121.384199197796633, 13.239849861062014 ], [ 121.3841832418763, 13.239809145954986 ], [ 121.384143627177551, 13.239738444721825 ], [ 121.384051364819285, 13.23957228306878 ], [ 121.384014879406621, 13.239472696117801 ], [ 121.383984205525294, 13.239392916516179 ], [ 121.383953222154105, 13.239347249571797 ], [ 121.383909446536535, 13.239295599157284 ], [ 121.38388303673733, 13.239201651798833 ], [ 121.383841737038381, 13.239155090772705 ], [ 121.383776365907977, 13.239114513216679 ], [ 121.383728188657187, 13.2390670581088 ], [ 121.383693113142684, 13.239020978511302 ], [ 121.383659138036535, 13.239026343001735 ], [ 121.383623030889225, 13.239013413204221 ], [ 121.383570211290987, 13.239078887497909 ], [ 121.383554530472765, 13.239084802192499 ], [ 121.383539124756581, 13.239046700555171 ], [ 121.383540912920012, 13.239009011570973 ], [ 121.383533485164008, 13.238975036464769 ], [ 121.383570486392998, 13.238947044828715 ], [ 121.383539262307522, 13.238861350532492 ], [ 121.383536511286735, 13.23882792563044 ], [ 121.383531834551448, 13.238770841949991 ], [ 121.383550541492454, 13.238714652351286 ], [ 121.383593629354863, 13.238666028059646 ], [ 121.383657384260559, 13.238656261936045 ], [ 121.383742287638242, 13.23865447377262 ], [ 121.383775850091382, 13.23869752724729 ], [ 121.383809962748558, 13.238684735000847 ], [ 121.383821379484658, 13.238658806630337 ], [ 121.383858449489139, 13.238646014383896 ], [ 121.383878256838472, 13.23859374498976 ], [ 121.383944556438323, 13.23852758294089 ], [ 121.383964432563147, 13.238480127833061 ], [ 121.384012025221992, 13.23844986660489 ], [ 121.384074748494953, 13.238450141707004 ], [ 121.384177636670799, 13.23848728048713 ], [ 121.384201089122627, 13.238470911913707 ], [ 121.384225298105136, 13.238425795173516 ], [ 121.384239878515061, 13.238366510676464 ], [ 121.384215394430413, 13.238313003322968 ], [ 121.384213743817924, 13.238266786174455 ], [ 121.384166151159008, 13.238192921267427 ], [ 121.38413974135986, 13.238153306568684 ], [ 121.384117114214234, 13.238115204931361 ], [ 121.38407749951547, 13.238050005739685 ], [ 121.384016701957023, 13.237992371855047 ], [ 121.383957211133449, 13.237953444911469 ], [ 121.383919453373721, 13.2379377640932 ], [ 121.383898270513981, 13.237932262051697 ], [ 121.38387901336877, 13.237917956743811 ], [ 121.383889742349652, 13.237870501635975 ], [ 121.383843525201158, 13.237854270613543 ], [ 121.383804460706585, 13.237850144082401 ], [ 121.38375975661954, 13.237853445307271 ], [ 121.383726194166456, 13.237816306527197 ], [ 121.383718491308343, 13.237763486928889 ], [ 121.383665671710062, 13.237739277946305 ], [ 121.383627157419639, 13.237733225700641 ], [ 121.383594145170719, 13.237731575088173 ], [ 121.383563333738351, 13.23762731140193 ], [ 121.383464159440507, 13.237531575879947 ], [ 121.383406388004914, 13.237589897519701 ], [ 121.383344214936159, 13.237635564464023 ], [ 121.383251230435022, 13.237617407727051 ], [ 121.383180254099798, 13.23759099792786 ], [ 121.383113129193674, 13.237575592211643 ], [ 121.383078328781252, 13.237549182412478 ], [ 121.383060722248445, 13.237505166080551 ], [ 121.382889333656195, 13.237567339149269 ], [ 121.382816706708567, 13.237581094252942 ], [ 121.382729774453139, 13.237623184870293 ], [ 121.382628536889783, 13.237691960388847 ], [ 121.382534589531431, 13.237803651831031 ], [ 121.38252798708173, 13.23788893347411 ], [ 121.382555772391242, 13.237934050214339 ], [ 121.382619596072587, 13.238081504926299 ], [ 121.382614369133279, 13.238290995156008 ], [ 121.382582457292685, 13.238361696389124 ], [ 121.38256567606615, 13.238397734760877 ], [ 121.382552471166633, 13.238425382519349 ], [ 121.382559623820583, 13.238471049463714 ], [ 121.382534727082898, 13.238526895184823 ], [ 121.382507216875482, 13.238529646205553 ], [ 121.382476405443114, 13.23849553354829 ], [ 121.382426336865549, 13.238453718032943 ], [ 121.38237874420669, 13.238429784152434 ], [ 121.382214095615211, 13.238488655996266 ], [ 121.382054811514209, 13.238546427431809 ], [ 121.382040918859488, 13.238575588251692 ], [ 121.38203926824707, 13.238609976011004 ], [ 121.382059213147471, 13.23862964580934 ], [ 121.382042913349579, 13.238691268674005 ], [ 121.382034385185307, 13.238717678473156 ], [ 121.382004330283706, 13.238748489905481 ], [ 121.38196223966635, 13.238802134809974 ], [ 121.381965540891329, 13.238958117686208 ], [ 121.381985348240661, 13.23895495401236 ], [ 121.382015609468894, 13.239012725448019 ], [ 121.382070079679664, 13.23904683810529 ], [ 121.382075581721182, 13.239115613623911 ], [ 121.382074481312941, 13.239282875685191 ], [ 121.381953436400394, 13.239557427555445 ], [ 121.38181340944459, 13.23963390593206 ], [ 121.381720975147616, 13.239654813689667 ], [ 121.381601030643225, 13.239638307565119 ], [ 121.381592227376828, 13.239658114914475 ], [ 121.381405157966313, 13.239688926346702 ], [ 121.381306121219566, 13.239764854519196 ], [ 121.381194979981544, 13.239800067584657 ], [ 121.381062930985891, 13.239806670034367 ], [ 121.380980125261473, 13.239800067584524 ], [ 121.380881363616822, 13.239787963093185 ], [ 121.380799933402812, 13.239789063501432 ], [ 121.380782279931807, 13.240152947618929 ], [ 121.380529527012499, 13.241396861733588 ], [ 121.380816280760868, 13.242404679419014 ], [ 121.38066513467416, 13.243074383603286 ] ] ] ] } }
]
}
