{
"type": "FeatureCollection",
"name": "naujan_settlements",
"crs": { "type": "name", "properties": { "name": "urn:ogc:def:crs:OGC:1.3:CRS84" } },
"features": [
{ "type": "Feature", "properties": { "id": 1 }, "geometry": { "type": "MultiPolygon", "coordinates": [ [ [ [ 121.300680291148851, 13.339144413124769 ], [ 121.301127639042051, 13.338680992852165 ], [ 121.301333901244305, 13.33834883034463 ], [ 121.300757974315914, 13.337979165618504 ], [ 121.300377594670209, 13.337794333255443 ], [ 121.300013287403885, 13.337644324381074 ], [ 121.299678446166453, 13.337223763786858 ], [ 121.299340926199122, 13.336797845732843 ], [ 121.298987333852395, 13.336347819109733 ], [ 121.298422121843615, 13.335895113756724 ], [ 121.298154248853663, 13.335798679480343 ], [ 121.298143533934066, 13.335857611538131 ], [ 121.298073886956672, 13.335937973435115 ], [ 121.298089959336082, 13.336125484528077 ], [ 121.298376583435314, 13.336323710540638 ], [ 121.298537307229282, 13.336484434334606 ], [ 121.298333723756926, 13.336690696536865 ], [ 121.298151570123764, 13.336864813980329 ], [ 121.29785958856472, 13.336998750475303 ], [ 121.297698864770751, 13.337196976487864 ], [ 121.297942629191596, 13.337550568834592 ], [ 121.298250683130036, 13.337689862789365 ], [ 121.298706067212947, 13.337681826599662 ], [ 121.298901614495605, 13.337912197371015 ], [ 121.299046265910178, 13.338239002418749 ], [ 121.299217704623743, 13.338541698897389 ], [ 121.299657016327259, 13.339082802337082 ], [ 121.300066862001884, 13.339323888028034 ], [ 121.300554390843587, 13.339256919780546 ], [ 121.300680291148851, 13.339144413124769 ] ] ] ] } },
{ "type": "Feature", "properties": { "id": 2 }, "geometry": { "type": "MultiPolygon", "coordinates": [ [ [ [ 121.311847916099723, 13.328175014186478 ], [ 121.31082999873793, 13.327499974251813 ], [ 121.309865655974122, 13.328035720231705 ], [ 121.309029892245491, 13.329514379136208 ], [ 121.308826308773135, 13.330146559392482 ], [ 121.308740589416345, 13.331175191673875 ], [ 121.308076264401279, 13.331989525563312 ], [ 121.307326220029438, 13.332568131221596 ], [ 121.307626237778194, 13.333146736879879 ], [ 121.307969115205324, 13.333832491734141 ], [ 121.307604807939001, 13.334946843372318 ], [ 121.307122636557096, 13.334882553854731 ], [ 121.306865478486756, 13.335396869995428 ], [ 121.307476228903823, 13.335696887744167 ], [ 121.308236988195276, 13.335311150638644 ], [ 121.308890598290745, 13.335321865558242 ], [ 121.309190616039487, 13.335204001442666 ], [ 121.309372769672649, 13.334303948196446 ], [ 121.309608497903795, 13.333500329226608 ], [ 121.309844226134956, 13.332878863889933 ], [ 121.310037094687715, 13.33224668363366 ], [ 121.310154958803295, 13.331603788457789 ], [ 121.31041211687365, 13.330928748523124 ], [ 121.310958577773135, 13.32985725656334 ], [ 121.311858631019348, 13.328367882739238 ], [ 121.311847916099723, 13.328175014186478 ] ] ] ] } },
{ "type": "Feature", "properties": { "id": 3 }, "geometry": { "type": "MultiPolygon", "coordinates": [ [ [ [ 121.313481941338409, 13.327285675859857 ], [ 121.3129676251977, 13.326974943191519 ], [ 121.311847916099737, 13.328576823671398 ], [ 121.310980007612329, 13.330125129553286 ], [ 121.310385329574643, 13.33134663038744 ], [ 121.310133528964087, 13.332316330611048 ], [ 121.310267465459063, 13.332402049967831 ], [ 121.311172876165074, 13.330864459005539 ], [ 121.311826486260557, 13.329792967045751 ], [ 121.313481941338409, 13.327285675859857 ] ] ] ] } },
{ "type": "Feature", "properties": { "id": 4 }, "geometry": { "type": "MultiPolygon", "coordinates": [ [ [ [ 121.306506528680245, 13.32338008766644 ], [ 121.306763686750614, 13.323112214676494 ], [ 121.306485098841065, 13.322737192490569 ], [ 121.305627905273241, 13.322040722716711 ], [ 121.304910005660176, 13.320669213008186 ], [ 121.303463491514478, 13.319276273460465 ], [ 121.302831311258203, 13.319286988380062 ], [ 121.302038407207959, 13.319254843621268 ], [ 121.30138479711249, 13.319265558540867 ], [ 121.300881195891392, 13.318761957319767 ], [ 121.300549033383859, 13.318097632304701 ], [ 121.299691839816035, 13.318129777063495 ], [ 121.299284672871309, 13.317411877450439 ], [ 121.298577488177855, 13.317669035520787 ], [ 121.298427479303484, 13.318194066581082 ], [ 121.299231098273324, 13.318633378284593 ], [ 121.299606120459245, 13.319179839184084 ], [ 121.299670409976841, 13.319822734359954 ], [ 121.299563260780829, 13.320122752108695 ], [ 121.2997132696552, 13.320508489214218 ], [ 121.298470338981858, 13.320979945676523 ], [ 121.298138176474325, 13.321451402138829 ], [ 121.298041742197938, 13.321987148118721 ], [ 121.298159606313519, 13.322490749339819 ], [ 121.298695352293407, 13.323047925158907 ], [ 121.299145378916521, 13.323197934033278 ], [ 121.299541830941635, 13.323562241299603 ], [ 121.30005614708233, 13.323862259048342 ], [ 121.300666897499411, 13.324151561877486 ], [ 121.301331222514477, 13.323990838083517 ], [ 121.301759819298397, 13.324001553003114 ], [ 121.301995547529543, 13.324601588500594 ], [ 121.301941972931559, 13.325373062711639 ], [ 121.301556235826041, 13.325994528048314 ], [ 121.30140622695167, 13.326690997822174 ], [ 121.30220984592151, 13.326841006696544 ], [ 121.30280988141898, 13.326776717178957 ], [ 121.303067039489335, 13.326165966761881 ], [ 121.303388487077271, 13.325598076023194 ], [ 121.303967092735547, 13.325823089334749 ], [ 121.304567128233032, 13.325726655058368 ], [ 121.304652847589821, 13.325373062711639 ], [ 121.30450283871545, 13.324933751008128 ], [ 121.304759996785791, 13.324623018339791 ], [ 121.305381462122469, 13.324644448178987 ], [ 121.305767199227986, 13.324858746570943 ], [ 121.306024357298341, 13.324140846957887 ], [ 121.306506528680245, 13.32338008766644 ] ] ] ] } },
{ "type": "Feature", "properties": { "id": 5 }, "geometry": { "type": "MultiPolygon", "coordinates": [ [ [ [ 121.326146976303122, 13.314572423757008 ], [ 121.325386217011669, 13.314068822535907 ], [ 121.324925475468959, 13.31395095842033 ], [ 121.323778979071989, 13.314240261249472 ], [ 121.323264662931294, 13.314090252375102 ], [ 121.322600337916228, 13.31400453301832 ], [ 121.322182456051905, 13.313758089867569 ], [ 121.321250258046902, 13.313833094304755 ], [ 121.320810946343386, 13.314529564078613 ], [ 121.320285915283094, 13.314668858033386 ], [ 121.319557300750432, 13.314379555204244 ], [ 121.318989410011753, 13.314872441505745 ], [ 121.318592957986638, 13.315322468128855 ], [ 121.319053699529334, 13.316093942339901 ], [ 121.319664449946416, 13.316897561309739 ], [ 121.320393064479077, 13.318001198028316 ], [ 121.320853806021788, 13.3185905186062 ], [ 121.322128881453921, 13.317401162530839 ], [ 121.323286092770488, 13.316704692756979 ], [ 121.324646887559425, 13.315697490314781 ], [ 121.326146976303122, 13.314572423757008 ] ] ] ] } },
{ "type": "Feature", "properties": { "id": 6 }, "geometry": { "type": "MultiPolygon", "coordinates": [ [ [ [ 121.325761239197618, 13.308475634505831 ], [ 121.324807611353407, 13.308700647817385 ], [ 121.324261150453921, 13.309054240164114 ], [ 121.323875413348389, 13.308947090968136 ], [ 121.323746834313212, 13.308572068782212 ], [ 121.323478961323275, 13.308754222415375 ], [ 121.323361097207695, 13.30907567000331 ], [ 121.322675342353435, 13.309097099842505 ], [ 121.321978872579578, 13.309289968395268 ], [ 121.321507416117271, 13.309107814762104 ], [ 121.321325262484109, 13.308850656691755 ], [ 121.32058593303185, 13.30887208653095 ], [ 121.320489498755478, 13.308550638943016 ], [ 121.320125191489154, 13.308432774827441 ], [ 121.319653735026847, 13.308057752641517 ], [ 121.319235853162539, 13.307554151420419 ], [ 121.319053699529363, 13.306921971164146 ], [ 121.318517953549474, 13.306611238495808 ], [ 121.318089356765569, 13.306300505827471 ], [ 121.317757194258036, 13.306814821968167 ], [ 121.31723216319773, 13.307404142546048 ], [ 121.317200018438939, 13.307832739329962 ], [ 121.317757194258036, 13.308111327239507 ], [ 121.31872153702183, 13.308539924023421 ], [ 121.319332287438911, 13.309032810324922 ], [ 121.31972873946404, 13.309482836948032 ], [ 121.319921608016799, 13.310072157525912 ], [ 121.319846603579606, 13.310490039390229 ], [ 121.319289427760523, 13.310822201897762 ], [ 121.318935835413797, 13.311315088199263 ], [ 121.31849652371028, 13.311743684983176 ], [ 121.318100071685151, 13.312418724917841 ], [ 121.318282225318328, 13.31267588298819 ], [ 121.319192993484137, 13.311797259581166 ], [ 121.320157336247945, 13.311004355530924 ], [ 121.320778801584623, 13.310704337782186 ], [ 121.321293117725318, 13.31023288131988 ], [ 121.321657424991642, 13.309900718812347 ], [ 121.322257460489126, 13.310029297847521 ], [ 121.322525333479064, 13.310372175274653 ], [ 121.32308250929816, 13.31017930672189 ], [ 121.323371812127306, 13.309847144214357 ], [ 121.323982562544373, 13.309718565179184 ], [ 121.324443304087083, 13.309622130902802 ], [ 121.324743321835825, 13.309568556304814 ], [ 121.325707664599634, 13.308786367174172 ], [ 121.325761239197618, 13.308475634505831 ] ] ] ] } },
{ "type": "Feature", "properties": { "id": 7 }, "geometry": { "type": "MultiPolygon", "coordinates": [ [ [ [ 121.31560349541887, 13.317519026646417 ], [ 121.315699929695256, 13.317144004460493 ], [ 121.315764219212838, 13.316651118158992 ], [ 121.315496346222901, 13.316222521375078 ], [ 121.315099894197772, 13.316254666133871 ], [ 121.314885595805819, 13.315858214108751 ], [ 121.314414139343512, 13.316179661696687 ], [ 121.313921253042011, 13.316201091535882 ], [ 121.313364077222928, 13.316211806455479 ], [ 121.312699752207863, 13.316951135907731 ], [ 121.312089001790781, 13.317454737128831 ], [ 121.311510396132491, 13.317776184716765 ], [ 121.311521111052102, 13.318140491983092 ], [ 121.310578198127487, 13.318729812560974 ], [ 121.31022460578076, 13.319683440405182 ], [ 121.310610342886278, 13.319769159761965 ], [ 121.310781781599843, 13.320090607349901 ], [ 121.311038939670198, 13.320433484777032 ], [ 121.311028224750601, 13.32104423519411 ], [ 121.311081799348585, 13.321301393264458 ], [ 121.311585400569683, 13.321140669470489 ], [ 121.311917563077216, 13.32144068721923 ], [ 121.312528313494298, 13.321097809792098 ], [ 121.313021199795799, 13.320883511400142 ], [ 121.312892620760621, 13.320551348892609 ], [ 121.312646177609864, 13.320326335581054 ], [ 121.312249725584749, 13.320444199696629 ], [ 121.312292585263137, 13.320122752108695 ], [ 121.313010484876202, 13.319619150887595 ], [ 121.313867678444026, 13.31869766780218 ], [ 121.314381994584721, 13.318633378284593 ], [ 121.314939170403804, 13.318322645616256 ], [ 121.31560349541887, 13.317519026646417 ], [ 121.31560349541887, 13.317519026646417 ] ] ] ] } },
{ "type": "Feature", "properties": { "id": 8 }, "geometry": { "type": "MultiPolygon", "coordinates": [ [ [ [ 121.309313837614923, 13.326926726053335 ], [ 121.309399556971698, 13.326540988947812 ], [ 121.309517421087278, 13.326487414349824 ], [ 121.309763864238022, 13.326315975636257 ], [ 121.309978162629989, 13.326015957887519 ], [ 121.310021022308376, 13.325469496988028 ], [ 121.30969957472044, 13.324815886892559 ], [ 121.309881728353602, 13.324473009465429 ], [ 121.310599627966667, 13.324022982842319 ], [ 121.3103853295747, 13.323455092103632 ], [ 121.309881728353602, 13.323133644515696 ], [ 121.309292407775729, 13.322780052168968 ], [ 121.308703087197841, 13.322855056606153 ], [ 121.308467358966695, 13.323272938470469 ], [ 121.307974472665194, 13.323390802586045 ], [ 121.307588735559662, 13.323787254611165 ], [ 121.307042274660176, 13.324344430430253 ], [ 121.307331577489322, 13.324805171972962 ], [ 121.307738744434033, 13.325255198596071 ], [ 121.307770889192824, 13.325865949013147 ], [ 121.308124481539551, 13.326465984510628 ], [ 121.309313837614923, 13.326926726053335 ] ] ] ] } }
]
}
