{
"type": "FeatureCollection",
"name": "pola_mangrove",
"crs": { "type": "name", "properties": { "name": "urn:ogc:def:crs:OGC:1.3:CRS84" } },
"features": [
{ "type": "Feature", "properties": { "mang_id": 1, "name": "Batuhan Mangrove Area", "area": null, "source": null, "acq_date": null, "remarks": null }, "geometry": { "type": "MultiPolygon", "coordinates": [ [ [ [ 121.457590642827, 13.135169731675401, 0.0 ], [ 121.457595842233005, 13.13552155813, 0.0 ], [ 121.457772622028003, 13.135819657392, 0.0 ], [ 121.458134847294005, 13.1363690612644, 0.0 ], [ 121.458415615202995, 13.1363915920226, 0.0 ], [ 121.458809036904, 13.136266806285001, 0.0 ], [ 121.458374019957006, 13.1363274660185, 0.0 ], [ 121.458010061555996, 13.136067495731901, 0.0 ], [ 121.457666900777994, 13.135103872536201, 0.0 ], [ 121.457101898687995, 13.134719116512001, 0.0 ], [ 121.45661662082, 13.1346809875366, 0.0 ], [ 121.456519565245998, 13.1348577673315, 0.0 ], [ 121.456515201831337, 13.134872312046237, 0.0 ], [ 121.456323697743002, 13.1349534368268, 0.0 ], [ 121.456184402152999, 13.1352205260142, 0.0 ], [ 121.456014892602994, 13.1356435487436, 0.0 ], [ 121.456014992606995, 13.135662259729999, 0.0 ], [ 121.455850299567999, 13.135847637130601, 0.0 ], [ 121.455653754921002, 13.1361523564302, 0.0 ], [ 121.455628316421993, 13.1361834829251, 0.0 ], [ 121.455602872873001, 13.136214615015399, 0.0 ], [ 121.455596576708004, 13.1362332974672, 0.0 ], [ 121.455283694757, 13.1364638905467, 0.0 ], [ 121.454892421536996, 13.1364576576873, 0.0 ], [ 121.454501030787, 13.1364015415722, 0.0 ], [ 121.454359307570996, 13.136289009107999, 0.0 ], [ 121.454011910557995, 13.1360970696729, 0.0 ], [ 121.453512283137997, 13.135961126150301, 0.0 ], [ 121.453008867446997, 13.135985569395899, 0.0 ], [ 121.452983464197004, 13.1359917072519, 0.0 ], [ 121.452970788328003, 13.135997866081301, 0.0 ], [ 121.452354131568001, 13.136120197254201, 0.0 ], [ 121.452334949247998, 13.136126411458999, 0.0 ], [ 121.451938565082003, 13.1363439604505, 0.0 ], [ 121.451938621867001, 13.136362587032201, 0.0 ], [ 121.451952509728997, 13.1366297621777, 0.0 ], [ 121.452056471484994, 13.1367207049352, 0.0 ], [ 121.451987403052001, 13.136819453068799, 0.0 ], [ 121.451974844467003, 13.1368379787842, 0.0 ], [ 121.451974979011993, 13.1368503310471, 0.0 ], [ 121.451651674824006, 13.136979709749699, 0.0 ], [ 121.451366496182999, 13.1370718439795, 0.0 ], [ 121.451118216674999, 13.137077428761501, 0.0 ], [ 121.450811414103995, 13.136958764231901, 0.0 ], [ 121.450292828236996, 13.1368276998622, 0.0 ], [ 121.449889278599002, 13.1368400368926, 0.0 ], [ 121.449517613004005, 13.136895602202699, 0.0 ], [ 121.449216072404994, 13.136969877816799, 0.0 ], [ 121.448932123584001, 13.1371303230023, 0.0 ], [ 121.448919101917994, 13.1371426704254, 0.0 ], [ 121.448912514428002, 13.1371612873898, 0.0 ], [ 121.448780848257002, 13.137472726342899, 0.0 ], [ 121.448780813571005, 13.137478988258501, 0.0 ], [ 121.448780639950996, 13.137510304901999, 0.0 ], [ 121.448770810176995, 13.137817787547, 0.0 ], [ 121.448770651223001, 13.1378303867307, 0.0 ], [ 121.448770333854995, 13.137855598623201, 0.0 ], [ 121.448865640734994, 13.138083146296101, 0.0 ], [ 121.448872109904997, 13.138089475608, 0.0 ], [ 121.448884945003996, 13.138114813488899, 0.0 ], [ 121.449138394005999, 13.138361475980499, 0.0 ], [ 121.449144940354998, 13.138374077771299, 0.0 ], [ 121.449164534979005, 13.138392949795801, 0.0 ], [ 121.449418567063006, 13.1384864429464, 0.0 ], [ 121.449438019889001, 13.1383666057423, 0.0 ], [ 121.449431518809007, 13.138360327699599, 0.0 ], [ 121.449177720674996, 13.1382410847096, 0.0 ], [ 121.449029388878003, 13.138032232637, 0.0 ], [ 121.448946122153004, 13.1378807988809, 0.0 ], [ 121.448960709359, 13.137723636394, 0.0 ], [ 121.448967454148004, 13.1376985635255, 0.0 ], [ 121.449143598682994, 13.1374424049261, 0.0 ], [ 121.449150061614006, 13.137436164672, 0.0 ], [ 121.449343682543002, 13.1372368025649, 0.0 ], [ 121.449754879143001, 13.137025686, 0.0 ], [ 121.449767709894999, 13.1370257027704, 0.0 ], [ 121.450325784583995, 13.1370134175079, 0.0 ], [ 121.450806093506998, 13.137157407095501, 0.0 ], [ 121.451220954720995, 13.1371893591397, 0.0 ], [ 121.451113231256997, 13.1372823162164, 0.0 ], [ 121.451094177827997, 13.137294713522101, 0.0 ], [ 121.450896350337999, 13.1373068011487, 0.0 ], [ 121.450883608447, 13.137313000472, 0.0 ], [ 121.450864618072998, 13.137344079033101, 0.0 ], [ 121.450839419836996, 13.137387564661701, 0.0 ], [ 121.450744613268, 13.1375306680465, 0.0 ], [ 121.450738345017001, 13.1375493712085, 0.0 ], [ 121.450732116224998, 13.137574319942001, 0.0 ], [ 121.450732616010001, 13.1377117846204, 0.0 ], [ 121.450739097314994, 13.137736796852201, 0.0 ], [ 121.450694573774996, 13.137824346387101, 0.0 ], [ 121.450675409650998, 13.1378431176657, 0.0 ], [ 121.450489024465, 13.1378368511937, 0.0 ], [ 121.450244660997001, 13.137871131329, 0.0 ], [ 121.450238277829996, 13.137896057931499, 0.0 ], [ 121.450187586146995, 13.1380580157899, 0.0 ], [ 121.450181439104995, 13.1380642020042, 0.0 ], [ 121.450175634448996, 13.138089036509299, 0.0 ], [ 121.450133918573997, 13.1382070907586, 0.0 ], [ 121.450127758369007, 13.138213298683899, 0.0 ], [ 121.450128322834999, 13.1382444459909, 0.0 ], [ 121.450128939140995, 13.138281845286, 0.0 ], [ 121.449973494095005, 13.1384752167719, 0.0 ], [ 121.449961008358997, 13.138487714052699, 0.0 ], [ 121.449667991468999, 13.1385502159899, 0.0 ], [ 121.449649033083006, 13.1385502058908, 0.0 ], [ 121.449559932138001, 13.1386943779265, 0.0 ], [ 121.449553531941007, 13.1387131889289, 0.0 ], [ 121.449379865682005, 13.1388887896886, 0.0 ], [ 121.449354271315997, 13.1388950855515, 0.0 ], [ 121.449334992123994, 13.138907637357599, 0.0 ], [ 121.449322159759006, 13.138913918187599, 0.0 ], [ 121.449066133168998, 13.139033508797301, 0.0 ], [ 121.448762752080995, 13.138995843306301, 0.0 ], [ 121.448517817018001, 13.138901744578501, 0.0 ], [ 121.448112385998996, 13.138832979537099, 0.0 ], [ 121.447971648377006, 13.1389657329572, 0.0 ], [ 121.447839385606997, 13.1391881403742, 0.0 ], [ 121.447820167236003, 13.139206934383701, 0.0 ], [ 121.447627053364997, 13.1394264304303, 0.0 ], [ 121.447614035970005, 13.139445256143199, 0.0 ], [ 121.447600981584998, 13.139470353566701, 0.0 ], [ 121.447378230631003, 13.1396650039127, 0.0 ], [ 121.447365474511003, 13.139671299576399, 0.0 ], [ 121.447096572448004, 13.1399485177934, 0.0 ], [ 121.447090098288001, 13.139973699574201, 0.0 ], [ 121.446618643768005, 13.140194811671501, 0.0 ], [ 121.446048744424004, 13.140359729685199, 0.0 ], [ 121.445444976651004, 13.1404172872102, 0.0 ], [ 121.444976785156996, 13.1404242209545, 0.0 ], [ 121.444467199125, 13.140514731849001, 0.0 ], [ 121.444269617076998, 13.140592329314099, 0.0 ], [ 121.444047261815001, 13.1406815174389, 0.0 ], [ 121.444034177758994, 13.140694231731599, 0.0 ], [ 121.443594188629007, 13.140956260328601, 0.0 ], [ 121.443574353559001, 13.1409818351532, 0.0 ], [ 121.443561071313994, 13.141007400965901, 0.0 ], [ 121.443541378508002, 13.141032883030199, 0.0 ], [ 121.443340549862, 13.1413747204753, 0.0 ], [ 121.443066349445004, 13.141710264768401, 0.0 ], [ 121.443210680909004, 13.1418182367076, 0.0 ], [ 121.443492308128995, 13.142047270820299, 0.0 ], [ 121.443988167097999, 13.142349141897199, 0.0 ], [ 121.444993280812, 13.142438365481601, 0.0 ], [ 121.445555665271002, 13.1424214642478, 0.0 ], [ 121.446467949706999, 13.142251311982299, 0.0 ], [ 121.447040374321006, 13.1420805062209, 0.0 ], [ 121.447934639739003, 13.141831609500001, 0.0 ], [ 121.44794043556, 13.141831642319101, 0.0 ], [ 121.448610770531005, 13.141498718288, 0.0 ], [ 121.449466648777005, 13.1411103239908, 0.0 ], [ 121.450012055510001, 13.1405314426889, 0.0 ], [ 121.452763216418006, 13.139386735912099, 0.0 ], [ 121.453729689238997, 13.138936606069199, 0.0 ], [ 121.454168606021994, 13.1388113446838, 0.0 ], [ 121.454176562789002, 13.1388113445327, 0.0 ], [ 121.454192482772001, 13.1388074600357, 0.0 ], [ 121.454216379992999, 13.138807417930201, 0.0 ], [ 121.454646056672999, 13.1387452542332, 0.0 ], [ 121.454657980416002, 13.138745283758199, 0.0 ], [ 121.455446346198002, 13.138673137348, 0.0 ], [ 121.455776373882998, 13.1384321179439, 0.0 ], [ 121.455840115068995, 13.138166674016301, 0.0 ], [ 121.455828497224999, 13.1380731959022, 0.0 ], [ 121.455789636421002, 13.137843659665601, 0.0 ], [ 121.455789653674998, 13.1378397699734, 0.0 ], [ 121.455727064068995, 13.13752596096, 0.0 ], [ 121.455719122768997, 13.1375182566159, 0.0 ], [ 121.455711173636004, 13.1375066996497, 0.0 ], [ 121.455699245071997, 13.1374874366307, 0.0 ], [ 121.455682759349997, 13.1371828250112, 0.0 ], [ 121.455682751653995, 13.1371789660418, 0.0 ], [ 121.455785423790005, 13.1369279722265, 0.0 ], [ 121.455793354703005, 13.136924108218301, 0.0 ], [ 121.456285445730998, 13.1368313483971, 0.0 ], [ 121.457150373721007, 13.136603399520901, 0.0 ], [ 121.457564362048998, 13.1366143927268, 0.0 ], [ 121.457795796970004, 13.136730995340001, 0.0 ], [ 121.458096764445997, 13.136820984565199, 0.0 ], [ 121.458403172901001, 13.1368132677232, 0.0 ], [ 121.458705199158999, 13.136747286107701, 0.0 ], [ 121.458709146630994, 13.136743403449699, 0.0 ], [ 121.458911242708993, 13.136700590133399, 0.0 ], [ 121.459248041156002, 13.1366886863087, 0.0 ], [ 121.459588820676998, 13.1366156489549, 0.0 ], [ 121.459796171774002, 13.1366198002343, 0.0 ], [ 121.459733736234, 13.136181253182301, 0.0 ], [ 121.459585423988003, 13.1361687168109, 0.0 ], [ 121.459340621981994, 13.136200068956899, 0.0 ], [ 121.459295477387002, 13.1362000683463, 0.0 ], [ 121.459276141700997, 13.1362000685649, 0.0 ], [ 121.458954024730005, 13.136231427999601, 0.0 ], [ 121.458934688349999, 13.136231428358499, 0.0 ], [ 121.458412295960002, 13.1363943589561, 0.0 ], [ 121.458134122705005, 13.1363753688518, 0.0 ], [ 121.458017139446, 13.1362061090152, 0.0 ], [ 121.457775839139003, 13.1358369710535, 0.0 ], [ 121.457769241856994, 13.135830731043299, 0.0 ], [ 121.457755946643999, 13.1358120117821, 0.0 ], [ 121.45759579525, 13.1355317498149, 0.0 ], [ 121.457589270954998, 13.135506828871, 0.0 ], [ 121.457582852921007, 13.135163973395199, 0.0 ], [ 121.457397328931052, 13.134959069096425, 0.0 ], [ 121.457590642827, 13.135169731675401, 0.0 ] ], [ [ 121.456845394672001, 13.1347624448931, 0.0 ], [ 121.457320273728996, 13.134875098683899, 0.0 ], [ 121.457322752127951, 13.134877799503267, 0.0 ], [ 121.456848008552996, 13.1347669394971, 0.0 ], [ 121.456730319137137, 13.13480160672427, 0.0 ], [ 121.456845394672001, 13.1347624448931, 0.0 ] ] ], [ [ [ 121.450463990703, 13.134634192885001, 0.0 ], [ 121.450074035273005, 13.134268501348499, 0.0 ], [ 121.449862592773002, 13.134051859443, 0.0 ], [ 121.449744739577, 13.1339756014922, 0.0 ], [ 121.449692745519002, 13.1340709239307, 0.0 ], [ 121.449543695887996, 13.1340102641971, 0.0 ], [ 121.44941544388, 13.133989466574199, 0.0 ], [ 121.449188403163006, 13.133947871328299, 0.0 ], [ 121.449001224556994, 13.134018929873299, 0.0 ], [ 121.448796714598004, 13.1341437156109, 0.0 ], [ 121.448607802856003, 13.1343014309181, 0.0 ], [ 121.448491682794995, 13.134453946819599, 0.0 ], [ 121.448446621279004, 13.1345354041761, 0.0 ], [ 121.448288905972007, 13.134731248458699, 0.0 ], [ 121.448243844455007, 13.1349028288478, 0.0 ], [ 121.448339166894002, 13.1349981512863, 0.0 ], [ 121.448366897056999, 13.135096939995201, 0.0 ], [ 121.448346099435, 13.135202661245099, 0.0 ], [ 121.448340900028995, 13.1354210362859, 0.0 ], [ 121.448165853369005, 13.1354868954251, 0.0 ], [ 121.448070530931005, 13.1352979836835, 0.0 ], [ 121.448011604331995, 13.1353482446056, 0.0 ], [ 121.447914548759002, 13.1355492882939, 0.0 ], [ 121.447990806709996, 13.1357745958757, 0.0 ], [ 121.448023736278998, 13.135960041346801, 0.0 ], [ 121.448053199577998, 13.136138554276901, 0.0 ], [ 121.448174519044997, 13.1362980027194, 0.0 ], [ 121.448235178779001, 13.1364834481905, 0.0 ], [ 121.448268108348998, 13.1366168996043, 0.0 ], [ 121.448313169865003, 13.136849139727, 0.0 ], [ 121.448375562734, 13.1370380514687, 0.0 ], [ 121.448399826626996, 13.137254693374199, 0.0 ], [ 121.448422357384999, 13.137445338251, 0.0 ], [ 121.448483017119003, 13.137525062472299, 0.0 ], [ 121.448528078634993, 13.1374176080871, 0.0 ], [ 121.448592204638999, 13.1372668253209, 0.0 ], [ 121.448687527077993, 13.1370865792555, 0.0 ], [ 121.448805380273996, 13.136942729030199, 0.0 ], [ 121.448888570766002, 13.1368959343786, 0.0 ], [ 121.449169338676001, 13.136741685341899, 0.0 ], [ 121.449460505396999, 13.1365839700347, 0.0 ], [ 121.449985645376003, 13.1365198440306, 0.0 ], [ 121.450171090846993, 13.1365597061413, 0.0 ], [ 121.450141627548007, 13.136356929317699, 0.0 ], [ 121.449743006440997, 13.1361974808752, 0.0 ], [ 121.449545429023999, 13.136166284440799, 0.0 ], [ 121.449580091727995, 13.135788460957601, 0.0 ], [ 121.449819264392005, 13.1357052704659, 0.0 ], [ 121.450082700948997, 13.1355700859168, 0.0 ], [ 121.450398131564, 13.1355839509988, 0.0 ], [ 121.450729160394999, 13.135544088888199, 0.0 ], [ 121.451072321173996, 13.1355822178636, 0.0 ], [ 121.451365221030002, 13.135585684134, 0.0 ], [ 121.451354822217994, 13.1355839509988, 0.0 ], [ 121.450994330087994, 13.1351801304869, 0.0 ], [ 121.450463990703, 13.134634192885001, 0.0 ] ] ], [ [ [ 121.455753519468004, 13.1359565750763, 0.0 ], [ 121.456065483811997, 13.135481696019401, 0.0 ], [ 121.456124410409998, 13.135159332863999, 0.0 ], [ 121.456096680246006, 13.135166265404999, 0.0 ], [ 121.455341033280007, 13.136330932289001, 0.0 ], [ 121.455753519468004, 13.1359565750763, 0.0 ] ] ], [ [ [ 121.462200782576005, 13.1368162101574, 0.0 ], [ 121.462942564461002, 13.1365458410593, 0.0 ], [ 121.463961647983993, 13.136486914461001, 0.0 ], [ 121.464613306836, 13.1366186327396, 0.0 ], [ 121.465209505359994, 13.136542374788799, 0.0 ], [ 121.465805703884001, 13.136116023518801, 0.0 ], [ 121.466512823063994, 13.135852586961599, 0.0 ], [ 121.467039696178006, 13.135831789338701, 0.0 ], [ 121.468206096196994, 13.1356290125151, 0.0 ], [ 121.468448735132, 13.135344778335099, 0.0 ], [ 121.468434870050004, 13.135289318007301, 0.0 ], [ 121.466060474765001, 13.135559687105401, 0.0 ], [ 121.464829948741993, 13.135195728704099, 0.0 ], [ 121.464653168946995, 13.1354210362858, 0.0 ], [ 121.463322121079003, 13.1352650541139, 0.0 ], [ 121.461814293417007, 13.135781528416601, 0.0 ], [ 121.461814293417007, 13.136363861858699, 0.0 ], [ 121.459867982538, 13.1369687260589, 0.0 ], [ 121.460065559956007, 13.1371593709357, 0.0 ], [ 121.460623629503999, 13.1371905673701, 0.0 ], [ 121.462200782576005, 13.1368162101574, 0.0 ] ] ], [ [ [ 121.459812522210001, 13.1369097994606, 0.0 ], [ 121.459803856533995, 13.1366203658748, 0.0 ], [ 121.459796923992997, 13.136622099009999, 0.0 ], [ 121.459580282087003, 13.1366203658748, 0.0 ], [ 121.459698135284, 13.1366532954444, 0.0 ], [ 121.459812522210001, 13.1369097994606, 0.0 ] ] ], [ [ [ 121.443947402185003, 13.1390155587822, 0.0 ], [ 121.443670100546001, 13.1383777650124, 0.0 ], [ 121.443212552841999, 13.137684510914699, 0.0 ], [ 121.442886723415995, 13.1373378838659, 0.0 ], [ 121.442768870218998, 13.137157637800501, 0.0 ], [ 121.442339052679003, 13.1370744473088, 0.0 ], [ 121.441638866039995, 13.137310153702, 0.0 ], [ 121.441098127844, 13.1378231617343, 0.0 ], [ 121.440709905548999, 13.1385164158319, 0.0 ], [ 121.440578187271001, 13.1390294238642, 0.0 ], [ 121.440564322189005, 13.139507769191599, 0.0 ], [ 121.440654445221, 13.139750408125799, 0.0 ], [ 121.440751500795002, 13.1398682613224, 0.0 ], [ 121.441008004810996, 13.139951451814101, 0.0 ], [ 121.441188250877005, 13.139951451814101, 0.0 ], [ 121.441236778662997, 13.139646420011101, 0.0 ], [ 121.441313036614005, 13.139376050913, 0.0 ], [ 121.441486350139002, 13.1394245786999, 0.0 ], [ 121.441604203335004, 13.1397712057487, 0.0 ], [ 121.441625000957998, 13.139958384355101, 0.0 ], [ 121.441763651778004, 13.1401386304205, 0.0 ], [ 121.441846842269001, 13.1404020669776, 0.0 ], [ 121.442068683580999, 13.1405337852561, 0.0 ], [ 121.442990711530001, 13.140013844682899, 0.0 ], [ 121.444169243497001, 13.1395285668145, 0.0 ], [ 121.443947402185003, 13.1390155587822, 0.0 ] ] ] ] } }
]
}
