{
"type": "FeatureCollection",
"name": "pola_mpa",
"crs": { "type": "name", "properties": { "name": "urn:ogc:def:crs:OGC:1.3:CRS84" } },
"features": [
{ "type": "Feature", "properties": { "mpa_id": "5", "mpa_name": "Bacawan Fish Sanctuary", "zone_type": "No Take Zone", "zone_area": 53.01, "status": "existing", "acq_date": "2026-02-11", "source": "Municipal Office" }, "geometry": { "type": "MultiPolygon", "coordinates": [ [ [ [ 121.547069389389463, 13.13214444879028 ], [ 121.549849989389102, 13.129563898789884 ], [ 121.55242778938873, 13.127163898789505 ], [ 121.549063889386531, 13.125116678785984 ], [ 121.546769389387052, 13.127600008786589 ], [ 121.544674989387488, 13.129841678787127 ], [ 121.547069389389463, 13.13214444879028 ] ] ] ] } },
{ "type": "Feature", "properties": { "mpa_id": "5", "mpa_name": "Bacawan Fish Sanctuary", "zone_type": "Buffer Zone", "zone_area": 36.2, "status": "existing", "acq_date": "2026-02-11", "source": "Municipal Office" }, "geometry": { "type": "MultiPolygon", "coordinates": [ [ [ [ 121.544674978774964, 13.129841687574249 ], [ 121.547069378778929, 13.132144457580564 ], [ 121.54705808939012, 13.133400008791259 ], [ 121.553038089389261, 13.127842508790378 ], [ 121.556511689389026, 13.125060838790217 ], [ 121.555872189388481, 13.124405568789332 ], [ 121.552886089385879, 13.121344448785251 ], [ 121.5527522, 13.12120722 ], [ 121.543284189386952, 13.129688898786215 ], [ 121.54705808939012, 13.133400008791259 ], [ 121.547069378778929, 13.132144457580564 ], [ 121.549849978778184, 13.129563907579769 ], [ 121.552427778777457, 13.127163907579005 ], [ 121.549063878773069, 13.125116687571971 ], [ 121.546769378774101, 13.127600017573181 ], [ 121.544674978774964, 13.129841687574249 ] ] ] ] } },
{ "type": "Feature", "properties": { "mpa_id": null, "mpa_name": "St. Peter the Rock Fish Sanctuary", "zone_type": "Core Zone", "zone_area": 54.4, "status": "existing", "acq_date": "2026-02-11", "source": "Municipal Office" }, "geometry": { "type": "MultiPolygon", "coordinates": [ [ [ [ 121.451066369043815, 13.211025715411779 ], [ 121.451114656941087, 13.201925056364631 ], [ 121.447431899972599, 13.201686836071215 ], [ 121.44736107772323, 13.20247231920086 ], [ 121.44655627943466, 13.203431638760835 ], [ 121.446221483346619, 13.203727804531027 ], [ 121.445661343737754, 13.204352328002956 ], [ 121.444927367698583, 13.205491922379572 ], [ 121.444978874789058, 13.205594936560509 ], [ 121.445345862808637, 13.206000554897948 ], [ 121.445931755962718, 13.206567132893101 ], [ 121.446382443004325, 13.207069327025168 ], [ 121.446446826867401, 13.207365492795363 ], [ 121.446202168187682, 13.208324812355338 ], [ 121.446002578212116, 13.208382757832116 ], [ 121.445481068921126, 13.208524402330903 ], [ 121.444953121243827, 13.208614539739223 ], [ 121.44512051928784, 13.208801252942171 ], [ 121.445390931512804, 13.208923582282035 ], [ 121.445725727600845, 13.208891390350491 ], [ 121.446144222710899, 13.208730430692777 ], [ 121.446433950094786, 13.208659608443384 ], [ 121.44652408750315, 13.208814129714789 ], [ 121.44654984104838, 13.20934207739209 ], [ 121.446157099483557, 13.209696188639061 ], [ 121.445603398261014, 13.210037423113414 ], [ 121.445423123444385, 13.210468794996089 ], [ 121.445326547649756, 13.210797152697825 ], [ 121.445236410241435, 13.210983865900772 ], [ 121.445204218309883, 13.211119072013252 ], [ 121.451066369043815, 13.211025715411779 ] ] ] ] } },
{ "type": "Feature", "properties": { "mpa_id": "1", "mpa_name": "St. Peter the Rock Fish Sanctuary", "zone_type": "Seagrass Management Zone", "zone_area": 12.0, "status": "existing", "acq_date": "2026-02-11", "source": "Municipal Office" }, "geometry": { "type": "MultiPolygon", "coordinates": [ [ [ [ 121.445194560730371, 13.211122291206408 ], [ 121.445580863908887, 13.210034203920261 ], [ 121.446137784324577, 13.209699407832217 ], [ 121.446536964275722, 13.209332419812629 ], [ 121.446527306696268, 13.208833444873715 ], [ 121.446417854129024, 13.208675704409156 ], [ 121.446176414642451, 13.208740088272242 ], [ 121.445754700339236, 13.208901047929956 ], [ 121.445407027478581, 13.208946116634115 ], [ 121.445117300094694, 13.208814129714789 ], [ 121.444943463664373, 13.208627416511842 ], [ 121.444891956573898, 13.208582347807681 ], [ 121.444769627234038, 13.208353785093728 ], [ 121.444592571610556, 13.208253990105945 ], [ 121.444183734079957, 13.208299058810105 ], [ 121.443839280412448, 13.20853727910352 ], [ 121.443591402539568, 13.208695019568081 ], [ 121.443501265131218, 13.208769061010628 ], [ 121.443227633713107, 13.209100637905518 ], [ 121.443234072099415, 13.209251939983769 ], [ 121.443214756940492, 13.209387146096249 ], [ 121.443195441781555, 13.209532009788193 ], [ 121.443179345815793, 13.209696188639061 ], [ 121.442970098260759, 13.209828175558386 ], [ 121.442847768920899, 13.210024546340797 ], [ 121.4427286587742, 13.210208040350592 ], [ 121.442654617331641, 13.210317492917836 ], [ 121.442696466842648, 13.210391534360385 ], [ 121.44278982344413, 13.210491329348168 ], [ 121.442822015375668, 13.210665165778499 ], [ 121.442770508285207, 13.210874413333526 ], [ 121.442796261830438, 13.210993523480235 ], [ 121.443452977233903, 13.21159873179324 ], [ 121.443659005595777, 13.211679211622098 ], [ 121.443980924911216, 13.211647019690554 ], [ 121.444341474544487, 13.211544005509618 ], [ 121.444656955473604, 13.211389484238213 ], [ 121.444850107062862, 13.211292908443584 ], [ 121.445194560730371, 13.211122291206408 ] ] ] ] } },
{ "type": "Feature", "properties": { "mpa_id": "4", "mpa_name": "Song of the Sea Fish Sanctuary", "zone_type": "No Take Zone", "zone_area": 83.46, "status": "existing", "acq_date": "2026-03-04", "source": "Municipal Office" }, "geometry": { "type": "MultiPolygon", "coordinates": [ [ [ [ 121.445661089406045, 13.230880568807894 ], [ 121.448386089404636, 13.226350008806005 ], [ 121.450688889403395, 13.222416678804329 ], [ 121.447444389400673, 13.219266678800048 ], [ 121.444124989398063, 13.216386118795935 ], [ 121.440952789399162, 13.220583338797315 ], [ 121.444191689401677, 13.223383338801327 ], [ 121.442491689403582, 13.228105568803942 ], [ 121.445661089406045, 13.230880568807894 ] ] ] ] } },
{ "type": "Feature", "properties": { "mpa_id": "4", "mpa_name": "Song of the Sea Fish Sanctuary", "zone_type": "Buffer Zone", "zone_area": 55.96, "status": "existing", "acq_date": "2026-03-04", "source": "Municipal Office" }, "geometry": { "type": "MultiPolygon", "coordinates": [ [ [ [ 121.442491678807116, 13.228105577607892 ], [ 121.440611389402946, 13.228158068802907 ], [ 121.445884989406863, 13.232288898809097 ], [ 121.451842189403692, 13.222263618804874 ], [ 121.444251089397568, 13.215288068795166 ], [ 121.444124978796154, 13.216386127591862 ], [ 121.450688878806773, 13.222416687608654 ], [ 121.44566107881208, 13.230880577615787 ], [ 121.442491678807116, 13.228105577607892 ] ] ] ] } },
{ "type": "Feature", "properties": { "mpa_id": "3", "mpa_name": "St. John the Baptist Fish Sanctuary", "zone_type": "No Take Zone", "zone_area": 49.38, "status": "existing", "acq_date": "2026-03-04", "source": "Municipal Office" }, "geometry": { "type": "MultiPolygon", "coordinates": [ [ [ [ 121.445564689380362, 13.180955288769599 ], [ 121.447445, 13.18292056 ], [ 121.4540197, 13.18370972 ], [ 121.451774389381896, 13.179881948772344 ], [ 121.44957, 13.17650639 ], [ 121.44441608937818, 13.177438618766233 ], [ 121.4444510893792, 13.179472788767816 ], [ 121.445564689380362, 13.180955288769599 ] ] ] ] } },
{ "type": "Feature", "properties": { "mpa_id": "3", "mpa_name": "St. John the Baptist Fish Sanctuary", "zone_type": "No Take Zone", "zone_area": 19.13, "status": "existing", "acq_date": "2026-03-04", "source": "Municipal Office" }, "geometry": { "type": "MultiPolygon", "coordinates": [ [ [ [ 121.449569989379427, 13.176506398768485 ], [ 121.449363889379043, 13.175891678767892 ], [ 121.444869389375938, 13.172752788762891 ], [ 121.441991689375286, 13.173419448761749 ], [ 121.442767489376791, 13.17580167876403 ], [ 121.443516689377702, 13.177122228765471 ], [ 121.444174989377856, 13.177000008765754 ], [ 121.444416078756348, 13.177438627532467 ], [ 121.449569989379427, 13.176506398768485 ] ] ] ] } },
{ "type": "Feature", "properties": { "mpa_id": "3", "mpa_name": "St. John the Baptist Fish Sanctuary", "zone_type": "Mangrove Reserve", "zone_area": 3.21, "status": "existing", "acq_date": "2026-03-04", "source": "Municipal Office" }, "geometry": { "type": "MultiPolygon", "coordinates": [ [ [ [ 121.447281701503741, 13.186421116392047 ], [ 121.446661089382474, 13.184355568772848 ], [ 121.445433289382393, 13.185011118772639 ], [ 121.445749989383302, 13.186555568774009 ], [ 121.447281701503741, 13.186421116392047 ] ] ] ] } },
{ "type": "Feature", "properties": { "mpa_id": "3", "mpa_name": "St. John the Baptist Fish Sanctuary", "zone_type": "Seagrass Area", "zone_area": 11.71, "status": "existing", "acq_date": "2026-03-04", "source": "Municipal Office" }, "geometry": { "type": "MultiPolygon", "coordinates": [ [ [ [ 121.447680589382287, 13.183330568772636 ], [ 121.447445, 13.18292056 ], [ 121.445564678760718, 13.180955297539196 ], [ 121.444451078758433, 13.179472797535634 ], [ 121.444416068134515, 13.177438636298705 ], [ 121.444174978755726, 13.177000017531507 ], [ 121.443516678755415, 13.177122237530948 ], [ 121.443608289378432, 13.1785166787666 ], [ 121.443038889378684, 13.179333338766902 ], [ 121.442455589378724, 13.179816678766933 ], [ 121.442761089379132, 13.180391678767558 ], [ 121.443424989379238, 13.18017778876777 ], [ 121.444113889379807, 13.180827788768669 ], [ 121.444036089380049, 13.181338898769011 ], [ 121.444258289380443, 13.181941678769599 ], [ 121.445408289381206, 13.182650008770814 ], [ 121.446411089382039, 13.183680568772179 ], [ 121.447680589382287, 13.183330568772636 ] ] ] ] } },
{ "type": "Feature", "properties": { "mpa_id": "3", "mpa_name": "St. John the Baptist Fish Sanctuary", "zone_type": "Buffer Zone", "zone_area": 2.98, "status": "existing", "acq_date": "2026-03-04", "source": "Municipal Office" }, "geometry": { "type": "MultiPolygon", "coordinates": [ [ [ [ 121.447444989382006, 13.182920568772186 ], [ 121.447680578764576, 13.183330577545277 ], [ 121.45421388938486, 13.184108338776998 ], [ 121.454019689384609, 13.183709728776583 ], [ 121.447444989382006, 13.182920568772186 ] ] ] ] } },
{ "type": "Feature", "properties": { "mpa_id": "2", "mpa_name": "Stella Mariz Fish Sanctuary", "zone_type": "No Take Zone", "zone_area": 30.01, "status": "existing", "acq_date": "2026-02-11", "source": "Municipal Office" }, "geometry": { "type": "MultiPolygon", "coordinates": [ [ [ [ 121.505557125597008, 13.149663879743112 ], [ 121.504977789383986, 13.149050008779188 ], [ 121.504577789383376, 13.148133338778251 ], [ 121.504274989382878, 13.147355568777472 ], [ 121.503802789382419, 13.146769448776748 ], [ 121.503411089382112, 13.146455568776274 ], [ 121.502738889381774, 13.146233338775723 ], [ 121.502133289381533, 13.146147228775307 ], [ 121.501388889381417, 13.146405568775085 ], [ 121.50085828938127, 13.146436118774798 ], [ 121.500341689381031, 13.146316678774403 ], [ 121.499725289380706, 13.146169728773943 ], [ 121.498777789381279, 13.147861118774699 ], [ 121.501294389384398, 13.15223889877954 ], [ 121.505557125597008, 13.149663879743112 ] ] ] ] } },
{ "type": "Feature", "properties": { "mpa_id": "2", "mpa_name": "Stella Mariz Fish Sanctuary", "zone_type": "Sustainable Use Zone", "zone_area": 49.96, "status": "existing", "acq_date": "2026-02-11", "source": "Municipal Office" }, "geometry": { "type": "MultiPolygon", "coordinates": [ [ [ [ 121.499725278761446, 13.146169737547885 ], [ 121.497911089379699, 13.145330568772245 ], [ 121.496811089379833, 13.146341678772407 ], [ 121.495669389379174, 13.145852788771364 ], [ 121.495027789379151, 13.146141678771221 ], [ 121.496613889380754, 13.148291678773793 ], [ 121.497233289381853, 13.149916678775408 ], [ 121.497011089382298, 13.151016678776124 ], [ 121.496047189381997, 13.151041678775593 ], [ 121.495180589381178, 13.149969448774261 ], [ 121.493708289379157, 13.147027788771148 ], [ 121.49284168937865, 13.146663898770365 ], [ 121.491947189378607, 13.147122228770213 ], [ 121.493483289380734, 13.150272228773529 ], [ 121.495769389383867, 13.154888898778408 ], [ 121.501294378768748, 13.152238907559074 ], [ 121.498777778762545, 13.147861127549406 ], [ 121.499725278761446, 13.146169737547885 ] ] ] ] } },
{ "type": "Feature", "properties": { "mpa_id": null, "mpa_name": "Kingfisherr Fish Sanctuary", "zone_type": "No Take Zone", "zone_area": 25.0, "status": "existiing", "acq_date": "2026-02-11", "source": "Municipal Office" }, "geometry": { "type": "MultiPolygon", "coordinates": [ [ [ [ 121.441933333333296, 13.17323333333333 ], [ 121.44485, 13.1728 ], [ 121.44355, 13.16966666666667 ], [ 121.442666666666696, 13.16746666666667 ], [ 121.4416, 13.16481666666667 ], [ 121.437966666666696, 13.16571666666667 ], [ 121.4394833333333, 13.167516666666669 ], [ 121.441, 13.168516666666671 ], [ 121.441283333333303, 13.170816666666671 ], [ 121.441933333333296, 13.17323333333333 ] ] ] ] } }
]
}
