{
"type": "FeatureCollection",
"name": "pola_muniwaterLine",
"crs": { "type": "name", "properties": { "name": "urn:ogc:def:crs:OGC:1.3:CRS84" } },
"features": [
{ "type": "Feature", "properties": { "id": 1 }, "geometry": { "type": "MultiLineString", "coordinates": [ [ [ 121.431111111111093, 13.22916666666667 ], [ 121.425, 13.232222222222219 ], [ 121.522777777777804, 13.3375 ], [ 121.546388888888899, 13.31222222222222 ], [ 121.593143682907197, 13.271465283601968 ], [ 121.637777777777799, 13.230277777777779 ], [ 121.643611111111099, 13.22527777777778 ], [ 121.553888888888906, 13.12194444444444 ] ] ] } }
]
}
