{
"type": "FeatureCollection",
"name": "puertogalera_mangrove",
"crs": { "type": "name", "properties": { "name": "urn:ogc:def:crs:OGC:1.3:CRS84" } },
"features": [
{ "type": "Feature", "properties": { "id": 1 }, "geometry": { "type": "MultiPolygon", "coordinates": [ [ [ [ 120.969154949000639, 13.481550270990331 ], [ 120.969152991723377, 13.481552228267567 ], [ 120.969121675287596, 13.481524826386265 ], [ 120.969151034446142, 13.481505253613904 ], [ 120.969250855585173, 13.481445556658207 ], [ 120.969265535164439, 13.481413261583812 ], [ 120.969254770139642, 13.481310504528922 ], [ 120.96926162060997, 13.481270380345585 ], [ 120.969298808877454, 13.481230256162247 ], [ 120.969309573902251, 13.481173495122404 ], [ 120.969284129298202, 13.48107269534475 ], [ 120.969206816847375, 13.480968959651243 ], [ 120.969117760733141, 13.480925899552052 ], [ 120.969075679272564, 13.480906326779692 ], [ 120.968886802019298, 13.480898497670747 ], [ 120.968764472192049, 13.480920027720344 ], [ 120.968733155756269, 13.481014955666287 ], [ 120.968845699197345, 13.481080524453693 ], [ 120.968881908826205, 13.481139242770773 ], [ 120.96887897291036, 13.481241021187046 ], [ 120.968824169147751, 13.481217533860214 ], [ 120.96872336937011, 13.481219491137448 ], [ 120.968644099642049, 13.481366286930147 ], [ 120.968522748453424, 13.481354543266731 ], [ 120.968420970037144, 13.481339863687461 ], [ 120.968379867215191, 13.481316376360629 ], [ 120.968305490680223, 13.48124297846428 ], [ 120.968292768378177, 13.481076609899223 ], [ 120.968327020729816, 13.48100908383458 ], [ 120.968395525433081, 13.480984617869129 ], [ 120.968582445409112, 13.480991468339456 ], [ 120.968637249171721, 13.48091121997278 ], [ 120.968651928751001, 13.480827057051632 ], [ 120.968745878058314, 13.480744851407721 ], [ 120.968816340038813, 13.480703748585766 ], [ 120.968859400138001, 13.480672432149991 ], [ 120.968843741920125, 13.48063328660527 ], [ 120.96882710506361, 13.480557931431685 ], [ 120.968798724543689, 13.480531508188998 ], [ 120.968734134394907, 13.480504106307695 ], [ 120.968695967488799, 13.480440494797524 ], [ 120.968648992835142, 13.48039352014386 ], [ 120.968600060904237, 13.480395477421096 ], [ 120.968591253156674, 13.48038862695077 ], [ 120.968583424047736, 13.480372968732883 ], [ 120.968563851275377, 13.480364160985321 ], [ 120.968552107611956, 13.480389605589389 ], [ 120.968520791176189, 13.480428751134108 ], [ 120.968488496101784, 13.480408199723131 ], [ 120.968496325210737, 13.480364160985321 ], [ 120.968530577562362, 13.480338716381254 ], [ 120.968573637661549, 13.480328929995075 ], [ 120.96859027451805, 13.480304464029624 ], [ 120.968602996820081, 13.480268254400759 ], [ 120.968624526869689, 13.480271190316612 ], [ 120.968645078280659, 13.48026727576214 ], [ 120.968645078280659, 13.480233023410511 ], [ 120.96860495409733, 13.480219322469859 ], [ 120.968552107611956, 13.480226172940185 ], [ 120.968550150334721, 13.480200728336117 ], [ 120.968557000805035, 13.480177241009285 ], [ 120.968580488131877, 13.480162561430015 ], [ 120.968592231795284, 13.480137116825947 ], [ 120.968620612315206, 13.480116565414969 ], [ 120.968627462785548, 13.480067633484067 ], [ 120.968577552216033, 13.480050996627561 ], [ 120.968583424047736, 13.480013808360077 ], [ 120.968611804567658, 13.47999815014219 ], [ 120.968634313255876, 13.479977598731212 ], [ 120.968667586968863, 13.479982491924304 ], [ 120.96867835199366, 13.480009893805608 ], [ 120.968682266548129, 13.480045124795856 ], [ 120.968705753874971, 13.480053932543417 ], [ 120.968734134394893, 13.479972705538124 ], [ 120.968670522884722, 13.479953132765763 ], [ 120.968675416077815, 13.479912029943808 ], [ 120.968648014196503, 13.479864076651525 ], [ 120.968683245186753, 13.479830802938514 ], [ 120.968717497538378, 13.479888542616976 ], [ 120.968737070310738, 13.479902243557628 ], [ 120.968757621721721, 13.479893435810066 ], [ 120.968779151771315, 13.479857226181199 ], [ 120.968743920781094, 13.479783828284848 ], [ 120.968777194494095, 13.479744682740128 ], [ 120.968800681820937, 13.479757405042161 ], [ 120.968834934172563, 13.479741746824274 ], [ 120.968887780657937, 13.479746640017364 ], [ 120.968905396153062, 13.479728045883622 ], [ 120.968906374791672, 13.479698686725081 ], [ 120.968942584420546, 13.479682049868575 ], [ 120.968936712588857, 13.479621374274259 ], [ 120.968791874073403, 13.479564613234416 ], [ 120.968766429469326, 13.479533296798641 ], [ 120.968844720558764, 13.47951372402628 ], [ 120.968917139816497, 13.479476535758797 ], [ 120.968858421499419, 13.479456962986436 ], [ 120.968772301301044, 13.479443262045784 ], [ 120.968748813974202, 13.479394330114886 ], [ 120.968780130409982, 13.479359099124638 ], [ 120.968786002241686, 13.479331697243333 ], [ 120.968762514914857, 13.479272978926254 ], [ 120.968817318677466, 13.479288637144142 ], [ 120.968893652489669, 13.479306252639265 ], [ 120.968921054370981, 13.479272978926254 ], [ 120.968989559074231, 13.47921621788641 ], [ 120.969001302737638, 13.47918685872787 ], [ 120.968993473628686, 13.479179029618924 ], [ 120.968950413529498, 13.479122268579081 ], [ 120.968960199915685, 13.479098781252249 ], [ 120.968969986301857, 13.479081165757126 ], [ 120.968999345460404, 13.479077251202654 ], [ 120.969032619173404, 13.479075293925417 ], [ 120.969020875509997, 13.479026361994517 ], [ 120.969048277391295, 13.478977430063617 ], [ 120.969013046401045, 13.478959814568494 ], [ 120.96901500367828, 13.478914797192067 ], [ 120.969056106500247, 13.478893267142471 ], [ 120.969093294767731, 13.478865865261167 ], [ 120.96906589288642, 13.478828676993682 ], [ 120.968983687242513, 13.478832591548155 ], [ 120.968997388183169, 13.478787574171728 ], [ 120.968944541697795, 13.478738642240828 ], [ 120.968866250608357, 13.478744514072535 ], [ 120.968776215855499, 13.478732770409119 ], [ 120.968782087687202, 13.478691667587164 ], [ 120.968838848727046, 13.478685795755455 ], [ 120.968889737935186, 13.478668180260332 ], [ 120.968940627143311, 13.478640778379027 ], [ 120.969034576450639, 13.478619248329432 ], [ 120.969056106500247, 13.478676009369275 ], [ 120.969063935609185, 13.478730813131882 ], [ 120.96913244031245, 13.47875234318148 ], [ 120.969152013084809, 13.478711240359523 ], [ 120.969183329520575, 13.47865447931968 ], [ 120.969206816847418, 13.478593803725364 ], [ 120.969212688679121, 13.478515512635925 ], [ 120.969289022491324, 13.478478324368441 ], [ 120.969359484471823, 13.478525299022104 ], [ 120.969424074620605, 13.478570316398532 ], [ 120.969506280264554, 13.478609461943254 ], [ 120.969546404447883, 13.478614355136344 ], [ 120.969483771576336, 13.478580102784715 ], [ 120.969408416402757, 13.478515512635925 ], [ 120.969364377664945, 13.478430371076158 ], [ 120.969313488456805, 13.478378503229404 ], [ 120.969271406996228, 13.478368716843224 ], [ 120.969199966377118, 13.47839514008591 ], [ 120.969134397589713, 13.478436242907867 ], [ 120.969096230683618, 13.478464623427788 ], [ 120.969043384198244, 13.478536064046901 ], [ 120.968957263999854, 13.478568359121295 ], [ 120.968907353430311, 13.47858597461642 ], [ 120.968865271969747, 13.478600654195692 ], [ 120.96880851092989, 13.478607504666016 ], [ 120.968749792612812, 13.478592825086746 ], [ 120.968715540261186, 13.478598696918455 ], [ 120.96868618110264, 13.478660351151388 ], [ 120.968674437439233, 13.478730813131884 ], [ 120.968651928751015, 13.478771915953841 ], [ 120.968585381324999, 13.478829655632303 ], [ 120.968536449394094, 13.478853142959135 ], [ 120.968489474740437, 13.478827698355067 ], [ 120.968444457364001, 13.478775830508313 ], [ 120.968392589517251, 13.478743535433919 ], [ 120.968367144913188, 13.478766044122132 ], [ 120.968343657586345, 13.478854121597752 ], [ 120.968324084813986, 13.478902074890035 ], [ 120.968286896546502, 13.478937305880283 ], [ 120.968244815085924, 13.478963729122968 ], [ 120.968276131521705, 13.47899700283598 ], [ 120.968317234343658, 13.479032233826228 ], [ 120.968334849838783, 13.479040062935173 ], [ 120.968350508056659, 13.479073336648185 ], [ 120.968384760408298, 13.479105631722579 ], [ 120.968404333180658, 13.479157499569332 ], [ 120.968406290457892, 13.479218175163648 ], [ 120.968382803131064, 13.47924655568357 ], [ 120.968373995383502, 13.479291573059998 ], [ 120.968349529418049, 13.479339526352279 ], [ 120.968320170259531, 13.479341483629515 ], [ 120.968321148898141, 13.479374757342526 ], [ 120.968293747016844, 13.479437390214079 ], [ 120.968250686917656, 13.479482407590506 ], [ 120.968187075407485, 13.479507852194574 ], [ 120.96813814347658, 13.479540147268969 ], [ 120.968097040654627, 13.479590057838486 ], [ 120.968053980555425, 13.479659541180363 ], [ 120.968005048624534, 13.479692814893376 ], [ 120.967977646743222, 13.479741746824276 ], [ 120.967966881718425, 13.479806336973063 ], [ 120.967949266223286, 13.479854290265346 ], [ 120.967887611990349, 13.479909094027954 ], [ 120.967853359638724, 13.479957047320235 ], [ 120.967842594613927, 13.480016744275934 ], [ 120.967840637336693, 13.480109714944643 ], [ 120.967861188747662, 13.480180176925138 ], [ 120.967900334292395, 13.480210514722298 ], [ 120.967940458475738, 13.480223237024331 ], [ 120.968005048624519, 13.480242809796692 ], [ 120.968039300976145, 13.480259446653198 ], [ 120.968076489243629, 13.480306421306862 ], [ 120.96810486976355, 13.480357310514998 ], [ 120.9681401007538, 13.480398413336953 ], [ 120.968207626818426, 13.480465939401595 ], [ 120.968254601472083, 13.480495298560136 ], [ 120.968302554764364, 13.480530529550384 ], [ 120.968315277066409, 13.480557931431687 ], [ 120.968323106175347, 13.480591205144698 ], [ 120.968313319789161, 13.480692004922352 ], [ 120.968288853823722, 13.480779103759353 ], [ 120.968248729640379, 13.480857394848794 ], [ 120.968207626818426, 13.480934707299616 ], [ 120.968186096768818, 13.48117055920655 ], [ 120.968174353105411, 13.481328120024047 ], [ 120.968212520011505, 13.481383902425272 ], [ 120.968254601472083, 13.481509168168378 ], [ 120.968256558749317, 13.481708810446449 ], [ 120.968268302412739, 13.481767528763529 ], [ 120.968301576125754, 13.481816460694429 ], [ 120.968361273081442, 13.48185952079362 ], [ 120.968445436002597, 13.481880072204598 ], [ 120.968525684369268, 13.481867349902563 ], [ 120.968653886028221, 13.481749913268404 ], [ 120.96872434800872, 13.481725447302955 ], [ 120.968801660459548, 13.481713703639537 ], [ 120.968847656474594, 13.481691194951322 ], [ 120.968891695212392, 13.481656942599692 ], [ 120.968969007663219, 13.481626604802534 ], [ 120.969039469643718, 13.481611925223264 ], [ 120.969112867540062, 13.481580608787489 ], [ 120.969154949000639, 13.481550270990331 ] ] ] ] } },
{ "type": "Feature", "properties": { "id": 2 }, "geometry": { "type": "MultiPolygon", "coordinates": [ [ [ [ 120.945386752885355, 13.503994369055455 ], [ 120.94550810407398, 13.503935650738375 ], [ 120.945557036004885, 13.503765367618843 ], [ 120.945510061351214, 13.503634230044032 ], [ 120.94550810407398, 13.503571597172479 ], [ 120.945423941152839, 13.503487434251332 ], [ 120.945237999815419, 13.503415014993601 ], [ 120.944995297438155, 13.503403271330185 ], [ 120.944936579121077, 13.503452203261084 ], [ 120.944846544368218, 13.503526579796052 ], [ 120.944736936843, 13.503546152568413 ], [ 120.944621457486079, 13.503510921578165 ], [ 120.944560781891767, 13.503510921578165 ], [ 120.944372883277097, 13.503565725340772 ], [ 120.944271104860817, 13.503644016430211 ], [ 120.94417715555349, 13.50387888969853 ], [ 120.944249574811224, 13.504021770936758 ], [ 120.944280891247004, 13.504088318362783 ], [ 120.944374840554332, 13.504223370492065 ], [ 120.94441398609905, 13.504307533413213 ], [ 120.944504020851909, 13.504395610888833 ], [ 120.944601884713705, 13.504370166284765 ], [ 120.944834800704797, 13.504291875195324 ], [ 120.945044229369046, 13.504233156878245 ], [ 120.94516949511214, 13.504215541383122 ], [ 120.945283017191841, 13.504211626828649 ], [ 120.945292803578013, 13.504301661581504 ], [ 120.945277145360137, 13.504419098215664 ], [ 120.945185153330044, 13.504646142375039 ], [ 120.94514796506256, 13.504732262573423 ], [ 120.945187110607279, 13.504824254603516 ], [ 120.945312376350387, 13.504722476187245 ], [ 120.945355436449574, 13.504605039553086 ], [ 120.945421983875605, 13.504438670988026 ], [ 120.945427855707308, 13.504381909948183 ], [ 120.945423941152825, 13.504323191631102 ], [ 120.945392624717044, 13.504170524006694 ], [ 120.945316290904842, 13.504064831035951 ], [ 120.945222341597514, 13.504010027273344 ], [ 120.944989425606437, 13.50396305261968 ], [ 120.944848501645438, 13.503935650738375 ], [ 120.944821099764141, 13.503849530539993 ], [ 120.944901348130813, 13.503788854945677 ], [ 120.945042272091811, 13.503761453064373 ], [ 120.94518515333003, 13.503788854945677 ], [ 120.945316290904842, 13.503908248857073 ], [ 120.945353479172326, 13.503976753560332 ], [ 120.945351521895091, 13.503992411778219 ], [ 120.945386752885355, 13.503994369055455 ] ] ] ] } },
{ "type": "Feature", "properties": { "id": 3 }, "geometry": { "type": "MultiPolygon", "coordinates": [ [ [ [ 120.94633211779032, 13.503407185884658 ], [ 120.946261655809835, 13.503409143161894 ], [ 120.94622838209682, 13.503399356775715 ], [ 120.946152048284617, 13.503407185884658 ], [ 120.946120731848836, 13.503465904201738 ], [ 120.946128560957789, 13.503573554449718 ], [ 120.946204894769991, 13.503659674648102 ], [ 120.946351690562679, 13.503759495787136 ], [ 120.946406494325288, 13.503818214104216 ], [ 120.946400622493584, 13.50397283900586 ], [ 120.946341904176506, 13.50402177093676 ], [ 120.946210766601695, 13.503951308956264 ], [ 120.946112902739898, 13.503921949797723 ], [ 120.945952406006541, 13.503974796283096 ], [ 120.945856499421978, 13.504139207570919 ], [ 120.945793866550432, 13.504370166284765 ], [ 120.945811482045556, 13.504417140938429 ], [ 120.945915217739056, 13.504434756433554 ], [ 120.946020910709805, 13.504332978017283 ], [ 120.946071799917931, 13.504323191631102 ], [ 120.946283185859428, 13.504309490690451 ], [ 120.946461298087897, 13.50428013153191 ], [ 120.946694214078988, 13.504262516036787 ], [ 120.946827308931034, 13.504278174254674 ], [ 120.946985848387143, 13.504233156878247 ], [ 120.946987805664378, 13.504115720244087 ], [ 120.946729445069238, 13.503704692024529 ], [ 120.94667268402938, 13.503626400935088 ], [ 120.946563076504177, 13.503516793409874 ], [ 120.94633211779032, 13.503407185884658 ] ] ] ] } },
{ "type": "Feature", "properties": { "id": 4 }, "geometry": { "type": "MultiPolygon", "coordinates": [ [ [ [ 120.945684259025214, 13.504595253166906 ], [ 120.945637284371543, 13.504626569602681 ], [ 120.945629455262605, 13.504669629701874 ], [ 120.945625540708136, 13.504716604355538 ], [ 120.945629455262605, 13.504841870098641 ], [ 120.945672515361792, 13.5049593067328 ], [ 120.945692088134152, 13.505061085149071 ], [ 120.945688173579683, 13.505182436337703 ], [ 120.945739062787823, 13.505264641981615 ], [ 120.945876072194338, 13.505256812872672 ], [ 120.945977850610603, 13.505166778119815 ], [ 120.946063970808993, 13.505131547129567 ], [ 120.946474999028553, 13.505072828812487 ], [ 120.946768590613942, 13.505092401584848 ], [ 120.947007378436737, 13.505053256040128 ], [ 120.947199191605861, 13.50485752831653 ], [ 120.947214849823752, 13.504638313266097 ], [ 120.947105242298534, 13.504430841879083 ], [ 120.946960403783081, 13.504376038116474 ], [ 120.946682470415567, 13.504450414651442 ], [ 120.946365391503335, 13.504462158314858 ], [ 120.945997423382963, 13.504528705740881 ], [ 120.945684259025214, 13.504595253166906 ] ] ] ] } },
{ "type": "Feature", "properties": { "id": 5 }, "geometry": { "type": "MultiPolygon", "coordinates": [ [ [ [ 120.951334918405507, 13.502589044000013 ], [ 120.951319260187617, 13.502499009247158 ], [ 120.951254670038821, 13.502452034593494 ], [ 120.951129404295727, 13.502438333652842 ], [ 120.95105111320629, 13.502440290930078 ], [ 120.951027625879448, 13.502534240237406 ], [ 120.950945420235541, 13.502637975930913 ], [ 120.950837769987558, 13.502655591426038 ], [ 120.950743820680231, 13.502606659495138 ], [ 120.950702717858277, 13.502514667465046 ], [ 120.950704675135512, 13.502373743504055 ], [ 120.950792752611136, 13.502266093256075 ], [ 120.950853428205448, 13.502201503107287 ], [ 120.950853428205448, 13.502170186671512 ], [ 120.950771222561542, 13.502174101225984 ], [ 120.950718376076168, 13.502132998404027 ], [ 120.950690974194856, 13.502044920928409 ], [ 120.950677273254215, 13.502023390878811 ], [ 120.950597024887529, 13.502062536423532 ], [ 120.950571580283466, 13.502162357562568 ], [ 120.950563751174528, 13.502238691374771 ], [ 120.950516776520857, 13.502260221424365 ], [ 120.95044044270864, 13.502215204047937 ], [ 120.950340621569609, 13.502256306869892 ], [ 120.950258415925703, 13.502316982464208 ], [ 120.950201654885859, 13.502332640682097 ], [ 120.950119449241939, 13.502295452414613 ], [ 120.949994183498845, 13.502295452414613 ], [ 120.949953080676877, 13.502268050533308 ], [ 120.94984347315166, 13.502279794196724 ], [ 120.949729951071973, 13.502313067909736 ], [ 120.949579240724802, 13.502305238800792 ], [ 120.949457889536177, 13.502264135978837 ], [ 120.949340452902021, 13.502260221424365 ], [ 120.949223016267851, 13.502328726127624 ], [ 120.949136896069476, 13.502311110632501 ], [ 120.949078177752398, 13.502264135978837 ], [ 120.948995972108477, 13.502238691374769 ], [ 120.948907894632853, 13.502354170731692 ], [ 120.948827646266182, 13.502457906425201 ], [ 120.948790457998697, 13.50253619751464 ], [ 120.948843304484072, 13.502655591426036 ], [ 120.948929424682461, 13.502735839792711 ], [ 120.948931381959696, 13.50285914825858 ], [ 120.948984228445056, 13.502902208357771 ], [ 120.949068391366211, 13.502913952021187 ], [ 120.94917408433696, 13.503009858605751 ], [ 120.949236717208507, 13.503084235140719 ], [ 120.949273905475991, 13.503103807913078 ], [ 120.949348282010959, 13.503139038903324 ], [ 120.949481376863005, 13.50318992811146 ], [ 120.949518565130489, 13.503264304646429 ], [ 120.949555753397973, 13.503276048309845 ], [ 120.949583155279271, 13.503227116378945 ], [ 120.949579240724802, 13.503170355339101 ], [ 120.949522479684958, 13.50308814969519 ], [ 120.94944810314999, 13.503007901328514 ], [ 120.949383513001209, 13.502976584892737 ], [ 120.94930913646624, 13.502915909298421 ], [ 120.949383513001209, 13.502843490040689 ], [ 120.949573368893098, 13.502731925238239 ], [ 120.949778883002878, 13.502682993307339 ], [ 120.94985913136955, 13.502661463257743 ], [ 120.95001375627119, 13.502757369842307 ], [ 120.950158594786657, 13.50288263558541 ], [ 120.950307347856594, 13.50293156751631 ], [ 120.950411083550108, 13.502925695684601 ], [ 120.950557879342796, 13.502896336526064 ], [ 120.950673358699731, 13.502788686278084 ], [ 120.950908231968043, 13.502786729000848 ], [ 120.95103741226562, 13.502661463257743 ], [ 120.951213567216854, 13.502610574049609 ], [ 120.951334918405507, 13.502589044000013 ] ] ] ] } },
{ "type": "Feature", "properties": { "id": 6 }, "geometry": { "type": "MultiPolygon", "coordinates": [ [ [ [ 120.960085904927581, 13.506309828025628 ], [ 120.960119178640596, 13.506276554312615 ], [ 120.960183768789378, 13.50623545149066 ], [ 120.960244444383704, 13.506164989510165 ], [ 120.960332521859314, 13.506133673074388 ], [ 120.960373624681282, 13.50604951015324 ], [ 120.960459744879657, 13.505908586192248 ], [ 120.960585010622765, 13.50577157678573 ], [ 120.96063394255367, 13.505652182874334 ], [ 120.960712233643108, 13.50545841242797 ], [ 120.960806182950435, 13.505211795496235 ], [ 120.960819883891077, 13.505035640544996 ], [ 120.960790524732545, 13.504875143811645 ], [ 120.960739635524405, 13.504773365395373 ], [ 120.960610455226828, 13.504642227820561 ], [ 120.9605165059195, 13.504644185097797 ], [ 120.960426471166642, 13.504655928761213 ], [ 120.960150495076377, 13.504728348018945 ], [ 120.960019357501565, 13.504785109058789 ], [ 120.959874518986098, 13.504924075742545 ], [ 120.959892134481223, 13.504906460247421 ], [ 120.959968468293425, 13.504882972920589 ], [ 120.960023272056034, 13.504920161188073 ], [ 120.960062417600753, 13.504971050396209 ], [ 120.960138751412956, 13.505053256040121 ], [ 120.960238572551987, 13.505104145248255 ], [ 120.960287504482892, 13.505155034456392 ], [ 120.960307077255251, 13.505282257476731 ], [ 120.960365795572329, 13.50549755797269 ], [ 120.96036188101786, 13.505644353765391 ], [ 120.960348180077204, 13.505701114805236 ], [ 120.960312949086955, 13.505806807775979 ], [ 120.960222914334096, 13.505998620945105 ], [ 120.960132879581252, 13.506153245846749 ], [ 120.960054588491801, 13.506305913471156 ], [ 120.960085904927581, 13.506309828025628 ] ] ] ] } },
{ "type": "Feature", "properties": { "id": 7 }, "geometry": { "type": "MultiPolygon", "coordinates": [ [ [ [ 120.963192103901108, 13.50657210317525 ], [ 120.963229292168592, 13.506576017729721 ], [ 120.963477866377559, 13.506534914907766 ], [ 120.963667722269449, 13.506701283472825 ], [ 120.963879108210946, 13.506914626691549 ], [ 120.963904552815009, 13.507039892434653 ], [ 120.964057220439415, 13.507362843178592 ], [ 120.96417857162804, 13.507531169020886 ], [ 120.96423924722238, 13.507703409417653 ], [ 120.96422358900449, 13.507818888774576 ], [ 120.964241204499615, 13.507910880804667 ], [ 120.9642079307866, 13.508521551302298 ], [ 120.964252948163036, 13.508458918430746 ], [ 120.964323410143535, 13.508306250806339 ], [ 120.964346897470364, 13.508085078478672 ], [ 120.964307751925645, 13.507619246496505 ], [ 120.964227503558973, 13.507218004663127 ], [ 120.964113981479258, 13.506879395701301 ], [ 120.963984801181681, 13.506593633224846 ], [ 120.963773415240198, 13.506395948224011 ], [ 120.963530712862934, 13.506319614411806 ], [ 120.963356515188934, 13.506382247283359 ], [ 120.963192103901108, 13.50657210317525 ] ] ] ] } },
{ "type": "Feature", "properties": { "id": 8 }, "geometry": { "type": "MultiPolygon", "coordinates": [ [ [ [ 120.963149043801891, 13.514338579247667 ], [ 120.963111855534379, 13.514273989098879 ], [ 120.963031607167707, 13.514201569841147 ], [ 120.962894597761192, 13.514109577811054 ], [ 120.962575561571725, 13.513919721919164 ], [ 120.962370047461945, 13.513759225185812 ], [ 120.962381791125352, 13.513665275878484 ], [ 120.962358303798524, 13.513514565531313 ], [ 120.962213465283071, 13.513369727015849 ], [ 120.962121473252978, 13.513179871123958 ], [ 120.962086242262728, 13.513005673449953 ], [ 120.96211560142126, 13.51289998047921 ], [ 120.962191935233463, 13.512780586567814 ], [ 120.962215422560291, 13.51265532082471 ], [ 120.962264354491211, 13.512475251318998 ], [ 120.962325030085523, 13.512428276665334 ], [ 120.962409193006664, 13.512393045675086 ], [ 120.962477697709929, 13.512408703892975 ], [ 120.962555988799366, 13.512424362110863 ], [ 120.962622536225396, 13.512408703892975 ], [ 120.962722357364427, 13.512371515625491 ], [ 120.962784990235974, 13.512385216566143 ], [ 120.962886768652254, 13.512428276665334 ], [ 120.963010077118113, 13.512445892160459 ], [ 120.963047265385597, 13.512428276665334 ], [ 120.963100111870972, 13.512416533001918 ], [ 120.963201890287252, 13.512471336764527 ], [ 120.963342814248236, 13.512483080427943 ], [ 120.963309540535221, 13.512453721269402 ], [ 120.963152958356346, 13.512393045675086 ], [ 120.963076624544144, 13.512267779931983 ], [ 120.963023778058769, 13.512028992109192 ], [ 120.962935700583145, 13.511931128247394 ], [ 120.962873067711598, 13.511929170970157 ], [ 120.9627321437506, 13.511858708989662 ], [ 120.962632322611569, 13.511733443246559 ], [ 120.962587305235147, 13.511637536661995 ], [ 120.962493355927819, 13.511570989235972 ], [ 120.962323072808289, 13.511569031958736 ], [ 120.962211508005836, 13.511680596761186 ], [ 120.962154746965965, 13.511784332454697 ], [ 120.962121473252949, 13.511858708989665 ], [ 120.962066669490355, 13.511946786465286 ], [ 120.961994250232621, 13.512109240475873 ], [ 120.96196684835131, 13.5122031897832 ], [ 120.961917916420418, 13.51235977196208 ], [ 120.961880728152934, 13.512514396863722 ], [ 120.961839625330981, 13.512645534438533 ], [ 120.961835710776512, 13.512753184686513 ], [ 120.961868984489527, 13.512870621320673 ], [ 120.961888557261886, 13.513015459836135 ], [ 120.961908130034246, 13.513179871123958 ], [ 120.96197663473751, 13.513275777708524 ], [ 120.961974677460276, 13.513356026075199 ], [ 120.962013823004995, 13.513457804491471 ], [ 120.962094071371666, 13.51348324909554 ], [ 120.962109729589557, 13.513549796521563 ], [ 120.962189977956243, 13.513667233155722 ], [ 120.962280012709087, 13.513765097017522 ], [ 120.962375919293649, 13.513872747265502 ], [ 120.962485526818867, 13.513960824741121 ], [ 120.962585347957912, 13.514001927563077 ], [ 120.962602963453037, 13.514054774048448 ], [ 120.962655809938411, 13.514101748702112 ], [ 120.96274584469127, 13.514123278751708 ], [ 120.962845665830315, 13.51413697969236 ], [ 120.962923956919752, 13.514176125237078 ], [ 120.96300224800919, 13.514260288158226 ], [ 120.963074667266923, 13.514324878307015 ], [ 120.963149043801891, 13.514338579247667 ] ] ] ] } }
]
}
