{
"type": "FeatureCollection",
"name": "puertogalera_settlements",
"crs": { "type": "name", "properties": { "name": "urn:ogc:def:crs:OGC:1.3:CRS84" } },
"features": [
{ "type": "Feature", "properties": { "id": 1, "Name": "Coastal Settlement" }, "geometry": { "type": "MultiPolygon", "coordinates": [ [ [ [ 120.944629286594946, 13.503420886825301 ], [ 120.944864159863272, 13.503358253953751 ], [ 120.945286931746239, 13.503342595735862 ], [ 120.94606984264064, 13.503264304646423 ], [ 120.946633538484605, 13.503405228607415 ], [ 120.947698297300988, 13.503389570389526 ], [ 120.947792246608316, 13.504094190194483 ], [ 120.947901854133534, 13.505064999703535 ], [ 120.948747397899481, 13.504407354552242 ], [ 120.949389384832884, 13.503561810786293 ], [ 120.948982271167793, 13.503232988210646 ], [ 120.94830896779861, 13.502872849199225 ], [ 120.948371600670171, 13.502512710187801 ], [ 120.948810030771043, 13.5019959889975 ], [ 120.949608599883334, 13.501808090382845 ], [ 120.950720333353374, 13.501604533550303 ], [ 120.951111788800574, 13.500884255527456 ], [ 120.951456269594104, 13.500743331566465 ], [ 120.952192205834834, 13.501134787013664 ], [ 120.952896825639797, 13.501228736320991 ], [ 120.953225648215437, 13.501573217114526 ], [ 120.952881167421907, 13.501808090382845 ], [ 120.951769433951867, 13.501964672561725 ], [ 120.951534560683541, 13.502136912958491 ], [ 120.951550218901431, 13.502340469791035 ], [ 120.951738117516086, 13.502575343059354 ], [ 120.95242707910316, 13.502559684841467 ], [ 120.953256964651217, 13.502591001277242 ], [ 120.953961584456167, 13.502559684841467 ], [ 120.95466620426113, 13.50252836840569 ], [ 120.955683988423843, 13.503483519696855 ], [ 120.956576506843462, 13.503921949797716 ], [ 120.957093228033756, 13.503092064249657 ], [ 120.957171519123207, 13.502637975930906 ], [ 120.956795721893883, 13.502277836919484 ], [ 120.956059785653153, 13.501197419885216 ], [ 120.956232026049918, 13.500477141862371 ], [ 120.956466899318229, 13.499662914532198 ], [ 120.95610676030681, 13.499114876906122 ], [ 120.955605697334391, 13.498582497497932 ], [ 120.955026343272536, 13.497502080463663 ], [ 120.95499502683677, 13.496406005211508 ], [ 120.955276874758752, 13.495137689562585 ], [ 120.954681862479006, 13.495106373126809 ], [ 120.953883293366729, 13.495544803227672 ], [ 120.953053407818658, 13.495137689562585 ], [ 120.951957332566508, 13.495043740255257 ], [ 120.952145231181163, 13.495607436099224 ], [ 120.952325300686852, 13.495912771348042 ], [ 120.951730288407106, 13.496022378873256 ], [ 120.951315345633077, 13.49644515075623 ], [ 120.95126837097942, 13.496695682242436 ], [ 120.951088301473703, 13.497094966798578 ], [ 120.951284029197296, 13.49753339689944 ], [ 120.951753775733934, 13.498042288980798 ], [ 120.952106085636416, 13.498590326606877 ], [ 120.95233312979579, 13.498950465618298 ], [ 120.951980819893308, 13.499255800867115 ], [ 120.951761604842886, 13.499435870372825 ], [ 120.951432782267233, 13.499396724828106 ], [ 120.951143105236312, 13.499568965224872 ], [ 120.951056985037923, 13.500007395325735 ], [ 120.950884744641158, 13.500124831959894 ], [ 120.950532434738676, 13.499913446018407 ], [ 120.950281903252474, 13.499655085423257 ], [ 120.949984397112601, 13.499568965224872 ], [ 120.949459846813355, 13.499639427205368 ], [ 120.94892746740517, 13.499772522057413 ], [ 120.948606473938469, 13.499655085423253 ], [ 120.948074094530284, 13.499662914532196 ], [ 120.947847050370896, 13.500030882652563 ], [ 120.948152385619721, 13.500163977504611 ], [ 120.948183702055488, 13.500312730574546 ], [ 120.948074094530284, 13.500743331566465 ], [ 120.948442062650642, 13.501103470577888 ], [ 120.947854879479848, 13.50130702741043 ], [ 120.947447765814758, 13.500978204834784 ], [ 120.9470797976944, 13.500704186021744 ], [ 120.946672684029309, 13.500884255527456 ], [ 120.946555247395153, 13.501330514737264 ], [ 120.946484785414654, 13.50165933731291 ], [ 120.946523930959373, 13.502003818106445 ], [ 120.946492614523592, 13.502363957117868 ], [ 120.946234253928438, 13.502363957117868 ], [ 120.945889773134908, 13.502379615335755 ], [ 120.945592266995035, 13.50234829889998 ], [ 120.945654899866597, 13.502003818106443 ], [ 120.945733190956034, 13.501674995530795 ], [ 120.945842798481252, 13.501220907212046 ], [ 120.946007209769064, 13.500712015130688 ], [ 120.945936747788579, 13.500351876119264 ], [ 120.94550614679666, 13.500383192555041 ], [ 120.94513034956735, 13.500649382259136 ], [ 120.944973767388461, 13.500383192555041 ], [ 120.94511469134946, 13.500023053543618 ], [ 120.94502857115107, 13.499702060076915 ], [ 120.944848501645367, 13.499357579283382 ], [ 120.944425729762386, 13.499099218688229 ], [ 120.943807230155812, 13.499271459084998 ], [ 120.943204388767128, 13.499725547403747 ], [ 120.943157414113458, 13.500226610376162 ], [ 120.94355669866961, 13.500367534337153 ], [ 120.943705451739547, 13.500547603842865 ], [ 120.943533211342753, 13.500852939091679 ], [ 120.943353141837051, 13.501189590776271 ], [ 120.94293036995407, 13.501393147608812 ], [ 120.942672009358915, 13.501440122262476 ], [ 120.942531085397931, 13.501056495924223 ], [ 120.942351015892214, 13.500884255527454 ], [ 120.941943902227138, 13.500939059290063 ], [ 120.941583763215704, 13.501205248994157 ], [ 120.941536788562047, 13.50148709691614 ], [ 120.941677712523031, 13.501792432164956 ], [ 120.941622908760436, 13.502387444444697 ], [ 120.942147459059683, 13.502207374938985 ], [ 120.942648522032087, 13.502230862265817 ], [ 120.942609376487368, 13.502653634148793 ], [ 120.942351015892214, 13.502849361872391 ], [ 120.941857782028748, 13.502888507417111 ], [ 120.941810807375091, 13.502958969397607 ], [ 120.942037851534465, 13.503092064249655 ], [ 120.942264895693839, 13.503561810786293 ], [ 120.944629286594946, 13.503420886825301 ] ] ], [ [ [ 120.959723808638941, 13.503452203261078 ], [ 120.960459744879671, 13.503123380685432 ], [ 120.961007782505746, 13.502998114942327 ], [ 120.961133048248854, 13.503342595735862 ], [ 120.961884642707474, 13.503154697121207 ], [ 120.96246399676933, 13.503608785439958 ], [ 120.96247965498722, 13.504266430591251 ], [ 120.96210385775791, 13.50503368326776 ], [ 120.961806351618037, 13.505753961290605 ], [ 120.960929491416309, 13.506270682480906 ], [ 120.960741592801654, 13.506740429017544 ], [ 120.960960807852089, 13.50700661872164 ], [ 120.961696744092819, 13.506865694760648 ], [ 120.961759376964366, 13.506834378324873 ], [ 120.961962933796912, 13.506348973570347 ], [ 120.962291756372565, 13.505769619508493 ], [ 120.962698870037656, 13.505096316139312 ], [ 120.963137300138513, 13.504626569602673 ], [ 120.963513097367823, 13.504438670988018 ], [ 120.96395152746868, 13.504297747027026 ], [ 120.964577856184206, 13.50412550663026 ], [ 120.965470374603811, 13.50434472168069 ], [ 120.965658273218466, 13.504783151781552 ], [ 120.966034070447805, 13.505018025049871 ], [ 120.966456842330771, 13.504955392178319 ], [ 120.966863955995862, 13.504595253166897 ], [ 120.967756474415467, 13.504360379898577 ], [ 120.96808529699112, 13.503921949797714 ], [ 120.968038322337449, 13.503060747813878 ], [ 120.967380677186156, 13.502951140288664 ], [ 120.966801323124301, 13.503608785439956 ], [ 120.965987095794134, 13.503624443657845 ], [ 120.965533007475386, 13.50343654504319 ], [ 120.964812729452547, 13.503514836132629 ], [ 120.964342982915895, 13.503373912171638 ], [ 120.964108109647583, 13.503232988210646 ], [ 120.963544413803618, 13.503045089595991 ], [ 120.962745844691327, 13.50296679850655 ], [ 120.961994250232706, 13.502982456724439 ], [ 120.96083554210901, 13.502622317713016 ], [ 120.960365795572372, 13.502324811573146 ], [ 120.959708150421079, 13.502262178701594 ], [ 120.959394986063316, 13.502465735534138 ], [ 120.959128796359224, 13.502716267020345 ], [ 120.95895655596243, 13.503405228607415 ], [ 120.959723808638941, 13.503452203261078 ] ] ] ] } }
]
}
