{
"type": "FeatureCollection",
"name": "puertogalera_vuln",
"crs": { "type": "name", "properties": { "name": "urn:ogc:def:crs:OGC:1.3:CRS84" } },
"features": [
{ "type": "Feature", "properties": { "Type of Vu": "Senior", "Type of Di": "Visual", "_id": "699778508" }, "geometry": { "type": "Point", "coordinates": [ 120.952797, 13.496155 ] } },
{ "type": "Feature", "properties": { "Type of Vu": "Senior  Children", "Type of Di": "Psychosocial", "_id": "699902498" }, "geometry": { "type": "Point", "coordinates": [ 120.951603, 13.497673 ] } },
{ "type": "Feature", "properties": { "Type of Vu": "Senior  Children", "Type of Di": "Psychosocial", "_id": "700082566" }, "geometry": { "type": "Point", "coordinates": [ 120.955694, 13.501141 ] } },
{ "type": "Feature", "properties": { "Type of Vu": "Not Applicable", "Type of Di": "Visual", "_id": "699764571" }, "geometry": { "type": "Point", "coordinates": [ 120.953927, 13.497764 ] } },
{ "type": "Feature", "properties": { "Type of Vu": "Not Applicable", "Type of Di": "Speech", "_id": "699896204" }, "geometry": { "type": "Point", "coordinates": [ 120.951689, 13.497613 ] } },
{ "type": "Feature", "properties": { "Type of Vu": "Senior  Children", "Type of Di": "Psychosocial", "_id": "699962574" }, "geometry": { "type": "Point", "coordinates": [ 120.951342, 13.499776 ] } },
{ "type": "Feature", "properties": { "Type of Vu": "Children", "Type of Di": "Psychosocial", "_id": "700034476" }, "geometry": { "type": "Point", "coordinates": [ 120.953813, 13.498735 ] } },
{ "type": "Feature", "properties": { "Type of Vu": "Breastfeeding  Malnourished Children", "Type of Di": "Physical", "_id": "699849824" }, "geometry": { "type": "Point", "coordinates": [ 120.946921, 13.494762 ] } },
{ "type": "Feature", "properties": { "Type of Vu": "Children", "Type of Di": "Physical", "_id": "700027340" }, "geometry": { "type": "Point", "coordinates": [ 120.953611, 13.498547 ] } },
{ "type": "Feature", "properties": { "Type of Vu": "Senior  Children", "Type of Di": "Physical", "_id": "699804110" }, "geometry": { "type": "Point", "coordinates": [ 120.94976, 13.49646 ] } },
{ "type": "Feature", "properties": { "Type of Vu": "Senior", "Type of Di": "Physical", "_id": "699919134" }, "geometry": { "type": "Point", "coordinates": [ 120.95138, 13.498394 ] } },
{ "type": "Feature", "properties": { "Type of Vu": "Children", "Type of Di": "Speech", "_id": "700012036" }, "geometry": { "type": "Point", "coordinates": [ 120.953423, 13.496966 ] } },
{ "type": "Feature", "properties": { "Type of Vu": "Senior  Children", "Type of Di": "Deaf", "_id": "700085449" }, "geometry": { "type": "Point", "coordinates": [ 120.955175, 13.50101 ] } },
{ "type": "Feature", "properties": { "Type of Vu": "Children", "Type of Di": "Physical", "_id": "699774487" }, "geometry": { "type": "Point", "coordinates": [ 120.952923, 13.496241 ] } },
{ "type": "Feature", "properties": { "Type of Vu": "Senior  Children", "Type of Di": "Psychosocial", "_id": "699998952" }, "geometry": { "type": "Point", "coordinates": [ 120.952451, 13.497118 ] } },
{ "type": "Feature", "properties": { "Type of Vu": "Senior  Children", "Type of Di": "Psychosocial", "_id": "700082372" }, "geometry": { "type": "Point", "coordinates": [ 120.95573, 13.501132 ] } },
{ "type": "Feature", "properties": { "Type of Vu": "Children", "Type of Di": "Physical", "_id": "699762882" }, "geometry": { "type": "Point", "coordinates": [ 120.953946, 13.497793 ] } },
{ "type": "Feature", "properties": { "Type of Vu": "Breastfeeding  Senior  Children", "Type of Di": "Speech", "_id": "699893282" }, "geometry": { "type": "Point", "coordinates": [ 120.951593, 13.49608 ] } },
{ "type": "Feature", "properties": { "Type of Vu": "Children", "Type of Di": "Visual", "_id": "699957063" }, "geometry": { "type": "Point", "coordinates": [ 120.952316, 13.499179 ] } },
{ "type": "Feature", "properties": { "Type of Vu": "Senior", "Type of Di": "Psychosocial", "_id": "700029894" }, "geometry": { "type": "Point", "coordinates": [ 120.953767, 13.498681 ] } },
{ "type": "Feature", "properties": { "Type of Vu": "Children", "Type of Di": "Psychosocial", "_id": "700020176" }, "geometry": { "type": "Point", "coordinates": [ 120.953299, 13.497339 ] } },
{ "type": "Feature", "properties": { "Type of Vu": "Not Applicable", "Type of Di": "Psychosocial", "_id": "699790180" }, "geometry": { "type": "Point", "coordinates": [ 120.953357, 13.495489 ] } },
{ "type": "Feature", "properties": { "Type of Vu": "Breastfeeding  Pregnant  Children", "Type of Di": "Visual", "_id": "699913024" }, "geometry": { "type": "Point", "coordinates": [ 120.951865, 13.497404 ] } },
{ "type": "Feature", "properties": { "Type of Vu": "Not Applicable", "Type of Di": "Physical", "_id": "700007077" }, "geometry": { "type": "Point", "coordinates": [ 120.952262, 13.497421 ] } },
{ "type": "Feature", "properties": { "Type of Vu": "Children", "Type of Di": "Physical", "_id": "699767895" }, "geometry": { "type": "Point", "coordinates": [ 120.953478, 13.497632 ] } },
{ "type": "Feature", "properties": { "Type of Vu": null, "Type of Di": "Physical", "_id": "699992083" }, "geometry": { "type": "Point", "coordinates": [ 120.952373, 13.497884 ] } },
{ "type": "Feature", "properties": { "Type of Vu": "Senior", "Type of Di": "Physical", "_id": "700078612" }, "geometry": { "type": "Point", "coordinates": [ 120.955052, 13.500467 ] } },
{ "type": "Feature", "properties": { "Type of Vu": "Breastfeeding  Senior", "Type of Di": "Rare Disability", "_id": "699735724" }, "geometry": { "type": "Point", "coordinates": [ 120.953759, 13.498297 ] } },
{ "type": "Feature", "properties": { "Type of Vu": "Senior", "Type of Di": "Visual", "_id": "699891562" }, "geometry": { "type": "Point", "coordinates": [ 120.952232, 13.496411 ] } },
{ "type": "Feature", "properties": { "Type of Vu": "Senior", "Type of Di": "Physical", "_id": "699954406" }, "geometry": { "type": "Point", "coordinates": [ 120.952761, 13.499293 ] } },
{ "type": "Feature", "properties": { "Type of Vu": "Senior", "Type of Di": "Physical", "_id": "699935152" }, "geometry": { "type": "Point", "coordinates": [ 120.952321, 13.498372 ] } },
{ "type": "Feature", "properties": { "Type of Vu": "Children", "Type of Di": "Speech", "_id": "700019566" }, "geometry": { "type": "Point", "coordinates": [ 120.953323, 13.497332 ] } },
{ "type": "Feature", "properties": { "Type of Vu": "Senior  Children", "Type of Di": "Physical", "_id": "699788702" }, "geometry": { "type": "Point", "coordinates": [ 120.953439, 13.495436 ] } },
{ "type": "Feature", "properties": { "Type of Vu": "Not Applicable", "Type of Di": "Physical", "_id": "700108923" }, "geometry": { "type": "Point", "coordinates": [ 120.955988, 13.499034 ] } },
{ "type": "Feature", "properties": { "Type of Vu": "Pregnant  Senior", "Type of Di": "Physical", "_id": "699911394" }, "geometry": { "type": "Point", "coordinates": [ 120.951972, 13.497804 ] } },
{ "type": "Feature", "properties": { "Type of Vu": null, "Type of Di": "Deaf  Speech", "_id": "700002391" }, "geometry": { "type": "Point", "coordinates": [ 120.952555, 13.495157 ] } },
{ "type": "Feature", "properties": { "Type of Vu": "Not Applicable", "Type of Di": "Visual", "_id": "699900300" }, "geometry": { "type": "Point", "coordinates": [ 120.951504, 13.497396 ] } },
{ "type": "Feature", "properties": { "Type of Vu": null, "Type of Di": "Physical  Deaf", "_id": "699985318" }, "geometry": { "type": "Point", "coordinates": [ 120.952797, 13.49933 ] } },
{ "type": "Feature", "properties": { "Type of Vu": "Not Applicable", "Type of Di": "Rare Disability", "_id": "699697955" }, "geometry": { "type": "Point", "coordinates": [ 120.953783, 13.498278 ] } },
{ "type": "Feature", "properties": { "Type of Vu": null, "Type of Di": "Visual", "_id": "700076475" }, "geometry": { "type": "Point", "coordinates": [ 120.954805, 13.500465 ] } },
{ "type": "Feature", "properties": { "Type of Vu": "Breastfeeding  Children", "Type of Di": "Physical", "_id": "699887248" }, "geometry": { "type": "Point", "coordinates": [ 120.951404, 13.497304 ] } },
{ "type": "Feature", "properties": { "Type of Vu": "Not Applicable", "Type of Di": "Physical", "_id": "699941160" }, "geometry": { "type": "Point", "coordinates": [ 120.952403, 13.498494 ] } },
{ "type": "Feature", "properties": { "Type of Vu": "Children", "Type of Di": "Visual", "_id": "699932137" }, "geometry": { "type": "Point", "coordinates": [ 120.952095, 13.49823 ] } },
{ "type": "Feature", "properties": { "Type of Vu": "Children", "Type of Di": "Visual", "_id": "700019187" }, "geometry": { "type": "Point", "coordinates": [ 120.953239, 13.497386 ] } },
{ "type": "Feature", "properties": { "Type of Vu": "Children", "Type of Di": "Visual", "_id": "700107029" }, "geometry": { "type": "Point", "coordinates": [ 120.95579, 13.499317 ] } },
{ "type": "Feature", "properties": { "Type of Vu": "Children", "Type of Di": "Physical", "_id": "699783835" }, "geometry": { "type": "Point", "coordinates": [ 120.953178, 13.495683 ] } },
{ "type": "Feature", "properties": { "Type of Vu": "Senior", "Type of Di": "Physical", "_id": "699906619" }, "geometry": { "type": "Point", "coordinates": [ 120.951606, 13.497676 ] } },
{ "type": "Feature", "properties": { "Type of Vu": "Senior  Children", "Type of Di": "Psychosocial", "_id": "700082758" }, "geometry": { "type": "Point", "coordinates": [ 120.955656, 13.501153 ] } },
{ "type": "Feature", "properties": { "Type of Vu": "Not Applicable", "Type of Di": "Visual", "_id": "699896590" }, "geometry": { "type": "Point", "coordinates": [ 120.951655, 13.497592 ] } },
{ "type": "Feature", "properties": { "Type of Vu": "Senior", "Type of Di": "Physical  Visual", "_id": "699979308" }, "geometry": { "type": "Point", "coordinates": [ 120.952346, 13.499644 ] } },
{ "type": "Feature", "properties": { "Type of Vu": "Children", "Type of Di": "Physical", "_id": "700037373" }, "geometry": { "type": "Point", "coordinates": [ 120.953831, 13.498366 ] } },
{ "type": "Feature", "properties": { "Type of Vu": "Children", "Type of Di": "Intellectual Disability", "_id": "699868344" }, "geometry": { "type": "Point", "coordinates": [ 120.947574, 13.49485 ] } },
{ "type": "Feature", "properties": { "Type of Vu": "Senior", "Type of Di": "Psychosocial", "_id": "699821243" }, "geometry": { "type": "Point", "coordinates": [ 120.946869, 13.494596 ] } },
{ "type": "Feature", "properties": { "Type of Vu": "Children", "Type of Di": "Physical", "_id": "699929593" }, "geometry": { "type": "Point", "coordinates": [ 120.952083, 13.498052 ] } },
{ "type": "Feature", "properties": { "Type of Vu": "Breastfeeding  Children", "Type of Di": "Physical", "_id": "700015264" }, "geometry": { "type": "Point", "coordinates": [ 120.953173, 13.497426 ] } },
{ "type": "Feature", "properties": { "Type of Vu": "Not Applicable", "Type of Di": "Physical", "_id": "700094515" }, "geometry": { "type": "Point", "coordinates": [ 120.956024, 13.499358 ] } }
]
}
