{
"type": "FeatureCollection",
"name": "puertogalera_marinezones",
"crs": { "type": "name", "properties": { "name": "urn:ogc:def:crs:OGC:1.3:CRS84" } },
"features": [
{ "type": "Feature", "properties": { "id": "SUZ_01", "Name": "Sustainable Use Zone_01", "Area_has": 203.0, "Mgt_Zones": "Sustainable Use Zone" }, "geometry": { "type": "MultiPolygon", "coordinates": [ [ [ [ 120.929171431710031, 13.510655613119102 ], [ 120.929020515176475, 13.511206458466544 ], [ 120.929035606829842, 13.511327191693381 ], [ 120.92885450698958, 13.51135737500009 ], [ 120.928394211562264, 13.511304554213348 ], [ 120.928069741015136, 13.511017812799611 ], [ 120.927375524960837, 13.510942354532839 ], [ 120.927005779453637, 13.510972537839548 ], [ 120.926583213159716, 13.511085725239706 ], [ 120.926221013479207, 13.511319645866703 ], [ 120.926190830172487, 13.511561112320377 ], [ 120.926190830172487, 13.511840307907438 ], [ 120.926107826079047, 13.512074228534432 ], [ 120.92587390545205, 13.512293057508074 ], [ 120.92564753065173, 13.512413790734911 ], [ 120.925368335064675, 13.51244397404162 ], [ 120.925036318690871, 13.512383607428202 ], [ 120.924779760583846, 13.51227796585472 ], [ 120.924591114916907, 13.512172324281238 ], [ 120.924477927516747, 13.512089320187787 ], [ 120.924236461063074, 13.512028953574369 ], [ 120.923881807209241, 13.511953495307596 ], [ 120.923579974142143, 13.511900674520856 ], [ 120.923579974142129, 13.511889355780836 ], [ 120.923474332568645, 13.511979905700963 ], [ 120.923342280601801, 13.512108184754478 ], [ 120.923266822335023, 13.512194961761267 ], [ 120.923146089108187, 13.512266647114702 ], [ 120.923055539188056, 13.512281738768056 ], [ 120.922889531001161, 13.512345878294813 ], [ 120.922765024860979, 13.512413790734909 ], [ 120.922485829273924, 13.512447746954956 ], [ 120.922285864866978, 13.512432655301602 ], [ 120.922085900460019, 13.512394926168216 ], [ 120.92187084439972, 13.512334559554796 ], [ 120.921735019519531, 13.512266647114702 ], [ 120.921659561252795, 13.51209309310113 ], [ 120.921025711811907, 13.512108184754485 ], [ 120.920527687251209, 13.51212327640784 ], [ 120.920678603784751, 13.511806351687394 ], [ 120.920995528505202, 13.511504518620301 ], [ 120.921070986771966, 13.51120268555321 ], [ 120.920542778904561, 13.510674477685798 ], [ 120.919908929463659, 13.510206636431805 ], [ 120.919652371356634, 13.509844436751296 ], [ 120.919607096396575, 13.509527512030848 ], [ 120.919727829623412, 13.509044579123502 ], [ 120.919848562850248, 13.508682379442991 ], [ 120.919863654503601, 13.508410729682609 ], [ 120.919916475290364, 13.508237175669032 ], [ 120.920044754343877, 13.508116442442196 ], [ 120.920225854184139, 13.507980617562003 ], [ 120.92039940819771, 13.507874975988521 ], [ 120.920437137331106, 13.507678784494912 ], [ 120.920391862371034, 13.507414680561206 ], [ 120.920391862371034, 13.507007205920631 ], [ 120.920263583317521, 13.506758193640282 ], [ 120.920120212610655, 13.506569547973349 ], [ 120.919969296077099, 13.506463906399867 ], [ 120.919682554663353, 13.506237531599547 ], [ 120.919305263329491, 13.506086615066001 ], [ 120.919041159395789, 13.506079069239325 ], [ 120.918814784595469, 13.506222439946193 ], [ 120.918475222394989, 13.506290352386289 ], [ 120.918279030901388, 13.506101706719356 ], [ 120.917886647914216, 13.50584514861233 ], [ 120.917690456420601, 13.505588590505303 ], [ 120.91763008980719, 13.505332032398275 ], [ 120.917305619260063, 13.505316940744921 ], [ 120.917132065246477, 13.505467857278466 ], [ 120.917139611073154, 13.505709323732139 ], [ 120.91704151532636, 13.505830056958976 ], [ 120.916860415486099, 13.505777236172236 ], [ 120.916634040685778, 13.505505586411852 ], [ 120.916626494859102, 13.505226390824792 ], [ 120.916498215805589, 13.505052836811215 ], [ 120.9163623909254, 13.504939649411055 ], [ 120.915977553764861, 13.505098111771279 ], [ 120.915871912191378, 13.505203753344761 ], [ 120.915411616764061, 13.505264119958179 ], [ 120.915102237870286, 13.505445219798434 ], [ 120.914747584016453, 13.50567914042543 ], [ 120.914453296776045, 13.506131890026069 ], [ 120.9145363008695, 13.50637335647974 ], [ 120.914589121656235, 13.506509181359931 ], [ 120.914921138030039, 13.506682735373507 ], [ 120.914921138030039, 13.506803468600346 ], [ 120.914921138030039, 13.50690156434715 ], [ 120.914860771416613, 13.506999660093955 ], [ 120.91487586306998, 13.507052480880697 ], [ 120.915343704323959, 13.507203397414242 ], [ 120.915562533297603, 13.507452409694594 ], [ 120.915622899911028, 13.507686330321588 ], [ 120.915630445737705, 13.50785233850849 ], [ 120.915524804164221, 13.508056075828776 ], [ 120.915419162590737, 13.508403183855933 ], [ 120.915238062750475, 13.508727654403057 ], [ 120.915155058657035, 13.50899175833676 ], [ 120.915238062750475, 13.509255862270466 ], [ 120.915426708417414, 13.509512420377495 ], [ 120.915668174871087, 13.509708611871105 ], [ 120.915864366364701, 13.510131178165034 ], [ 120.915939824631465, 13.510538652805607 ], [ 120.915837955971327, 13.510685796425811 ], [ 120.915754951877872, 13.510795210912631 ], [ 120.915702131091123, 13.51091594413947 ], [ 120.915758724791203, 13.511059314846337 ], [ 120.9157964539246, 13.511278143819979 ], [ 120.915785135184578, 13.511425287440186 ], [ 120.915739860224519, 13.511576203973732 ], [ 120.915668174871129, 13.511783714207359 ], [ 120.915479529204191, 13.51206290979442 ], [ 120.915373887630707, 13.512108184754483 ], [ 120.915185241963783, 13.512138368061192 ], [ 120.915019233776874, 13.512289284594738 ], [ 120.914800404803231, 13.512417563648253 ], [ 120.914581575829587, 13.512462838608316 ], [ 120.914325017722561, 13.51234210538148 ], [ 120.914128826228961, 13.512221372154643 ], [ 120.91390245142864, 13.512100638927807 ], [ 120.91378926402848, 13.511821443340747 ], [ 120.913721351588379, 13.511715801767263 ], [ 120.913517614268088, 13.511496972793623 ], [ 120.913419518521295, 13.511383785393463 ], [ 120.913193143720974, 13.511330964606721 ], [ 120.913057318840785, 13.51147433531359 ], [ 120.912906402307229, 13.511504518620299 ], [ 120.912740394120334, 13.511466789486914 ], [ 120.912649844200203, 13.511542247753686 ], [ 120.912476290186632, 13.511602614367105 ], [ 120.912340465306428, 13.511534701927008 ], [ 120.912265007039665, 13.511444152006881 ], [ 120.912257461212988, 13.511300781300012 ], [ 120.912310281999723, 13.511097043979726 ], [ 120.912332919479752, 13.510968764926211 ], [ 120.912219732079592, 13.510848031699375 ], [ 120.911819803265701, 13.510546198632289 ], [ 120.911487786891911, 13.510334915485323 ], [ 120.911133133038078, 13.510063265724941 ], [ 120.910801116664274, 13.509904803364718 ], [ 120.910627562650689, 13.509836890924623 ], [ 120.910408733677045, 13.509859528404654 ], [ 120.910001259036477, 13.509836890924623 ], [ 120.909722063449422, 13.509942532498105 ], [ 120.909359863768913, 13.510108540685005 ], [ 120.909035393221785, 13.510357552965356 ], [ 120.908914659994949, 13.510523561152256 ], [ 120.90889202251492, 13.51073484429922 ], [ 120.908684512281297, 13.510995175319591 ], [ 120.908510958267726, 13.511161183506491 ], [ 120.90830344803409, 13.51124796051328 ], [ 120.908080846147115, 13.511270597993313 ], [ 120.907790331820038, 13.511176275159846 ], [ 120.90763186945982, 13.511070633586364 ], [ 120.907522454972991, 13.510927262879497 ], [ 120.90706593245902, 13.510655613119113 ], [ 120.906711278605187, 13.510459421625503 ], [ 120.906356624751353, 13.50999158037151 ], [ 120.906047245857579, 13.509486009984132 ], [ 120.905571858776923, 13.508716335663049 ], [ 120.905088925869563, 13.508082486222156 ], [ 120.904726726189054, 13.507509003394681 ], [ 120.904364526508544, 13.507041162140688 ], [ 120.904002326828035, 13.506588412540051 ], [ 120.903489210613984, 13.50603002136593 ], [ 120.903127010933474, 13.505607455072001 ], [ 120.902523344799292, 13.505184888778073 ], [ 120.901964953625168, 13.504913239017689 ], [ 120.901497112371175, 13.50471704752408 ], [ 120.90107454607724, 13.504671772564016 ], [ 120.900651979783319, 13.504792505790853 ], [ 120.900229413489384, 13.504747230830789 ], [ 120.899791755542111, 13.504520856030471 ], [ 120.899323914288118, 13.503690815095968 ], [ 120.898810798074066, 13.503207882188622 ], [ 120.898026032099622, 13.502664582667856 ], [ 120.897361999352029, 13.50212128314709 ], [ 120.896483333333407, 13.50123333333333 ], [ 120.895291666666694, 13.5026 ], [ 120.901216666666699, 13.50849166666667 ], [ 120.907144444444398, 13.514369444444441 ], [ 120.919327777777795, 13.514975 ], [ 120.93145, 13.51558611111111 ], [ 120.933552777777805, 13.50711111111111 ], [ 120.933252777777795, 13.50681111111111 ], [ 120.932736949325701, 13.507199133386619 ], [ 120.932541635161698, 13.507081944888215 ], [ 120.931994755502487, 13.507394447550624 ], [ 120.931272093095657, 13.50765812167203 ], [ 120.930149036652637, 13.508185469914844 ], [ 120.929641219826223, 13.508644458200257 ], [ 120.929182231540807, 13.509035086528266 ], [ 120.928772071796402, 13.509523371938279 ], [ 120.928713477547191, 13.509787046059687 ], [ 120.928830666045599, 13.510119080138494 ], [ 120.92912363729161, 13.510519474174705 ], [ 120.929171431710031, 13.510655613119102 ] ] ] ] } },
{ "type": "Feature", "properties": { "id": "CZ_02", "Name": "Core Zone_02", "Area_has": 421.8, "Mgt_Zones": "Core Zone" }, "geometry": { "type": "MultiPolygon", "coordinates": [ [ [ [ 120.947483333333295, 13.52476666666667 ], [ 120.947855046624213, 13.524577882076814 ], [ 120.948476959804054, 13.523955968896976 ], [ 120.948862266424229, 13.523242052016814 ], [ 120.949616849091953, 13.522789302416175 ], [ 120.950182786092725, 13.52257801926921 ], [ 120.95139011836109, 13.522517652655791 ], [ 120.952235250948959, 13.5223818277756 ], [ 120.953020016923389, 13.521974353135027 ], [ 120.953608591404219, 13.521370687000843 ], [ 120.954272624151827, 13.521249953774005 ], [ 120.955012115166198, 13.52129522873407 ], [ 120.95597798098089, 13.521099037240459 ], [ 120.95679293026204, 13.520450096146211 ], [ 120.957411688049575, 13.519725696785191 ], [ 120.957728612770026, 13.518654189397015 ], [ 120.957728612770026, 13.517809056809156 ], [ 120.957909712610274, 13.517597773662198 ], [ 120.958377553864267, 13.517054474141432 ], [ 120.95888, 13.51662 ], [ 120.959335873852794, 13.51756759035554 ], [ 120.959758440146715, 13.518291989716561 ], [ 120.960150823133944, 13.518986205770872 ], [ 120.959999906600373, 13.519333313798027 ], [ 120.9597584401467, 13.5199067966255 ], [ 120.959516973693027, 13.520284087959366 ], [ 120.959154774012518, 13.52088775409355 ], [ 120.958777482678656, 13.521793253294826 ], [ 120.958475649611557, 13.522457286042428 ], [ 120.958007808357578, 13.523106227136676 ], [ 120.957811616863964, 13.52354388508396 ], [ 120.957690883637127, 13.524223009484917 ], [ 120.957626300030554, 13.524479578213001 ], [ 120.957600333716996, 13.52463048412549 ], [ 120.957544444444494, 13.52538333333333 ], [ 120.958520601541096, 13.525400395401752 ], [ 120.959156977818139, 13.525226838235286 ], [ 120.960027777777796, 13.524775 ], [ 120.960286111111103, 13.52718333333333 ], [ 120.9619944444444, 13.52887777777778 ], [ 120.963619444444404, 13.528697222222229 ], [ 120.970019444444404, 13.526555555555561 ], [ 120.978243357435247, 13.523786766380139 ], [ 120.978941666666699, 13.523627777777779 ], [ 120.993502777777806, 13.523941666666669 ], [ 120.993922222222196, 13.52125 ], [ 120.992729929813379, 13.521261272514096 ], [ 120.992766715718432, 13.521339088851706 ], [ 120.992831798473517, 13.521405586449299 ], [ 120.992954889771198, 13.521440957511848 ], [ 120.993021387368785, 13.521483402786908 ], [ 120.993048269376331, 13.521542826171991 ], [ 120.993046854533816, 13.521624887037108 ], [ 120.993007238943761, 13.521704118217219 ], [ 120.993035535793823, 13.521835698569902 ], [ 120.992922348393662, 13.521909270380005 ], [ 120.992820479733524, 13.521923418805025 ], [ 120.992701632963346, 13.521951715655065 ], [ 120.992611083043229, 13.522025287465169 ], [ 120.992562978398155, 13.522124326440307 ], [ 120.992540340918126, 13.522271470060515 ], [ 120.992565808083157, 13.522373338720659 ], [ 120.992585615878184, 13.522497844860835 ], [ 120.992656358003288, 13.522577076040946 ], [ 120.992732759498395, 13.52267894470109 ], [ 120.992721440758373, 13.522738368086173 ], [ 120.992591275248188, 13.522758175881201 ], [ 120.992540340918126, 13.522727049346157 ], [ 120.992441301942989, 13.522738368086173 ], [ 120.99235358170786, 13.52276383525121 ], [ 120.992223416197675, 13.522772324306221 ], [ 120.992192289662626, 13.522712900921137 ], [ 120.992118717852534, 13.522628010371019 ], [ 120.992039486672411, 13.522605372890986 ], [ 120.991960255492302, 13.522599713520979 ], [ 120.991798963447081, 13.522497844860835 ], [ 120.991677286991901, 13.522404465255702 ], [ 120.991466003844891, 13.522359190295631 ], [ 120.991224537391219, 13.522185636282055 ], [ 120.990824608577313, 13.52205735722854 ], [ 120.990590687950316, 13.522019628095153 ], [ 120.990311492363261, 13.521951715655058 ], [ 120.990160575829719, 13.521921532348349 ], [ 120.989843651109268, 13.521853619908253 ], [ 120.989753101189137, 13.521846074081576 ], [ 120.989443722295377, 13.52189134904164 ], [ 120.989239984975086, 13.521913986521671 ], [ 120.988945697734664, 13.521913986521671 ], [ 120.988809872854475, 13.521853619908253 ], [ 120.988538223094096, 13.521763069988125 ], [ 120.988349577427158, 13.521717795028062 ], [ 120.988017561053354, 13.521672520067998 ], [ 120.987851552866459, 13.52172534085474 ], [ 120.987542173972685, 13.521830982428222 ], [ 120.987383711612466, 13.521898894868317 ], [ 120.987202611772219, 13.521913986521671 ], [ 120.986998874451928, 13.522095086361928 ], [ 120.986629128944742, 13.522185636282055 ], [ 120.986493304064552, 13.522283732028859 ], [ 120.986319750050967, 13.522396919429019 ], [ 120.986153741864072, 13.522298823682213 ], [ 120.985889637930356, 13.522110178015282 ], [ 120.985565167383243, 13.521959261481735 ], [ 120.985278425969497, 13.521951715655058 ], [ 120.984712488968682, 13.522095086361929 ], [ 120.984576664088493, 13.522147907148669 ], [ 120.984501205821715, 13.522227138328782 ], [ 120.984418201728275, 13.522283732028862 ], [ 120.984327651808144, 13.522381827775666 ], [ 120.984229556061337, 13.522461058955779 ], [ 120.984184281101278, 13.52259688383597 ], [ 120.984116368661176, 13.522687433756097 ], [ 120.98393904173426, 13.522827031549626 ], [ 120.983780579374042, 13.522913808556416 ], [ 120.983667391973881, 13.522940218949786 ], [ 120.983490065046965, 13.522977948083174 ], [ 120.983305192293372, 13.522955310603141 ], [ 120.983184459066564, 13.522879852336368 ], [ 120.983048634186375, 13.522864760683014 ], [ 120.982942992612891, 13.522910035643077 ], [ 120.982641159545793, 13.522879852336368 ], [ 120.982339326478709, 13.522864760683014 ], [ 120.982203501598519, 13.522789302416241 ], [ 120.981931851838127, 13.522623294229339 ], [ 120.98161492711769, 13.522487469349148 ], [ 120.98125272743718, 13.522412011082375 ], [ 120.981101810903624, 13.522562927615921 ], [ 120.980845252796598, 13.522638385882694 ], [ 120.980498144769442, 13.522759119109532 ], [ 120.980241586662416, 13.522789302416241 ], [ 120.980060486822154, 13.522744027456177 ], [ 120.979849203675201, 13.522562927615921 ], [ 120.979502095648044, 13.522472377695793 ], [ 120.979079529354109, 13.522517652655857 ], [ 120.978838062900437, 13.522608202575984 ], [ 120.978656963060189, 13.522653477536048 ], [ 120.978475863219927, 13.522759119109532 ], [ 120.978385313299796, 13.522683660842757 ], [ 120.978475863219927, 13.522578019269275 ], [ 120.978475863219927, 13.522381827775666 ], [ 120.978581504793411, 13.522110178015284 ], [ 120.978475863219927, 13.5218385282549 ], [ 120.978113663539418, 13.521627245107936 ], [ 120.977570364018646, 13.521310320387489 ], [ 120.976981789537817, 13.520948120706979 ], [ 120.976498856630471, 13.520661379293241 ], [ 120.976121565296609, 13.520857570786852 ], [ 120.975744273962746, 13.520887754093561 ], [ 120.975427349242295, 13.520661379293241 ], [ 120.974793499801407, 13.520736837560015 ], [ 120.973925729733452, 13.52113299346057 ], [ 120.973714446586484, 13.52121977046736 ], [ 120.973574848792964, 13.521299001647471 ], [ 120.973401294779379, 13.521397097394276 ], [ 120.973291880292564, 13.521487647314403 ], [ 120.973220194939131, 13.521574424321193 ], [ 120.973133417932331, 13.521668747154658 ], [ 120.97301645761884, 13.521740432508093 ], [ 120.972918361872033, 13.521827209514882 ], [ 120.972820266125225, 13.521906440694993 ], [ 120.972714624551742, 13.522064903055217 ], [ 120.972695759985058, 13.522181863368715 ], [ 120.972699532898403, 13.522272413288842 ], [ 120.972680668331705, 13.522351644468953 ], [ 120.972669349591698, 13.522408238169033 ], [ 120.97262784754497, 13.522502561002499 ], [ 120.971522383936744, 13.522891171076381 ], [ 120.97141674236326, 13.522989266823185 ], [ 120.971333738269763, 13.523072270916629 ], [ 120.971235642522956, 13.523166593750094 ], [ 120.97109227181609, 13.523268462410238 ], [ 120.970997948982628, 13.523355239417027 ], [ 120.970911171975843, 13.523411833117107 ], [ 120.970764028355632, 13.5234306976838 ], [ 120.970681024262177, 13.523483518470542 ], [ 120.970560291035341, 13.523619343350733 ], [ 120.970424466155151, 13.523785351537633 ], [ 120.970364099541726, 13.523872128544422 ], [ 120.970296187101638, 13.523958905551211 ], [ 120.970228274661537, 13.524034363817984 ], [ 120.970179226788133, 13.524098503344741 ], [ 120.970171680961457, 13.524173961611513 ], [ 120.970175453874802, 13.524256965704964 ], [ 120.97018299970145, 13.524358834365108 ], [ 120.970171680961442, 13.524460703025252 ], [ 120.970179226788119, 13.524543707118701 ], [ 120.970149043481413, 13.524607846645459 ], [ 120.970111314348017, 13.524698396565586 ], [ 120.970073585214635, 13.524762536092343 ], [ 120.970073585214635, 13.524804038139068 ], [ 120.970088676867988, 13.524883269319179 ], [ 120.970118860174694, 13.524985137979323 ], [ 120.970107541434686, 13.525019094199372 ], [ 120.97007735812798, 13.525083233726129 ], [ 120.970073585214635, 13.525185102386272 ], [ 120.970035856081253, 13.525215285692981 ], [ 120.96998680820785, 13.525302062699771 ], [ 120.969933987421101, 13.525351110573173 ], [ 120.969933987421101, 13.525411477186591 ], [ 120.969918895767748, 13.525490708366704 ], [ 120.969854756240991, 13.525517118760073 ], [ 120.969703839707449, 13.525524664586754 ], [ 120.969620835614009, 13.525502027106723 ], [ 120.969537831520555, 13.525388839706563 ], [ 120.969477464907129, 13.52523037734634 ], [ 120.969386914987012, 13.525109644119503 ], [ 120.969266181760176, 13.525019094199378 ], [ 120.968956802866401, 13.524973819239314 ], [ 120.968504053265761, 13.524920998452572 ], [ 120.968194674372, 13.524905906799217 ], [ 120.968043757838458, 13.524905906799217 ], [ 120.967802291384771, 13.524958727585959 ], [ 120.967674012331258, 13.525019094199378 ], [ 120.967485366664334, 13.525192648212956 ], [ 120.967372179264174, 13.52529074395976 ], [ 120.967334450130792, 13.525471843800016 ], [ 120.967236354383985, 13.525698218600334 ], [ 120.967047708717047, 13.525932139227331 ], [ 120.966957158796916, 13.526045326627491 ], [ 120.966828879743403, 13.526150968200973 ], [ 120.966859063050109, 13.526354705521261 ], [ 120.966760967303316, 13.526422617961355 ], [ 120.966662871556508, 13.526422617961355 ], [ 120.966579867463054, 13.526520713708161 ], [ 120.966428950929512, 13.526535805361515 ], [ 120.966255396915926, 13.526498076228128 ], [ 120.966119572035737, 13.526498076228128 ], [ 120.966044113768973, 13.52655089701487 ], [ 120.96568945991514, 13.526656538588352 ], [ 120.965561180861613, 13.526626355281643 ], [ 120.965289531101234, 13.526535805361515 ], [ 120.964957514727431, 13.526415072134679 ], [ 120.964670773313699, 13.526347159694582 ], [ 120.964444398513379, 13.52627170142781 ], [ 120.96419538623303, 13.526226426467746 ], [ 120.964135019619604, 13.52627170142781 ], [ 120.963991648912739, 13.526249063947777 ], [ 120.963931282299328, 13.52612833072094 ], [ 120.963780365765771, 13.526037780800813 ], [ 120.963584174272171, 13.525932139227331 ], [ 120.963320070338469, 13.525864226787235 ], [ 120.96301823727137, 13.525720856080367 ], [ 120.96279186247105, 13.525645397813593 ], [ 120.962527758537348, 13.525509572933402 ], [ 120.962286292083675, 13.525358656399856 ], [ 120.962142921376795, 13.525332246006485 ], [ 120.961878817443093, 13.525196421126294 ], [ 120.961539255242613, 13.525053050419425 ], [ 120.961252513828882, 13.524894588059201 ], [ 120.961026139028561, 13.52470594239227 ], [ 120.960973318241813, 13.524449384285241 ], [ 120.960912951628401, 13.524132459564795 ], [ 120.960928043281712, 13.523860809804413 ], [ 120.960935589108388, 13.52355897673732 ], [ 120.961063868161915, 13.523445789337162 ], [ 120.961260059655515, 13.52334014776368 ], [ 120.961373247055676, 13.52319677705681 ], [ 120.961403430362381, 13.523038314696587 ], [ 120.961418522015748, 13.522759119109526 ], [ 120.961448705322454, 13.52252519848253 ], [ 120.961509071935865, 13.522253548722148 ], [ 120.961509071935865, 13.521913986521669 ], [ 120.961493980282512, 13.521559332667836 ], [ 120.961546801069275, 13.52121222464068 ], [ 120.961765630042919, 13.520834933306816 ], [ 120.961810905002977, 13.520653833466559 ], [ 120.96196936736321, 13.520216175519277 ], [ 120.962135375550105, 13.519801155052026 ], [ 120.962256108776941, 13.519476684504902 ], [ 120.962301383737014, 13.51911448482439 ], [ 120.962369296177101, 13.518842835064008 ], [ 120.962437208617203, 13.518457997903466 ], [ 120.96252775853732, 13.518171256489728 ], [ 120.96261076263076, 13.517899606729344 ], [ 120.962806954124375, 13.517680777755704 ], [ 120.962995599791313, 13.517265757288452 ], [ 120.963229520418309, 13.517024290834778 ], [ 120.963561536792099, 13.516850736821199 ], [ 120.963923736472609, 13.516873374301232 ], [ 120.96424066119306, 13.517001653354747 ], [ 120.964429306859998, 13.517062019968165 ], [ 120.964708502447053, 13.51704692831481 ], [ 120.965100885434268, 13.517137478234938 ], [ 120.965364989367984, 13.517137478234938 ], [ 120.965674368261745, 13.517228028155065 ], [ 120.965998838808844, 13.517401582168642 ], [ 120.966278034395913, 13.517311032248514 ], [ 120.966647779903099, 13.517333669728547 ], [ 120.966957158796859, 13.51746194878206 ], [ 120.967236354383928, 13.517665686102347 ], [ 120.96738727091747, 13.517643048622316 ], [ 120.967824928864758, 13.517665686102347 ], [ 120.968021120358358, 13.517718506889089 ], [ 120.968239949332002, 13.517658140275671 ], [ 120.968534236572424, 13.517552498702189 ], [ 120.968760611372744, 13.517492132088769 ], [ 120.969024715306446, 13.517401582168642 ], [ 120.969462373253734, 13.517250665635096 ], [ 120.969817027107567, 13.517107294928227 ], [ 120.970050947734563, 13.517024290834778 ], [ 120.970382964108353, 13.517009199181423 ], [ 120.970828167882317, 13.516858282647878 ], [ 120.971084725989343, 13.516737549421039 ], [ 120.971356375749693, 13.516473445487332 ], [ 120.971560113069984, 13.516382895567205 ], [ 120.971643117163424, 13.516216887380304 ], [ 120.971763850390261, 13.516013150060017 ], [ 120.97192985857717, 13.515907508486535 ], [ 120.972050591804006, 13.515877325179826 ], [ 120.972080775110712, 13.515635858726151 ], [ 120.972012862670624, 13.515318934005705 ], [ 120.971960041883875, 13.515047284245322 ], [ 120.971854400310391, 13.514700176218167 ], [ 120.971733667083555, 13.514481347244525 ], [ 120.971590296376689, 13.514307793230946 ], [ 120.971462017323176, 13.514262518270883 ], [ 120.971288463309619, 13.514198378744124 ], [ 120.971197913389489, 13.51412669339069 ], [ 120.971088498902674, 13.51407387260395 ], [ 120.970997948982543, 13.514043689297241 ], [ 120.970877215755706, 13.514077645517288 ], [ 120.97075648252887, 13.514141785044044 ], [ 120.970639522215379, 13.51418328709077 ], [ 120.970533880641895, 13.514115374650673 ], [ 120.970511243161852, 13.514024824730546 ], [ 120.970507470248521, 13.513907864417048 ], [ 120.970488605681822, 13.51376072079684 ], [ 120.970364099541655, 13.51376449371018 ], [ 120.970213183008099, 13.513613577176633 ], [ 120.970062266474557, 13.513530573083184 ], [ 120.969850983327589, 13.513523027256506 ], [ 120.969560469000513, 13.51348529812312 ], [ 120.969473691993727, 13.513549437649877 ], [ 120.969356731680207, 13.513734310403473 ], [ 120.969281273413429, 13.51402105181721 ], [ 120.969009623653051, 13.514307793230946 ], [ 120.968753065546025, 13.514639809604748 ], [ 120.968571965705763, 13.514986917631903 ], [ 120.968255040985326, 13.515137834165451 ], [ 120.96790793295817, 13.515122742512096 ], [ 120.967575916584366, 13.515047284245323 ], [ 120.967334450130693, 13.514836001098358 ], [ 120.967289175170635, 13.514519076377912 ], [ 120.967500458317588, 13.514217243310819 ], [ 120.967726833117908, 13.513975776857146 ], [ 120.96790793295817, 13.513613577176635 ], [ 120.967968299571581, 13.513130644269289 ], [ 120.968209766025254, 13.512723169628714 ], [ 120.968451232478927, 13.512044045227757 ], [ 120.968481415785647, 13.511681845547248 ], [ 120.968255040985326, 13.511259279253318 ], [ 120.968028666185006, 13.511108362719773 ], [ 120.967530641624307, 13.510957446186225 ], [ 120.967183533597151, 13.510851804612743 ], [ 120.966776058956569, 13.511063087759709 ], [ 120.966459134236132, 13.511304554213382 ], [ 120.966338401009295, 13.511681845547248 ], [ 120.96627803439587, 13.512149686801239 ], [ 120.966157301169034, 13.512421336561623 ], [ 120.965749826528466, 13.512692986322005 ], [ 120.965342351887884, 13.512708077975359 ], [ 120.965131068740916, 13.512496794828396 ], [ 120.964829235673832, 13.512406244908268 ], [ 120.964346302766486, 13.51234587829485 ], [ 120.963878461512493, 13.512376061601559 ], [ 120.963259703724944, 13.512481703175041 ], [ 120.962852229084376, 13.512466611521686 ], [ 120.962625854284056, 13.51234587829485 ], [ 120.962399479483736, 13.512360969948205 ], [ 120.962308929563605, 13.512466611521686 ], [ 120.962203287990121, 13.512768444588778 ], [ 120.962158013030063, 13.512934452775678 ], [ 120.962233471296841, 13.513145735922643 ], [ 120.962444754443808, 13.513538118909862 ], [ 120.962656037590762, 13.513794677016891 ], [ 120.96295787065786, 13.514066326777273 ], [ 120.963274795378311, 13.514473801417848 ], [ 120.963138970498107, 13.514820909445003 ], [ 120.962897504044435, 13.515047284245323 ], [ 120.962173104683416, 13.514866184405067 ], [ 120.96191654657639, 13.514458709764494 ], [ 120.961343063748913, 13.5138248603236 ], [ 120.961060354242008, 13.513331684462589 ], [ 120.961024702283126, 13.512438605698044 ], [ 120.964147813903992, 13.508775551888583 ], [ 120.964204857038467, 13.508559255501039 ], [ 120.96422624821389, 13.508252253835867 ], [ 120.96422624821389, 13.507687090632881 ], [ 120.963734251177698, 13.506793990461121 ], [ 120.963213732574218, 13.506591646982949 ], [ 120.963021211994828, 13.506549782793364 ], [ 120.962778778672828, 13.506549782793359 ], [ 120.962600518877153, 13.506612579075099 ], [ 120.962472171824203, 13.506780035744123 ], [ 120.962243999285548, 13.506856786677872 ], [ 120.962115652232498, 13.50701028846961 ], [ 120.961880349302319, 13.507066107278394 ], [ 120.96172348068221, 13.50705215257768 ], [ 120.961466786576366, 13.507080061978517 ], [ 120.961188701294773, 13.507163790161831 ], [ 120.961140239076371, 13.507110440359408 ], [ 120.961038963066571, 13.507038197875792 ], [ 120.960839312095459, 13.507114948725134 ], [ 120.96061113955659, 13.507296359724416 ], [ 120.960532705246933, 13.507394042512395 ], [ 120.960468531720394, 13.507589407966627 ], [ 120.960290271924578, 13.507812682572933 ], [ 120.960213993639471, 13.50794493275796 ], [ 120.960161924871485, 13.508035956967602 ], [ 120.959940882724936, 13.508112707491986 ], [ 120.959712710186295, 13.508084798213199 ], [ 120.959531707573788, 13.508147594086404 ], [ 120.959413233729833, 13.508147594085683 ], [ 120.959306277852306, 13.508008047679944 ], [ 120.95922784354218, 13.507861523865204 ], [ 120.959113757272902, 13.507889433170075 ], [ 120.958906975909599, 13.507596385301449 ], [ 120.958978279828116, 13.507128903422673 ], [ 120.959120887664653, 13.506933537586249 ], [ 120.959926621941221, 13.506291620126261 ], [ 120.9601761856553, 13.506221846384289 ], [ 120.960447140544701, 13.505684587875871 ], [ 120.960425749369179, 13.505552017406226 ], [ 120.96032592388373, 13.505370605063511 ], [ 120.960268880749027, 13.505140350734976 ], [ 120.960133403304326, 13.505077554060811 ], [ 120.959969404292451, 13.504903118767398 ], [ 120.958971149436252, 13.504896141353033 ], [ 120.958792889640449, 13.504958938075342 ], [ 120.958678803371512, 13.505063599242195 ], [ 120.958464891616259, 13.505035689602227 ], [ 120.958265240645233, 13.505042667012914 ], [ 120.957987155363867, 13.505314785852873 ], [ 120.957823156351992, 13.505426424260751 ], [ 120.957587853421273, 13.505524107823984 ], [ 120.957334574096663, 13.505569763432417 ], [ 120.95706020442617, 13.505489220841808 ], [ 120.956739336793831, 13.505838090431743 ], [ 120.956511164255517, 13.506277665379574 ], [ 120.956411338769854, 13.507024243173156 ], [ 120.956120309206199, 13.507364319285966 ], [ 120.955698138850494, 13.507498153781114 ], [ 120.955434344975401, 13.507478297509316 ], [ 120.955306128036455, 13.507296359724412 ], [ 120.954913956485939, 13.507094016677973 ], [ 120.954849782959172, 13.506982379060579 ], [ 120.954707175122863, 13.507003311117748 ], [ 120.954607349637058, 13.506919582877753 ], [ 120.954557436894461, 13.506745148947855 ], [ 120.954621610420872, 13.506668397978062 ], [ 120.95465013198806, 13.506500941229268 ], [ 120.954835522175699, 13.506193936881457 ], [ 120.954899695702224, 13.506026479795603 ], [ 120.95476421825721, 13.505426424260751 ], [ 120.954714305514585, 13.505272921436424 ], [ 120.954707175122863, 13.50510546369595 ], [ 120.95475708786546, 13.504889163938456 ], [ 120.954757087865488, 13.504749615602181 ], [ 120.954856913351023, 13.504421676686885 ], [ 120.954871174134936, 13.504037917801959 ], [ 120.954942478053255, 13.50388441407315 ], [ 120.954978130012464, 13.503689045546263 ], [ 120.954963869228663, 13.503368082614449 ], [ 120.954856913351023, 13.502970367070942 ], [ 120.954707175122891, 13.502977344542163 ], [ 120.954643001596295, 13.502879659923146 ], [ 120.954293612396782, 13.502823840122446 ], [ 120.954065439858496, 13.502768020308471 ], [ 120.953801608751974, 13.502761040182149 ], [ 120.953266835973395, 13.502649403160396 ], [ 120.953174140879469, 13.502670335602293 ], [ 120.953109967353271, 13.502914547291565 ], [ 120.952995881084121, 13.502900592344826 ], [ 120.953024402650954, 13.502698245522707 ], [ 120.952817621288204, 13.502663358122 ], [ 120.952658041000049, 13.50268059000013 ], [ 120.952641791000119, 13.502701767000195 ], [ 120.952515262000261, 13.50277341500011 ], [ 120.952440289000151, 13.502783935000098 ], [ 120.952400634000128, 13.502770471000208 ], [ 120.952057580000201, 13.502764329000252 ], [ 120.951781217000317, 13.50273390700022 ], [ 120.951687265000032, 13.502708107000203 ], [ 120.951654222295275, 13.502672128494549 ], [ 120.951568079000239, 13.502553487000176 ], [ 120.951277456653315, 13.502607538269949 ], [ 120.951035023331301, 13.502684290563042 ], [ 120.950990189547682, 13.502762678414676 ], [ 120.950685634131446, 13.502795930216985 ], [ 120.950571547861941, 13.502907569818376 ], [ 120.950431798373558, 13.502958869908285 ], [ 120.950205423573237, 13.502928686601576 ], [ 120.950008246907814, 13.502768020308476 ], [ 120.949829987111926, 13.502670335602271 ], [ 120.949687379275616, 13.502733132918083 ], [ 120.949594684181562, 13.502754065353027 ], [ 120.949481024212218, 13.50280795337474 ], [ 120.949312938382718, 13.50291765979558 ], [ 120.949480597912384, 13.503019209366668 ], [ 120.949556482478997, 13.503185244708604 ], [ 120.949608944965348, 13.503326217851964 ], [ 120.949979725340071, 13.503605316127782 ], [ 120.950428940025631, 13.503926278736285 ], [ 120.951292022614766, 13.504302027056845 ], [ 120.951709215180699, 13.505068312272336 ], [ 120.951931725302302, 13.505639466312299 ], [ 120.952011887011423, 13.506026479795441 ], [ 120.951976235052129, 13.506256733257969 ], [ 120.951812236040283, 13.506612579075149 ], [ 120.951662497811853, 13.506703284785623 ], [ 120.951477107624243, 13.506717239507058 ], [ 120.951120588032936, 13.506535828061544 ], [ 120.95024315270615, 13.506173392072762 ], [ 120.949473478385059, 13.50623375868618 ], [ 120.94933765350487, 13.506807241513656 ], [ 120.948854720597524, 13.50763728244816 ], [ 120.948432154303603, 13.508180581968924 ], [ 120.947858671476126, 13.508588056609499 ], [ 120.947571930062381, 13.508874798023237 ], [ 120.947526655102322, 13.509403005890649 ], [ 120.947526655102322, 13.510549971545599 ], [ 120.947722846595923, 13.511455470746874 ], [ 120.948266146116694, 13.512225145067958 ], [ 120.948960362171007, 13.512723169628661 ], [ 120.949986594599125, 13.513160827575945 ], [ 120.950590260733307, 13.513749402056773 ], [ 120.951012827027228, 13.514111601737284 ], [ 120.951495759934602, 13.515183109125465 ], [ 120.951827776308392, 13.516194249900224 ], [ 120.952054151108712, 13.517175207368272 ], [ 120.95167685977485, 13.517733598542392 ], [ 120.951209018520856, 13.518231623103095 ], [ 120.950922277107125, 13.518435360423378 ], [ 120.950797770966943, 13.518857926717308 ], [ 120.95063553569338, 13.519106938997659 ], [ 120.949797948932201, 13.519329540884637 ], [ 120.949435749251691, 13.519435182458119 ], [ 120.948922633037625, 13.519616282298376 ], [ 120.94843970013028, 13.519797382138631 ], [ 120.948168050369901, 13.520280315045978 ], [ 120.947715300769261, 13.520612331419779 ], [ 120.947413467702177, 13.520763247953324 ], [ 120.947088997155049, 13.520793431260033 ], [ 120.946077856380327, 13.521114128893821 ], [ 120.94544837218352, 13.520892730106032 ], [ 120.945005555555497, 13.520847222222219 ], [ 120.945020279571949, 13.521026325433601 ], [ 120.947483333333295, 13.52476666666667 ] ] ] ] } },
{ "type": "Feature", "properties": { "id": "BS-01", "Name": "Beach Seine_01 (Dilis - Port Area)", "Area_has": 0.18, "Mgt_Zones": "Beach Seine Zone" }, "geometry": { "type": "MultiPolygon", "coordinates": [ [ [ [ 120.933252777777795, 13.50681111111111 ], [ 120.933552777777805, 13.50711111111111 ], [ 120.9339694444445, 13.50658055555555 ], [ 120.933575, 13.50655 ], [ 120.933252777777795, 13.50681111111111 ] ] ] ] } },
{ "type": "Feature", "properties": { "id": "BS_02", "Name": "Beach Seine_02 (Dilis)", "Area_has": 3.12, "Mgt_Zones": "Beach Seine Zone" }, "geometry": { "type": "MultiPolygon", "coordinates": [ [ [ [ 120.935338888888893, 13.505425 ], [ 120.9349138888889, 13.506680555555549 ], [ 120.936686111111101, 13.50720555555556 ], [ 120.937091666666703, 13.50588333333333 ], [ 120.935338888888893, 13.505425 ] ] ] ] } },
{ "type": "Feature", "properties": { "id": "BS_03", "Name": "Beach Seine_03 (Dilis)", "Area_has": 4.74, "Mgt_Zones": "Beach Seine Zone" }, "geometry": { "type": "MultiPolygon", "coordinates": [ [ [ [ 120.967777777777798, 13.498352777777781 ], [ 120.966047222222201, 13.50250833333333 ], [ 120.966191259765324, 13.502508178625499 ], [ 120.96640774183517, 13.502395805821804 ], [ 120.966639267394285, 13.502350630102955 ], [ 120.966882086883103, 13.502282866524681 ], [ 120.967023261004499, 13.502198162051837 ], [ 120.96717008209076, 13.502124751508706 ], [ 120.96731125621217, 13.502017459176439 ], [ 120.967446783368715, 13.501910166844171 ], [ 120.967582310525259, 13.501876285055033 ], [ 120.967740425541237, 13.501802874511903 ], [ 120.967864658768079, 13.501695582179634 ], [ 120.968051008608327, 13.501576995917654 ], [ 120.968124419151465, 13.501469703585387 ], [ 120.968180639085404, 13.501161520123276 ], [ 120.96813072634248, 13.501049879694648 ], [ 120.968009509681437, 13.50079868853733 ], [ 120.967921128416677, 13.500605717962387 ], [ 120.967932422346379, 13.500447602946412 ], [ 120.968059992856055, 13.500340496569251 ], [ 120.968064746450423, 13.500117214881131 ], [ 120.96815830094063, 13.499961963968779 ], [ 120.968121789584998, 13.499847415893072 ], [ 120.968079007233996, 13.49961948202407 ], [ 120.968040978477561, 13.499410154807547 ], [ 120.968002949721281, 13.499265951505588 ], [ 120.967860341884716, 13.498926375640076 ], [ 120.967757366435848, 13.498606692403289 ], [ 120.967777777777798, 13.498352777777781 ] ] ] ] } },
{ "type": "Feature", "properties": { "id": "BS_04", "Name": "Beach Seine_04 (Dilis)", "Area_has": 17.5, "Mgt_Zones": "Beach Seine Zone" }, "geometry": { "type": "MultiPolygon", "coordinates": [ [ [ [ 120.957169444444403, 13.49866111111111 ], [ 120.960147222222204, 13.493016666666669 ], [ 120.95996527495231, 13.493307370683127 ], [ 120.959569267394286, 13.493569599751556 ], [ 120.959219155573209, 13.493806772275518 ], [ 120.958829514998129, 13.493908417642928 ], [ 120.958518931931039, 13.493784184416091 ], [ 120.958174467074798, 13.493603481540694 ], [ 120.957982470269698, 13.493547011892131 ], [ 120.95765494630804, 13.493405837770727 ], [ 120.957417773784073, 13.493355015087021 ], [ 120.957152366435835, 13.493445366524719 ], [ 120.95681354854446, 13.493716420837817 ], [ 120.956610722696709, 13.493967349334776 ], [ 120.956312606636402, 13.494141331837143 ], [ 120.956243205093983, 13.494111708377751 ], [ 120.956107677937439, 13.494258529464012 ], [ 120.955994738640314, 13.4944279384097 ], [ 120.955881799343189, 13.494693345757941 ], [ 120.955768860046064, 13.494981340965607 ], [ 120.955601468891359, 13.495280095103542 ], [ 120.955435689119554, 13.495517802626951 ], [ 120.95527192713871, 13.495941324991167 ], [ 120.955210262857932, 13.496274172366009 ], [ 120.955192869630736, 13.496698018281897 ], [ 120.95525534755518, 13.496950588088586 ], [ 120.955311455892712, 13.497245773872947 ], [ 120.955362904126673, 13.497574812328821 ], [ 120.955430042154688, 13.497816117323424 ], [ 120.955555159641676, 13.498155547141803 ], [ 120.955743191691113, 13.49847957678689 ], [ 120.955857040280307, 13.498578426163382 ], [ 120.956026743605889, 13.498723560232216 ], [ 120.956176481834291, 13.498787754118895 ], [ 120.956457789758517, 13.498809983138116 ], [ 120.956558100405033, 13.498768216850715 ], [ 120.956636534715017, 13.498705418478535 ], [ 120.957050097441297, 13.49855191127585 ], [ 120.957169444444403, 13.49866111111111 ] ] ] ] } },
{ "type": "Feature", "properties": { "id": "BS_05", "Name": "Beach Seine_05 (Dilis)", "Area_has": 4.1, "Mgt_Zones": "Beach Seine Zone" }, "geometry": { "type": "MultiPolygon", "coordinates": [ [ [ [ 120.975179154316876, 13.46829252803372 ], [ 120.973530555555598, 13.47035 ], [ 120.974502777777801, 13.47099444444444 ], [ 120.97605, 13.46901666666666 ], [ 120.975179154316876, 13.46829252803372 ] ] ] ] } },
{ "type": "Feature", "properties": { "id": "BS_06", "Name": "Beach Seine_06 (Dilis)", "Area_has": 14.9, "Mgt_Zones": "Beach Seine Zone" }, "geometry": { "type": "MultiPolygon", "coordinates": [ [ [ [ 121.002741666666694, 13.45188888888889 ], [ 121.002713756562272, 13.451907611710192 ], [ 121.001553879491297, 13.45414552767364 ], [ 121.00090382543614, 13.455805340441255 ], [ 121.000327452096812, 13.455973996307176 ], [ 121.000137588853249, 13.456202072771664 ], [ 120.999614412913942, 13.456200809178675 ], [ 120.998633984037582, 13.456299676259938 ], [ 120.998414130289461, 13.456794011045087 ], [ 120.997962538806831, 13.457928069294519 ], [ 120.997458333333299, 13.45942777777778 ], [ 120.998361111111095, 13.45996666666667 ], [ 121.001841666666706, 13.456147222222221 ], [ 121.003733333333301, 13.45243333333333 ], [ 121.002741666666694, 13.45188888888889 ] ] ] ] } },
{ "type": "Feature", "properties": { "id": "CZ_01", "Name": "Core Zone (Aninuan)", "Area_has": 2.0, "Mgt_Zones": "Core Zone" }, "geometry": { "type": "MultiPolygon", "coordinates": [ [ [ [ 120.894144444444393, 13.499866666666669 ], [ 120.893558333333402, 13.49921111111111 ], [ 120.892116666666695, 13.500419444444439 ], [ 120.892736111111105, 13.501075 ], [ 120.894144444444393, 13.499866666666669 ] ] ] ] } },
{ "type": "Feature", "properties": { "id": "LVAZ_01", "Name": "Large Vessels Achorage Zone_01", "Area_has": 620.0, "Mgt_Zones": "Large Vessel Anchorage" }, "geometry": { "type": "MultiPolygon", "coordinates": [ [ [ [ 120.976186111111105, 13.497794444444439 ], [ 120.996766666666701, 13.51193611111111 ], [ 121.006272222222194, 13.49245 ], [ 120.984683333333294, 13.47993333333333 ], [ 120.976186111111105, 13.497794444444439 ] ] ] ] } },
{ "type": "Feature", "properties": { "id": "LF_01", "Name": "Light Fishing_01 (Dilis)", "Area_has": 204.0, "Mgt_Zones": "Light Fishing Zone" }, "geometry": { "type": "MultiPolygon", "coordinates": [ [ [ [ 120.967602777777799, 13.483719444444439 ], [ 120.967540150535882, 13.48374908596608 ], [ 120.967482298147061, 13.483755112256583 ], [ 120.967388288015229, 13.483714133481167 ], [ 120.967332846142611, 13.483665923157149 ], [ 120.967238836010779, 13.483658691608547 ], [ 120.967174957331451, 13.483626149639836 ], [ 120.967131568039832, 13.483577939315817 ], [ 120.967071305134809, 13.48358758138062 ], [ 120.966994168616381, 13.483626149639836 ], [ 120.966909800549359, 13.483621328607434 ], [ 120.966842306095728, 13.483565886734812 ], [ 120.966784453706907, 13.483561065702411 ], [ 120.966697072494625, 13.483637599591791 ], [ 120.966504231198556, 13.483618315462182 ], [ 120.966364421258902, 13.483526715846548 ], [ 120.966306568870081, 13.483406190036503 ], [ 120.966282463708069, 13.483208527708026 ], [ 120.966219790286843, 13.483015686411953 ], [ 120.966094443444391, 13.483010865379551 ], [ 120.965998022796356, 13.482977118152739 ], [ 120.965814823565097, 13.482943370925925 ], [ 120.965732866014264, 13.482866234407496 ], [ 120.965621982269013, 13.482750529629852 ], [ 120.965511098523777, 13.482678214143824 ], [ 120.965462888199752, 13.482750529629852 ], [ 120.96528933103329, 13.482914444731515 ], [ 120.965014532186387, 13.483078359833177 ], [ 120.96473491230708, 13.48321334874043 ], [ 120.96448903965458, 13.483329053518073 ], [ 120.964272093196499, 13.483560463073362 ], [ 120.964040683641201, 13.483815977790659 ], [ 120.963789989956311, 13.484196839350403 ], [ 120.963587506595431, 13.484510206456523 ], [ 120.963462159752993, 13.484703047752596 ], [ 120.963298244651327, 13.485127298603958 ], [ 120.963206645035683, 13.485377992288853 ], [ 120.963057193031176, 13.485860095529041 ], [ 120.962883635864713, 13.486501292838485 ], [ 120.962779983668042, 13.48696411194906 ], [ 120.962746236441234, 13.48698942236917 ], [ 120.962698026117224, 13.487042453725591 ], [ 120.962612452792087, 13.487108742921116 ], [ 120.962497953272546, 13.487273863280878 ], [ 120.962334038170894, 13.48730278947529 ], [ 120.96228582784687, 13.487235295021664 ], [ 120.962223154425644, 13.48709548508201 ], [ 120.962218333393253, 13.486994243401572 ], [ 120.96213637584242, 13.486912285850741 ], [ 120.961953176611146, 13.486955675142358 ], [ 120.961794082541886, 13.487100306114412 ], [ 120.961707303958647, 13.487196726762448 ], [ 120.961466252338553, 13.487283505345681 ], [ 120.961042001487201, 13.487312431540094 ], [ 120.960993791163176, 13.487428136317737 ], [ 120.960723813348665, 13.488006660205958 ], [ 120.960511687922988, 13.488681604742215 ], [ 120.960318846626919, 13.489645811222584 ], [ 120.960260994238098, 13.49076429073981 ], [ 120.960260994238098, 13.49134281462803 ], [ 120.960222425978884, 13.492152748071538 ], [ 120.960147222222204, 13.493016666666669 ], [ 120.957169444444403, 13.49866111111111 ], [ 120.957181559791408, 13.498703325847536 ], [ 120.95719602288861, 13.498752741429655 ], [ 120.957168301952294, 13.498815414850878 ], [ 120.957124912660674, 13.498887730336904 ], [ 120.957067060271854, 13.498981740468741 ], [ 120.957079112852867, 13.499020308727955 ], [ 120.957074291820462, 13.499075750600577 ], [ 120.95700679736683, 13.499140834538 ], [ 120.956960997559023, 13.499198686926823 ], [ 120.95693689239701, 13.499266181380449 ], [ 120.956912787234998, 13.499336086350276 ], [ 120.956823598135571, 13.49945420164412 ], [ 120.956727177487537, 13.499566893276516 ], [ 120.956727177487537, 13.499701882183768 ], [ 120.956659683033905, 13.499701882183768 ], [ 120.95666450406631, 13.499774197669796 ], [ 120.956698251293119, 13.499769376637394 ], [ 120.956915197751201, 13.499798302831804 ], [ 120.957088754917677, 13.499836871091018 ], [ 120.957088754917677, 13.499938112771458 ], [ 120.957035723561248, 13.500150238197138 ], [ 120.956929660848417, 13.500357542590418 ], [ 120.956833240200368, 13.500492531497668 ], [ 120.956500588964644, 13.500535920789286 ], [ 120.956360779024976, 13.500603415242912 ], [ 120.956360779024976, 13.500796256538985 ], [ 120.956399347284204, 13.501095160547898 ], [ 120.956582546515449, 13.501471201075237 ], [ 120.956920018783578, 13.502040082898654 ], [ 120.957363553764552, 13.502338986907569 ], [ 120.957836014939929, 13.502570396462858 ], [ 120.958212055467271, 13.502628248851678 ], [ 120.958674874577852, 13.502608964722072 ], [ 120.95895449445716, 13.502522186138838 ], [ 120.959031630975588, 13.502377555166783 ], [ 120.959060557169991, 13.502155787676299 ], [ 120.959137693688419, 13.501924378121011 ], [ 120.959320892919692, 13.501770105084152 ], [ 120.959494450086183, 13.501702610630524 ], [ 120.959831922354311, 13.501683326500917 ], [ 120.960140468428023, 13.501741178889738 ], [ 120.960526151020176, 13.501895451926597 ], [ 120.960988970130757, 13.50208829322267 ], [ 120.961365010658099, 13.502319702777958 ], [ 120.961721767055835, 13.502464333750014 ], [ 120.96207852345357, 13.50253182820364 ], [ 120.962358143332878, 13.502589680592461 ], [ 120.962628121147375, 13.502676459175696 ], [ 120.962763110054624, 13.502647532981284 ], [ 120.962801678313838, 13.502570396462854 ], [ 120.962965593415504, 13.502512544074033 ], [ 120.96317771884118, 13.502628248851677 ], [ 120.963592327627737, 13.502772879823732 ], [ 120.963881589571855, 13.502830732212553 ], [ 120.964469755524874, 13.503110352091861 ], [ 120.965144700061131, 13.503206772739897 ], [ 120.965453246134857, 13.503206772739897 ], [ 120.965723223949354, 13.503129636221468 ], [ 120.965954633504651, 13.502975363184609 ], [ 120.966047222222201, 13.50250833333333 ], [ 120.967777777777798, 13.498352777777781 ], [ 120.9702388888889, 13.49475833333333 ], [ 120.967602777777799, 13.483719444444439 ] ] ] ] } },
{ "type": "Feature", "properties": { "id": "PMA_01", "Name": "Payao Management Area 01", "Area_has": 210.0, "Mgt_Zones": "Payao Management Zone" }, "geometry": { "type": "MultiPolygon", "coordinates": [ [ [ [ 120.982052777777795, 13.47253888888889 ], [ 120.968916666666701, 13.496816666666669 ], [ 120.974494444444403, 13.50137777777778 ], [ 120.986833333333294, 13.47521388888889 ], [ 120.982052777777795, 13.47253888888889 ] ] ] ] } },
{ "type": "Feature", "properties": { "id": "PMA_02", "Name": "Payao Management Area 02", "Area_has": 396.0, "Mgt_Zones": "Payao Management Zone" }, "geometry": { "type": "MultiPolygon", "coordinates": [ [ [ [ 121.008852777777804, 13.45307777777778 ], [ 120.990763888888907, 13.47169444444445 ], [ 120.999763888888907, 13.48091944444444 ], [ 121.017186111111101, 13.462955555555549 ], [ 121.008852777777804, 13.45307777777778 ] ] ] ] } },
{ "type": "Feature", "properties": { "id": "TN", "Name": "Turtle Nesting Zones (Aninuan)", "Area_has": 3.84, "Mgt_Zones": "Turtle Nesting Zone" }, "geometry": { "type": "MultiPolygon", "coordinates": [ [ [ [ 120.892713888888906, 13.49856944444444 ], [ 120.893558333333402, 13.49921111111111 ], [ 120.894144444444393, 13.499866666666669 ], [ 120.896913888888903, 13.50148055555556 ], [ 120.896980555555601, 13.501411111111111 ], [ 120.896447577653589, 13.500870954472848 ], [ 120.896330389155182, 13.500636577476042 ], [ 120.89610577786658, 13.500402200479236 ], [ 120.895939760827176, 13.50020688631523 ], [ 120.895627258164765, 13.499894383652823 ], [ 120.895422178292563, 13.499620943823215 ], [ 120.895119441338352, 13.499308441160807 ], [ 120.894855767216939, 13.4990545327476 ], [ 120.894494436013531, 13.498917812832797 ], [ 120.894054979144528, 13.498722498668791 ], [ 120.893762007898516, 13.498634607294989 ], [ 120.893478802360704, 13.498468590255584 ], [ 120.893127236865496, 13.498556481629388 ], [ 120.892713888888906, 13.49856944444444 ] ] ] ] } },
{ "type": "Feature", "properties": { "id": "SUZ_02", "Name": "Sustainable Use Zone 02", "Area_has": 253.0, "Mgt_Zones": "Sustainable Use Zone" }, "geometry": { "type": "MultiPolygon", "coordinates": [ [ [ [ 120.937091666666703, 13.50588333333333 ], [ 120.936038888888902, 13.50925 ], [ 120.935036111111103, 13.512377777777781 ], [ 120.936547222222202, 13.516933333333331 ], [ 120.944694444444494, 13.52803888888889 ], [ 120.9516138888889, 13.533419444444441 ], [ 120.955194444444402, 13.53296111111111 ], [ 120.9619944444444, 13.52887777777778 ], [ 120.960286111111103, 13.52718333333333 ], [ 120.960027777777796, 13.524775 ], [ 120.959156977818139, 13.525226838235286 ], [ 120.958520601541096, 13.525400395401752 ], [ 120.957544444444494, 13.52538333333333 ], [ 120.957012058484494, 13.526107985889368 ], [ 120.956465178825283, 13.526693928381382 ], [ 120.955950037717685, 13.527062583865943 ], [ 120.955559409389679, 13.527414149361151 ], [ 120.955481283724083, 13.528312594515576 ], [ 120.95458283856965, 13.528351657348376 ], [ 120.954075021743236, 13.5292501025028 ], [ 120.953410953585617, 13.529523542332408 ], [ 120.952278131434397, 13.529523542332408 ], [ 120.952121880103192, 13.530382924654029 ], [ 120.952356257099993, 13.531125118477249 ], [ 120.951770314607984, 13.530851678647641 ], [ 120.951164840699576, 13.530500113152433 ], [ 120.950969526535573, 13.529894639244016 ], [ 120.950813275204368, 13.5292305710864 ], [ 120.950500772541957, 13.528527440095981 ], [ 120.950266395545142, 13.527980560436767 ], [ 120.949582795971125, 13.527804777689163 ], [ 120.949074979144712, 13.527355555111951 ], [ 120.948782007898714, 13.526847738285538 ], [ 120.948313253905098, 13.525890698881913 ], [ 120.948078876908298, 13.5254414763047 ], [ 120.94739527733428, 13.5254024134719 ], [ 120.947356214501468, 13.525031316560289 ], [ 120.947483333333295, 13.52476666666667 ], [ 120.945005555555497, 13.520847222222219 ], [ 120.944914787451395, 13.520763702076776 ], [ 120.944709707579193, 13.520636747870173 ], [ 120.944651113329996, 13.520519559371769 ], [ 120.944397204916783, 13.520480496538967 ], [ 120.94427025071019, 13.520421902289767 ], [ 120.944094467962586, 13.520236353833962 ], [ 120.944143296503583, 13.519992211128955 ], [ 120.944240953585577, 13.519943382587954 ], [ 120.944406970624982, 13.519738302715748 ], [ 120.94451439341519, 13.519611348509144 ], [ 120.944533924831589, 13.519533222843544 ], [ 120.944358142083985, 13.519347674387738 ], [ 120.944250719293777, 13.519074234558131 ], [ 120.94394798233958, 13.519123063099132 ], [ 120.943791731008375, 13.518986343184329 ], [ 120.943723371050964, 13.518781263312123 ], [ 120.943742902467363, 13.518605480564519 ], [ 120.943674542509967, 13.518410166400514 ], [ 120.943576885427959, 13.518205086528308 ], [ 120.943684308218167, 13.518126960862705 ], [ 120.943655011093568, 13.518019538072503 ], [ 120.943576885427944, 13.517897466720003 ], [ 120.943366922701642, 13.517667972577296 ], [ 120.943147194267141, 13.517516604100193 ], [ 120.942995825790035, 13.517565432641193 ], [ 120.942824925896531, 13.517609378328094 ], [ 120.942673557419425, 13.517658206869097 ], [ 120.942585666045616, 13.517560549787094 ], [ 120.942497774671821, 13.517389649893589 ], [ 120.942424531860311, 13.517291992811586 ], [ 120.942336640486516, 13.517155272896783 ], [ 120.942268280529106, 13.516911130191776 ], [ 120.942307343361918, 13.516779293131073 ], [ 120.942453828984924, 13.516657221778569 ], [ 120.942551486066918, 13.516540033280167 ], [ 120.942551486066961, 13.516476556176864 ], [ 120.942580783191559, 13.516403313365361 ], [ 120.942507540380049, 13.516286124866959 ], [ 120.942346406194758, 13.516139639243955 ], [ 120.94224874911275, 13.516232413471856 ], [ 120.94200460640775, 13.516266593450558 ], [ 120.941823940806032, 13.516271476304658 ], [ 120.941648158058427, 13.516149404952154 ], [ 120.941545618122333, 13.515958973642249 ], [ 120.941443078186225, 13.515709948083144 ], [ 120.941379601082929, 13.515519516773239 ], [ 120.941384483937028, 13.515421859691235 ], [ 120.941433312478026, 13.515304671192833 ], [ 120.94160909522563, 13.51520213125673 ], [ 120.941736049432237, 13.515089825612428 ], [ 120.941814175097832, 13.515011699946825 ], [ 120.941819057951932, 13.514884745740222 ], [ 120.941775112265034, 13.514811502928719 ], [ 120.941623743787929, 13.514835917199221 ], [ 120.941491906727222, 13.514914042864822 ], [ 120.941237998314023, 13.514899394302523 ], [ 120.941125692669715, 13.514762674387718 ], [ 120.941062215566419, 13.514596657348314 ], [ 120.941091512691017, 13.51441599174661 ], [ 120.941272178292721, 13.514249974707205 ], [ 120.942385469027556, 13.513722626464395 ], [ 120.943030005768776, 13.513605437965991 ], [ 120.943713605342793, 13.513214809637981 ], [ 120.944104233670799, 13.512648398562366 ], [ 120.944240953585606, 13.511906204739146 ], [ 120.944201890752794, 13.511417919329133 ], [ 120.944592519080814, 13.511105416666725 ], [ 120.945041741658017, 13.510578068423913 ], [ 120.945588621317242, 13.510167908679501 ], [ 120.946057375310843, 13.509972594515496 ], [ 120.946545660720858, 13.509503840521884 ], [ 120.946784920571773, 13.509108329339773 ], [ 120.946770272009474, 13.508898366613467 ], [ 120.946604254970069, 13.508922780883967 ], [ 120.946194095225664, 13.509020437965971 ], [ 120.945954835374749, 13.508849538072466 ], [ 120.945915772541952, 13.508634692492061 ], [ 120.94600854676986, 13.508522386847757 ], [ 120.94608178958137, 13.508361252662453 ], [ 120.945915772541966, 13.508029218583646 ], [ 120.945769286918974, 13.507697184504837 ], [ 120.945691161253364, 13.507345619009628 ], [ 120.945642332712367, 13.507179601970224 ], [ 120.945493405662305, 13.507050206336569 ], [ 120.945388424299153, 13.506874423588965 ], [ 120.945259028665504, 13.506720613684809 ], [ 120.945129633031854, 13.506671785143809 ], [ 120.9450734802097, 13.506576569488855 ], [ 120.945122308750697, 13.506496002396204 ], [ 120.945200434416321, 13.506322661075652 ], [ 120.945200434416321, 13.506049221246045 ], [ 120.945249262957319, 13.505961329872243 ], [ 120.945102777334313, 13.505639061501634 ], [ 120.945005120252318, 13.50549257587863 ], [ 120.94515160587531, 13.505219136049023 ], [ 120.945210200124521, 13.50514101038342 ], [ 120.945200434416321, 13.504974993344018 ], [ 120.945200434416321, 13.504808976304613 ], [ 120.945259028665504, 13.504501356496304 ], [ 120.945210200124492, 13.504247448083097 ], [ 120.944956291711293, 13.504223033812597 ], [ 120.944707266152179, 13.5043206908946 ], [ 120.944463123447179, 13.504384167997902 ], [ 120.944297106407774, 13.504174205271596 ], [ 120.944150620784768, 13.504042368210893 ], [ 120.944018783724061, 13.503895882587889 ], [ 120.943901595225668, 13.503685919861583 ], [ 120.943711163915751, 13.503544317092679 ], [ 120.943520732605847, 13.503593145633682 ], [ 120.943486552627135, 13.503451542864772 ], [ 120.943144752840126, 13.503417362886072 ], [ 120.94268088170061, 13.503519902822175 ], [ 120.942094939208602, 13.503803108359982 ], [ 120.941855679357687, 13.504154673855192 ], [ 120.941616419506786, 13.504564833599602 ], [ 120.941460168175581, 13.504906633386611 ], [ 120.941308799698476, 13.505092181842416 ], [ 120.941196494054182, 13.505453513045826 ], [ 120.941113485534473, 13.505844141373835 ], [ 120.94115743122137, 13.506078518370641 ], [ 120.941377159655872, 13.507045323482465 ], [ 120.941250205449279, 13.507250403354671 ], [ 120.941084188409874, 13.507426186102276 ], [ 120.940932819932769, 13.507611734558081 ], [ 120.940820514288461, 13.507850994408987 ], [ 120.940674028665455, 13.508017011448391 ], [ 120.940381057419444, 13.508065839989392 ], [ 120.940166211839042, 13.508148848509094 ], [ 120.939912303425842, 13.508168379925495 ], [ 120.939619332179831, 13.508080488551693 ], [ 120.939541206514221, 13.507885174387688 ], [ 120.939258000976423, 13.507797283013886 ], [ 120.939082218228819, 13.507680094515482 ], [ 120.939013858271409, 13.507543374600679 ], [ 120.938901552627115, 13.507372474707175 ], [ 120.938476744320397, 13.506908603567663 ], [ 120.938203304490798, 13.506625398029856 ], [ 120.937763847621781, 13.506293363951047 ], [ 120.937382985001975, 13.50601015841324 ], [ 120.937256030795368, 13.505912501331236 ], [ 120.937091666666703, 13.50588333333333 ] ] ] ] } },
{ "type": "Feature", "properties": { "id": "SUZ_03", "Name": "Sustainable Use Zone 03", "Area_has": 148.0, "Mgt_Zones": "Sustainable Use Zone" }, "geometry": { "type": "MultiPolygon", "coordinates": [ [ [ [ 120.967777777777798, 13.498352777777781 ], [ 120.967993597355672, 13.49847591453676 ], [ 120.968208442936074, 13.498671228700765 ], [ 120.96843305422469, 13.498993497071373 ], [ 120.968686962637889, 13.499354828274782 ], [ 120.968804151136297, 13.499686862353592 ], [ 120.968901808218291, 13.499833347976596 ], [ 120.969058059549496, 13.499794285143794 ], [ 120.969175248047904, 13.499755222310993 ], [ 120.969331499379109, 13.499804050851996 ], [ 120.969702596290716, 13.499960302183199 ], [ 120.969751424831742, 13.5001653820554 ], [ 120.969741659123542, 13.500341164803004 ], [ 120.969624470625135, 13.500477884717808 ], [ 120.969663533457933, 13.500692730298214 ], [ 120.970073693202352, 13.500975935836021 ], [ 120.970513150071355, 13.501044295793422 ], [ 120.970854949858364, 13.500966170127821 ], [ 120.971157686812575, 13.50095640441962 ], [ 120.971431126642187, 13.500917341586819 ], [ 120.971792457845595, 13.500907575878619 ], [ 120.972104960508005, 13.501034530085223 ], [ 120.972261211839211, 13.501220078541028 ], [ 120.972310040380208, 13.50133726703943 ], [ 120.972505354544211, 13.501503284078835 ], [ 120.972720200124613, 13.501552112619835 ], [ 120.97284715433122, 13.501708363951041 ], [ 120.972964342829627, 13.501913443823245 ], [ 120.973052234203422, 13.501972038072447 ], [ 120.973335439741234, 13.502040398029848 ], [ 120.973599113862647, 13.502255243610254 ], [ 120.973589348154448, 13.50246032348246 ], [ 120.973306142616636, 13.502880248935071 ], [ 120.972964342829627, 13.503231814430279 ], [ 120.97290574858043, 13.503524785676284 ], [ 120.972856920039433, 13.503641974174686 ], [ 120.972729965832826, 13.504091196751897 ], [ 120.972622543042618, 13.504442762247107 ], [ 120.972397931754017, 13.504765030617715 ], [ 120.972046366258809, 13.505175190362127 ], [ 120.971694800763601, 13.505556052981936 ], [ 120.971079561146979, 13.50605410410015 ], [ 120.97073776135997, 13.50645449813636 ], [ 120.970649869986175, 13.507069737752976 ], [ 120.97081588702558, 13.507733805910593 ], [ 120.971128389687962, 13.508139082800902 ], [ 120.971421360933959, 13.50842717119281 ], [ 120.971562963702866, 13.508720142438817 ], [ 120.971963357739085, 13.508988699414324 ], [ 120.97237840033759, 13.50917424787013 ], [ 120.972764145811496, 13.509267022098031 ], [ 120.972725082978698, 13.509154716453729 ], [ 120.972637191604903, 13.509003347976625 ], [ 120.972666488729502, 13.508925222311023 ], [ 120.972822740060707, 13.50881291666672 ], [ 120.973105945598519, 13.508900808040522 ], [ 120.973379385428117, 13.508803150958521 ], [ 120.973643059549531, 13.508744556709319 ], [ 120.974102047834947, 13.508676196751917 ], [ 120.974404784789144, 13.508500414004311 ], [ 120.974570801828577, 13.508441819755108 ], [ 120.974990727281181, 13.508324631256706 ], [ 120.975283698527193, 13.508187911341901 ], [ 120.975771983937207, 13.508187911341901 ], [ 120.97628956647182, 13.5081390828009 ], [ 120.976699726216225, 13.508148848509101 ], [ 120.977090354544245, 13.5080902542599 ], [ 120.977305200124647, 13.507963300053296 ], [ 120.977412622914855, 13.507807048722091 ], [ 120.977744656993664, 13.507650797390887 ], [ 120.977949736865867, 13.507582437433486 ], [ 120.978311068069274, 13.507894940095895 ], [ 120.978301302361075, 13.508021894302498 ], [ 120.978008331115063, 13.508158614217301 ], [ 120.977998565406864, 13.508529711128912 ], [ 120.978115753905271, 13.508812916666718 ], [ 120.978604039315286, 13.509174247870128 ], [ 120.978867713436685, 13.509389093450533 ], [ 120.978965370518694, 13.509603939030939 ], [ 120.979072793308887, 13.509848081735946 ], [ 120.979727095758292, 13.510141052981954 ], [ 120.98015678691911, 13.51078558972317 ], [ 120.980566946663515, 13.510863715388773 ], [ 120.981035700657131, 13.510902778221572 ], [ 120.981328671903142, 13.510512149893563 ], [ 120.981563048899943, 13.510121521565553 ], [ 120.981875551562354, 13.510121521565553 ], [ 120.982481025470776, 13.510473087060761 ], [ 120.982813059549585, 13.51078558972317 ], [ 120.983145093628409, 13.511273875133183 ], [ 120.983242750710417, 13.511605909211992 ], [ 120.983066967962813, 13.511723097710394 ], [ 120.982940013756206, 13.511791457667796 ], [ 120.982715402467605, 13.511771926251395 ], [ 120.982676339634793, 13.511889114749799 ], [ 120.982754465300403, 13.512006303248201 ], [ 120.982832590965998, 13.512133257454805 ], [ 120.982686105343006, 13.512396931576212 ], [ 120.982520088303602, 13.512533651491015 ], [ 120.982256414182189, 13.512631308573019 ], [ 120.982041568601787, 13.512631308573019 ], [ 120.981680237398379, 13.512562948615617 ], [ 120.981475157526162, 13.512465291533614 ], [ 120.98133843761137, 13.512269977369609 ], [ 120.981094294906356, 13.512133257454805 ], [ 120.980928277866951, 13.512211383120407 ], [ 120.980547415247145, 13.512230914536808 ], [ 120.980234912584734, 13.512152788871205 ], [ 120.979756392882919, 13.511977006123601 ], [ 120.979326701722115, 13.5119281775826 ], [ 120.978887244853098, 13.512035600372803 ], [ 120.978477085108693, 13.512230914536808 ], [ 120.978350130902086, 13.512514120074615 ], [ 120.978369662318485, 13.512709434238621 ], [ 120.978408725151283, 13.513012171192829 ], [ 120.978418490859482, 13.513324673855237 ], [ 120.978555210774289, 13.513529753727441 ], [ 120.978818884895702, 13.51343209664544 ], [ 120.979072793308902, 13.513295376730635 ], [ 120.979326701722115, 13.513207485356833 ], [ 120.979658735800925, 13.51308053115023 ], [ 120.979941941338737, 13.513139125399432 ], [ 120.980161669773238, 13.513163539669932 ], [ 120.980356983937241, 13.513153773961731 ], [ 120.980620658058655, 13.513187953940433 ], [ 120.980845269347242, 13.513290493876536 ], [ 120.98095757499155, 13.513383268104437 ], [ 120.980967340699749, 13.513505339456941 ], [ 120.980981989262048, 13.513622527955343 ], [ 120.981055232073544, 13.513764130724248 ], [ 120.981157772009652, 13.51384225638985 ], [ 120.981255429091647, 13.51387643636855 ], [ 120.981372617590054, 13.51390085063905 ], [ 120.981484923234362, 13.51385202209805 ], [ 120.981606994586855, 13.513764130724248 ], [ 120.981753480209861, 13.513808076411149 ], [ 120.981939028665664, 13.513891084930851 ], [ 120.982017154331274, 13.513998507721054 ], [ 120.982183171370679, 13.514130344781757 ], [ 120.982358954118283, 13.514359838924463 ], [ 120.982324774139585, 13.514506324547467 ], [ 120.98240289980518, 13.514643044462272 ], [ 120.982778879570887, 13.515033672790281 ], [ 120.982925365193893, 13.51499460995748 ], [ 120.983213453585805, 13.514945781416479 ], [ 120.983550370518714, 13.515048321352582 ], [ 120.983652910454808, 13.515180158413285 ], [ 120.983770098953215, 13.515121564164083 ], [ 120.98394099884672, 13.515087384185383 ], [ 120.984155844427121, 13.515150861288685 ], [ 120.984238852946817, 13.515072735623081 ], [ 120.984536707046914, 13.515185041267406 ], [ 120.984609949858424, 13.515385238285489 ], [ 120.984922452520834, 13.515502426783891 ], [ 120.984941983937233, 13.515717272364299 ], [ 120.98539120651445, 13.515990712193904 ], [ 120.985840429091667, 13.51622508919071 ], [ 120.986328714501681, 13.516420403354717 ], [ 120.986738874246086, 13.516303214856313 ], [ 120.987090439741294, 13.516322746272714 ], [ 120.987500599485699, 13.516322746272714 ], [ 120.987891227813719, 13.516518060436718 ], [ 120.988301387558124, 13.516283683439912 ], [ 120.988711547302543, 13.516264152023512 ], [ 120.989356084043749, 13.516381340521916 ], [ 120.989883432286561, 13.516478997603917 ], [ 120.990254529198182, 13.516713374600723 ], [ 120.990820940273792, 13.517104002928734 ], [ 120.990977191604998, 13.517357911341941 ], [ 120.99086000310659, 13.518021979499558 ], [ 120.990840471690191, 13.518607921991574 ], [ 120.99086000310659, 13.519135270234388 ], [ 120.990996723021397, 13.519877464057608 ], [ 120.991270162851009, 13.520600126464426 ], [ 120.991680322595414, 13.520932160543234 ], [ 120.992031888090622, 13.52116653754004 ], [ 120.992422516418628, 13.52116653754004 ], [ 120.992729929813379, 13.521261272514096 ], [ 120.993922222222196, 13.52125 ], [ 120.993502777777806, 13.523941666666669 ], [ 120.995277777777801, 13.52403333333333 ], [ 120.995602777777805, 13.520363888888889 ], [ 120.991677777777795, 13.51513611111111 ], [ 120.981930555555607, 13.50919722222222 ], [ 120.974494444444403, 13.50137777777778 ], [ 120.968916666666701, 13.496816666666669 ], [ 120.967777777777798, 13.498352777777781 ] ] ] ] } },
{ "type": "Feature", "properties": { "id": "SUZ_04", "Name": "Sustainable Use Zone 04", "Area_has": 14.2, "Mgt_Zones": "Sustainable Use Zone" }, "geometry": { "type": "MultiPolygon", "coordinates": [ [ [ [ 120.979316666666705, 13.469344444444451 ], [ 120.978302777777799, 13.470469444444451 ], [ 120.982633333333396, 13.472891666666669 ], [ 120.987344444444403, 13.47120277777778 ], [ 120.986466666666701, 13.46900555555556 ], [ 120.986216408857345, 13.469569418264014 ], [ 120.986216408857345, 13.470116297923228 ], [ 120.986126076056479, 13.470616790468492 ], [ 120.985642673500564, 13.470797456070198 ], [ 120.98516171237172, 13.471092868743254 ], [ 120.983997151668817, 13.471163670127707 ], [ 120.983718828985118, 13.471095310170305 ], [ 120.983450272009605, 13.471105075878505 ], [ 120.983052319400471, 13.471366308572861 ], [ 120.982627511093753, 13.47129062433431 ], [ 120.98210992855914, 13.470975680244852 ], [ 120.981572814608128, 13.470704681842294 ], [ 120.981353086173627, 13.470458097710239 ], [ 120.981335996184256, 13.470294522097884 ], [ 120.981184627707151, 13.47015291932898 ], [ 120.98065972089141, 13.469852623801822 ], [ 120.979614790113985, 13.469823326677222 ], [ 120.97937064740897, 13.469628012513216 ], [ 120.979331584576173, 13.469481526890213 ], [ 120.979316666666705, 13.469344444444451 ] ] ] ] } }
]
}
