{
"type": "FeatureCollection",
"name": "sablayan_brgyboundary",
"crs": { "type": "name", "properties": { "name": "urn:ogc:def:crs:OGC:1.3:CRS84" } },
"features": [
{ "type": "Feature", "properties": { "ID": 172072, "ID2": 144877, "Barangay": "Poblacion", "LandUseCat": null, "Area": 9128270 }, "geometry": { "type": "MultiPolygon", "coordinates": [ [ [ [ 120.749667379346107, 12.842668073323484 ], [ 120.749745921896789, 12.842778138979657 ], [ 120.749885344346268, 12.842986986424675 ], [ 120.749959343537398, 12.843117260251097 ], [ 120.749997986648992, 12.843245862496138 ], [ 120.750069515395467, 12.843353874676074 ], [ 120.750132218005987, 12.843434134144598 ], [ 120.750185704926508, 12.843464487566353 ], [ 120.750280118080397, 12.843550263551906 ], [ 120.750349013169441, 12.8435991198858 ], [ 120.750358166867784, 12.843693297261339 ], [ 120.750442916085888, 12.843804502558474 ], [ 120.750524627196896, 12.843870075732525 ], [ 120.750697146076874, 12.844043947592651 ], [ 120.750907730612994, 12.844223112351365 ], [ 120.751057986008163, 12.84431457231681 ], [ 120.751213042505483, 12.844415429207542 ], [ 120.75141125250363, 12.844583296762341 ], [ 120.751567810138738, 12.844682574047457 ], [ 120.75172141577346, 12.844817150161617 ], [ 120.751994432989875, 12.84491883886186 ], [ 120.752244770666636, 12.844997235241891 ], [ 120.752581982681548, 12.844962397119854 ], [ 120.752908899220031, 12.84492939121828 ], [ 120.75312402928877, 12.844834680384315 ], [ 120.753229490264303, 12.844719589310339 ], [ 120.753347098348243, 12.844659392108788 ], [ 120.753481407050572, 12.844565181784043 ], [ 120.753559607759342, 12.844458349791482 ], [ 120.753583063918711, 12.844435438699497 ], [ 120.753664816853544, 12.844296388797469 ], [ 120.7537488231727, 12.844209421233037 ], [ 120.753826853639637, 12.844197310000375 ], [ 120.753836709738465, 12.84410391743573 ], [ 120.753780702778656, 12.844049411392779 ], [ 120.753848209166804, 12.843950750909203 ], [ 120.753906914067159, 12.84385936112321 ], [ 120.753973450366374, 12.843690938979798 ], [ 120.753977982846436, 12.843681867359209 ], [ 120.753995700872011, 12.843576972866147 ], [ 120.75407553502923, 12.843481900317643 ], [ 120.754083886712138, 12.843463815495353 ], [ 120.754105640310257, 12.843432222228 ], [ 120.754178611982113, 12.843415932263872 ], [ 120.754234931689595, 12.843461392636225 ], [ 120.754291134580129, 12.843344566656086 ], [ 120.754349581578637, 12.843252370359757 ], [ 120.754370517308161, 12.843178660137486 ], [ 120.754382034581027, 12.843114237849203 ], [ 120.754468775043222, 12.843032115507183 ], [ 120.754516289545961, 12.842940754389781 ], [ 120.754545389341658, 12.842872390641714 ], [ 120.754585457125486, 12.84280904439308 ], [ 120.754594919564866, 12.842732068976732 ], [ 120.754665022371796, 12.842655506033838 ], [ 120.754720555984093, 12.842574788254899 ], [ 120.754780301542965, 12.842521244736847 ], [ 120.754848860045456, 12.842425908798194 ], [ 120.754887576740501, 12.842359929974254 ], [ 120.754935884898885, 12.842293079032464 ], [ 120.754954266458498, 12.84224293039744 ], [ 120.755024871774992, 12.842157040570751 ], [ 120.755086456004676, 12.842079813328764 ], [ 120.755114109874029, 12.842023461347019 ], [ 120.755169285508913, 12.841958073328183 ], [ 120.755233691366485, 12.841865915017339 ], [ 120.755298403975615, 12.841820901009473 ], [ 120.755359835333778, 12.841746372735065 ], [ 120.755420876634744, 12.841646211882168 ], [ 120.75551099926426, 12.841534691370272 ], [ 120.755588887101027, 12.841420405513977 ], [ 120.755675633786325, 12.841297603961255 ], [ 120.755765733986038, 12.841188833688884 ], [ 120.755853118781943, 12.841050365884902 ], [ 120.755969483950793, 12.840905434093491 ], [ 120.756015130973992, 12.840772524620798 ], [ 120.756048634564451, 12.840677961764682 ], [ 120.756050517798911, 12.840593631061653 ], [ 120.756065544597433, 12.84051099071646 ], [ 120.75609616540396, 12.840460831870811 ], [ 120.75608660896863, 12.840401812516996 ], [ 120.756111010836904, 12.840342784582267 ], [ 120.756159715738065, 12.840277820216379 ], [ 120.756168282965817, 12.840215935004482 ], [ 120.756210244260387, 12.840115729849273 ], [ 120.756308820229052, 12.840023718768643 ], [ 120.756479007614629, 12.8399171528668 ], [ 120.756669481996028, 12.839780813495082 ], [ 120.756839309857568, 12.839682548313991 ], [ 120.756980881949389, 12.839589276239069 ], [ 120.757106319780988, 12.83951600645115 ], [ 120.757285560617575, 12.839375691500717 ], [ 120.757390136757351, 12.839236498949523 ], [ 120.757451446592569, 12.83915930331481 ], [ 120.757504078595915, 12.839059586678045 ], [ 120.757561802434296, 12.838967227585309 ], [ 120.757588312597392, 12.838888705937498 ], [ 120.757586399260546, 12.838815161277841 ], [ 120.757546912370472, 12.838748918520864 ], [ 120.757485891818959, 12.838714036923198 ], [ 120.757433801001966, 12.838707743251971 ], [ 120.757354007480728, 12.838754102301454 ], [ 120.757287570271956, 12.838791659703617 ], [ 120.75715644411126, 12.838785558198696 ], [ 120.757091519208785, 12.838775518441377 ], [ 120.756794091166626, 12.838579647492963 ], [ 120.756613682821524, 12.838408615971982 ], [ 120.756489884202296, 12.838247275204427 ], [ 120.756372617290324, 12.838090607777833 ], [ 120.756325792235458, 12.838030251702698 ], [ 120.756263522284328, 12.83799400569848 ], [ 120.756205836036912, 12.837966384782741 ], [ 120.756152382873722, 12.837933889629538 ], [ 120.756154701979341, 12.837871221288211 ], [ 120.756111006604073, 12.837833414874599 ], [ 120.756048972104523, 12.837844538163187 ], [ 120.755998407446057, 12.837842314459071 ], [ 120.755940911557786, 12.837828965821465 ], [ 120.75593860653801, 12.837826739379627 ], [ 120.755899514158102, 12.837822290075311 ], [ 120.755858082771852, 12.837808934259986 ], [ 120.755784535275751, 12.837813387382861 ], [ 120.755697216600211, 12.837820063497354 ], [ 120.755633773680799, 12.837842117863483 ], [ 120.755557169802657, 12.83786844225763 ], [ 120.755473127381606, 12.837881588914513 ], [ 120.755400337921088, 12.83789922924737 ], [ 120.755348424459584, 12.837925652749927 ], [ 120.755277773401048, 12.837932254495813 ], [ 120.755198079697919, 12.837941048497093 ], [ 120.755128160958705, 12.837965187342679 ], [ 120.755126659950662, 12.837984893916547 ], [ 120.755039282858661, 12.838028387727404 ], [ 120.754952370441941, 12.838071707881131 ], [ 120.754892378719433, 12.838099763150296 ], [ 120.754825118478834, 12.838095379403818 ], [ 120.75475798198832, 12.838104019240106 ], [ 120.754686739179178, 12.838125596281388 ], [ 120.754569963243497, 12.838140866245618 ], [ 120.754531747518001, 12.838156114956623 ], [ 120.754463827257425, 12.838162817047769 ], [ 120.754412042584391, 12.838182449712345 ], [ 120.754348869049821, 12.838202129430663 ], [ 120.754302756779822, 12.838264919938636 ], [ 120.753829884782704, 12.838507798225763 ], [ 120.753799103377929, 12.838459590633212 ], [ 120.753773881818873, 12.838487053529034 ], [ 120.753743961201252, 12.838510280050496 ], [ 120.753739293216427, 12.838541818818324 ], [ 120.753764597718629, 12.838563457393251 ], [ 120.753755350958983, 12.838590697392252 ], [ 120.753674416366763, 12.838586357907381 ], [ 120.753653530862124, 12.838595783212542 ], [ 120.753662813788523, 12.838638017806332 ], [ 120.753654460127706, 12.838705289969001 ], [ 120.753587435786713, 12.838752008002992 ], [ 120.753505534322287, 12.838815202390887 ], [ 120.753431365537011, 12.838896344576924 ], [ 120.753353511629371, 12.83900771074198 ], [ 120.753214160587035, 12.839149877076393 ], [ 120.753086324719703, 12.839293896359113 ], [ 120.753026445968374, 12.839352939533624 ], [ 120.752984810799816, 12.839411741773645 ], [ 120.752912860637622, 12.839453584774811 ], [ 120.752847469091236, 12.839511209002929 ], [ 120.752767726703766, 12.839569351776401 ], [ 120.752666321669651, 12.839657544154109 ], [ 120.752614969120913, 12.839756081321896 ], [ 120.752580443636873, 12.839806606651791 ], [ 120.752538826150541, 12.83981145187707 ], [ 120.75249455998582, 12.839855870356567 ], [ 120.752395954209589, 12.839967541003107 ], [ 120.752313239993185, 12.840024462397247 ], [ 120.752241589185346, 12.84011274447572 ], [ 120.752157404130514, 12.840206476529652 ], [ 120.752077782003127, 12.840300531124633 ], [ 120.751999195560956, 12.840375652864962 ], [ 120.751891377882714, 12.840496222933437 ], [ 120.751793105975381, 12.840641316960756 ], [ 120.751701433518306, 12.84074180727011 ], [ 120.751649884104623, 12.840813820348279 ], [ 120.751568756496397, 12.840901220681459 ], [ 120.751461291622647, 12.841069448604429 ], [ 120.751389362925536, 12.841154779965398 ], [ 120.751294723923451, 12.841246873316486 ], [ 120.751238900727017, 12.841318882194797 ], [ 120.751188470955483, 12.841409879509241 ], [ 120.751113742600097, 12.841518792308149 ], [ 120.751055295301924, 12.8416219475008 ], [ 120.750994449064024, 12.84173411805855 ], [ 120.750901694356429, 12.841882094909497 ], [ 120.75080368116366, 12.84201365349977 ], [ 120.750747071025913, 12.842134935380136 ], [ 120.750656712361405, 12.842251833827319 ], [ 120.750573271034042, 12.842289598094753 ], [ 120.750398766594813, 12.842303232574514 ], [ 120.750207134901984, 12.842257308890019 ], [ 120.750020848501464, 12.842213187577331 ], [ 120.749894672603659, 12.842202062566418 ], [ 120.749805682165587, 12.842215410686956 ], [ 120.749682146379058, 12.842311950778317 ], [ 120.749622961576335, 12.842512074904874 ], [ 120.749667379346107, 12.842668073323484 ] ] ], [ [ [ 120.760230685547413, 12.83932117649748 ], [ 120.760268429173294, 12.83933799946794 ], [ 120.76032989745076, 12.839348514011341 ], [ 120.760405384794311, 12.839364285742914 ], [ 120.76048195051888, 12.839382160326345 ], [ 120.760543418774716, 12.839396880562745 ], [ 120.760613514197246, 12.839405292299071 ], [ 120.760677139274478, 12.839412652579465 ], [ 120.760743999527051, 12.839420012875658 ], [ 120.760810859763438, 12.839430527442325 ], [ 120.760866396861786, 12.839445773358305 ], [ 120.760926786704246, 12.839464699279331 ], [ 120.760991490048994, 12.839496242299997 ], [ 120.761066977279128, 12.839534093908886 ], [ 120.761133837364198, 12.839574048315301 ], [ 120.76120932451866, 12.839626619831241 ], [ 120.761362456054286, 12.839645546197646 ], [ 120.761418532340443, 12.839662369237132 ], [ 120.761477304554688, 12.839689180802552 ], [ 120.761518283345097, 12.839708106609208 ], [ 120.7615646540782, 12.839730186708056 ], [ 120.761618573559176, 12.839751215420103 ], [ 120.761681120158173, 12.839775398439466 ], [ 120.761748519522911, 12.83979905576952 ], [ 120.761811605320531, 12.839822713075973 ], [ 120.761856897683472, 12.8398405874721 ], [ 120.761943168858437, 12.839873181974076 ], [ 120.761992774772295, 12.839894210652812 ], [ 120.762040223875559, 12.839920496426741 ], [ 120.762088751370612, 12.839946782203253 ], [ 120.762127573318025, 12.839977273614089 ], [ 120.762165316895292, 12.840003559331278 ], [ 120.762206295642429, 12.840030896482807 ], [ 120.76224080403351, 12.840059285020244 ], [ 120.762260214977516, 12.840080313533988 ], [ 120.762291488198684, 12.840107650629118 ], [ 120.762344329233827, 12.840139193510435 ], [ 120.762390699945314, 12.8401654792534 ], [ 120.762458638432975, 12.840203330724222 ], [ 120.762538439241027, 12.840239079407709 ], [ 120.762613926530619, 12.840265365284342 ], [ 120.762674316410923, 12.84027693120372 ], [ 120.762753038983945, 12.840282188693379 ], [ 120.762856564589569, 12.840283240625775 ], [ 120.762987589199128, 12.8402816641443 ], [ 120.763114839440149, 12.840279561934134 ], [ 120.763244246475566, 12.840275356894576 ], [ 120.76341894601984, 12.840260637878512 ], [ 120.763569920977375, 12.840239610223179 ], [ 120.763748934240141, 12.840195451458046 ], [ 120.763845989759929, 12.840144983756158 ], [ 120.763902605606802, 12.840090835871193 ], [ 120.763983485276896, 12.840035110963143 ], [ 120.764081619291147, 12.839964666230005 ], [ 120.764167890925563, 12.839907889899099 ], [ 120.76426278963477, 12.839862679237569 ], [ 120.764451508591165, 12.839785926372132 ], [ 120.764624254994345, 12.839714432182006 ], [ 120.764703021476578, 12.839687106596124 ], [ 120.764863752447113, 12.839632141162305 ], [ 120.764960510463624, 12.839600878538699 ], [ 120.76507750505651, 12.83957537316299 ], [ 120.765215011210756, 12.839545154381355 ], [ 120.765376770059248, 12.839529383835329 ], [ 120.765625878652912, 12.839511510874246 ], [ 120.765793502299175, 12.839488214371297 ], [ 120.765957371934789, 12.839645193770448 ], [ 120.766033282029156, 12.839785139381652 ], [ 120.767465369763087, 12.839975965345156 ], [ 120.769520010661225, 12.840314374429287 ], [ 120.770449810922884, 12.840769753201375 ], [ 120.771306147107722, 12.841153782727897 ], [ 120.771721309681638, 12.840721923445727 ], [ 120.771748969038129, 12.840535128390702 ], [ 120.771715958193099, 12.840381414020115 ], [ 120.771622415778623, 12.840246282807502 ], [ 120.771367253458308, 12.840107344783441 ], [ 120.771102916475868, 12.839974633123195 ], [ 120.770687672932468, 12.839897286598296 ], [ 120.770341889146195, 12.839794836666119 ], [ 120.770054449114326, 12.83967427702968 ], [ 120.769873362000666, 12.839504592171016 ], [ 120.769764022668781, 12.839380569742996 ], [ 120.769693554628034, 12.83923415970524 ], [ 120.769664860922148, 12.839080114129459 ], [ 120.769661609918003, 12.838886464400176 ], [ 120.769776887737692, 12.838727173425299 ], [ 120.769851742430433, 12.83866451953123 ], [ 120.769940383994978, 12.838590597569278 ], [ 120.770173879794925, 12.83849954309785 ], [ 120.770426613733548, 12.838443009093181 ], [ 120.77150292986822, 12.838425121966372 ], [ 120.772590797461476, 12.838528580465461 ], [ 120.773081186965896, 12.838628447662378 ], [ 120.773408469555989, 12.838779982573623 ], [ 120.773602707672012, 12.838889551284351 ], [ 120.773752975006587, 12.839046287506465 ], [ 120.773903828090582, 12.839315201275754 ], [ 120.77415049703734, 12.83964723646821 ], [ 120.774404993670828, 12.83985084519917 ], [ 120.774732521315059, 12.839999106472455 ], [ 120.774928104852833, 12.840127329960339 ], [ 120.775059514805648, 12.84025490119889 ], [ 120.775292086335114, 12.840626019997815 ], [ 120.775416459539912, 12.840760781470459 ], [ 120.775514444657261, 12.840889308300547 ], [ 120.775637637862602, 12.840987134836309 ], [ 120.775764556076751, 12.841112480926144 ], [ 120.776046420998057, 12.841374777709621 ], [ 120.77613928454231, 12.841542999459636 ], [ 120.776193385055564, 12.841655845306462 ], [ 120.776237621498609, 12.841809897163934 ], [ 120.776324752643021, 12.841915860359135 ], [ 120.776504610524356, 12.841956651878533 ], [ 120.776763039206472, 12.841997465688886 ], [ 120.776935688784349, 12.842017872101581 ], [ 120.77709523932441, 12.8421082583539 ], [ 120.777209441887592, 12.842260460739967 ], [ 120.777315729542423, 12.842419269314288 ], [ 120.777410759051648, 12.842515464673378 ], [ 120.777905147672456, 12.842086358520447 ], [ 120.778200007013609, 12.841838954891362 ], [ 120.778627296785743, 12.841646166254337 ], [ 120.779072373515859, 12.841082190725047 ], [ 120.779382604130305, 12.841077787647691 ], [ 120.780050389131389, 12.840981915472099 ], [ 120.780267761614567, 12.841265087825143 ], [ 120.781037821417812, 12.840584048857737 ], [ 120.782045152031856, 12.839841971151369 ], [ 120.784500290648296, 12.839443575665376 ], [ 120.787669571144946, 12.839604584943265 ], [ 120.790385857746656, 12.837859997678228 ], [ 120.792895088093772, 12.83564118124427 ], [ 120.796256018277219, 12.835993073239989 ], [ 120.799692311380781, 12.835051978446726 ], [ 120.804126782542497, 12.83397503007008 ], [ 120.805596509362871, 12.829556719501991 ], [ 120.813073182442679, 12.818159359694469 ], [ 120.811525234442115, 12.817170709664854 ], [ 120.809976722124361, 12.816192535911581 ], [ 120.808430772583947, 12.815220412424786 ], [ 120.806878954365274, 12.814236449829131 ], [ 120.805330502905463, 12.813258053435959 ], [ 120.803781964628357, 12.812279801759997 ], [ 120.802234416861054, 12.811303645199029 ], [ 120.799742234160775, 12.815115389336324 ], [ 120.798193440928941, 12.814122554005131 ], [ 120.796644932598213, 12.81314426396802 ], [ 120.795098014202551, 12.812167863786291 ], [ 120.793543963251096, 12.811190078293137 ], [ 120.791999598517052, 12.810210877625707 ], [ 120.790453405715738, 12.80923409632946 ], [ 120.789448455038723, 12.808138836459431 ], [ 120.789010313543457, 12.811825772520404 ], [ 120.788649659100471, 12.812991414280521 ], [ 120.786673022564145, 12.812800380400978 ], [ 120.785852332881319, 12.812681013636068 ], [ 120.785846940609289, 12.812742002651898 ], [ 120.785849097166192, 12.81278616713238 ], [ 120.785844783156477, 12.812872392958386 ], [ 120.785825371521199, 12.812985958567525 ], [ 120.785812430350063, 12.813077441950995 ], [ 120.785803802756902, 12.813166822255937 ], [ 120.785797332098468, 12.813226759615732 ], [ 120.78579301795375, 12.813339273607181 ], [ 120.785793017662328, 12.813396056360881 ], [ 120.78571914604575, 12.813742535669206 ], [ 120.785678166466568, 12.813877131387265 ], [ 120.785609148506367, 12.814049581964293 ], [ 120.785484053859619, 12.814283020815347 ], [ 120.785380527264749, 12.814474398445965 ], [ 120.78529209820897, 12.814655260734989 ], [ 120.785266216125748, 12.814787752986847 ], [ 120.785246804425668, 12.814913936044951 ], [ 120.785218765655941, 12.815027500690951 ], [ 120.785190726843069, 12.815149477486161 ], [ 120.785162688051756, 12.815267248124165 ], [ 120.785138962590125, 12.815431285782525 ], [ 120.785123864565165, 12.81553643807198 ], [ 120.785097982600632, 12.815645796356097 ], [ 120.785078570824908, 12.815786700298004 ], [ 120.785059158865678, 12.815963355899328 ], [ 120.785044060808275, 12.816074817093742 ], [ 120.7850440600849, 12.816215720891588 ], [ 120.785026805125156, 12.816350315405204 ], [ 120.785009550133012, 12.816491218963588 ], [ 120.784992295086838, 12.816642637631382 ], [ 120.784959942264038, 12.816850838108255 ], [ 120.784940530131948, 12.817061141511113 ], [ 120.784929745101849, 12.817277753877976 ], [ 120.784918959985319, 12.817511190301884 ], [ 120.784908175387045, 12.817643681125833 ], [ 120.784888763924386, 12.817723596128481 ], [ 120.78488013627171, 12.8178245414373 ], [ 120.784882292310215, 12.81796965031984 ], [ 120.784877978354288, 12.81804535924195 ], [ 120.784839156076885, 12.818079007461959 ], [ 120.78479602001633, 12.818154716159182 ], [ 120.784789549330782, 12.818219909893035 ], [ 120.784793862563191, 12.818285103663325 ], [ 120.784845624991434, 12.818358709744629 ], [ 120.784852094845462, 12.818455448828603 ], [ 120.784839153064041, 12.8186657509233 ], [ 120.784825672078554, 12.81887763010387 ], [ 120.784823514647016, 12.819003811197925 ], [ 120.78482135706966, 12.819158382954349 ], [ 120.784818121311105, 12.819271945808799 ], [ 120.784821356038293, 12.81935922095896 ], [ 120.784803023037597, 12.819425465829436 ], [ 120.784760965595581, 12.819457010834894 ], [ 120.784753416610002, 12.819504328610348 ], [ 120.784765278757789, 12.819535873872608 ], [ 120.784798708692833, 12.819576882796696 ], [ 120.784796551720234, 12.819613685512554 ], [ 120.784792237785865, 12.81968518791596 ], [ 120.784786845524494, 12.819744072223834 ], [ 120.784771366685391, 12.819778734057882 ], [ 120.784710279426221, 12.819798750143431 ], [ 120.784682240996545, 12.819846067753328 ], [ 120.784690867904075, 12.819890231019956 ], [ 120.78473292501134, 12.819923879393423 ], [ 120.784768511848768, 12.819941755155483 ], [ 120.784774982042919, 12.819972248831382 ], [ 120.78477552107951, 12.820003268226619 ], [ 120.78478199086868, 12.82011262473077 ], [ 120.78477120641071, 12.820217775086624 ], [ 120.784756108407137, 12.820318719363453 ], [ 120.784738853533611, 12.820436487637037 ], [ 120.784710814418091, 12.820617345942308 ], [ 120.784708656522, 12.820833955292343 ], [ 120.784682773758007, 12.821098933352134 ], [ 120.784659048004414, 12.821319748178212 ], [ 120.784637479466397, 12.821456442939439 ], [ 120.784611597404435, 12.821584725619951 ], [ 120.784587872169283, 12.821704596264587 ], [ 120.784557676540118, 12.821832878797283 ], [ 120.784536108002087, 12.82196957327985 ], [ 120.784510226058913, 12.822074722785354 ], [ 120.784486500845333, 12.822190387214153 ], [ 120.784464932339716, 12.822320772532137 ], [ 120.784445520844514, 12.822406995018556 ], [ 120.784418560628367, 12.822489011460581 ], [ 120.784377581167675, 12.822600469637999 ], [ 120.7843366018474, 12.822684588934772 ], [ 120.784286995079484, 12.822829694759934 ], [ 120.784241701954315, 12.822960079629365 ], [ 120.784198565731629, 12.823067331619665 ], [ 120.784146802363779, 12.823176686504604 ], [ 120.784086411742692, 12.823309174101508 ], [ 120.784030334678022, 12.823443764630804 ], [ 120.783957002955717, 12.823654062259436 ], [ 120.78388367141703, 12.82382860909606 ], [ 120.783810340029646, 12.823973714144252 ], [ 120.7837456358846, 12.824097789399049 ], [ 120.783657206904024, 12.824263923957602 ], [ 120.783491133012049, 12.824566751201031 ], [ 120.783368195548121, 12.824722370428915 ], [ 120.783330990531525, 12.824819632593558 ], [ 120.783326676553813, 12.824899545392752 ], [ 120.783312657114806, 12.824966840310477 ], [ 120.78325981539291, 12.82506883397954 ], [ 120.783132564026857, 12.825289644810418 ], [ 120.783029037345074, 12.825497837783479 ], [ 120.78294060830504, 12.825675537709756 ], [ 120.782856492794394, 12.825860597894074 ], [ 120.782779926058666, 12.826039349102404 ], [ 120.782710908243772, 12.826183401418181 ], [ 120.78265590977071, 12.826279085712214 ], [ 120.782599833019319, 12.82635268892243 ], [ 120.782536207552383, 12.826421034684031 ], [ 120.78248120916038, 12.826500946723861 ], [ 120.782401407470758, 12.826636586905693 ], [ 120.782303273028859, 12.826790102023347 ], [ 120.782222932086611, 12.826936782542768 ], [ 120.782119405458843, 12.827134459403389 ], [ 120.782089210002397, 12.827229091983895 ], [ 120.782074111804135, 12.827367886515354 ], [ 120.782056857081642, 12.8274562102304 ], [ 120.782022347658213, 12.827628651675854 ], [ 120.781955486481024, 12.827801092843046 ], [ 120.781890782173804, 12.827956710358663 ], [ 120.781849802680583, 12.828074474940598 ], [ 120.781756520588345, 12.828308426677983 ], [ 120.781683189211662, 12.828451426203737 ], [ 120.781576427473283, 12.828636484234185 ], [ 120.781539761487764, 12.828765814669252 ], [ 120.781507408961374, 12.828916174410629 ], [ 120.781487997166124, 12.829060751058146 ], [ 120.781465350365764, 12.829172206415327 ], [ 120.781431919706876, 12.829272095543567 ], [ 120.78140495957706, 12.829337286296205 ], [ 120.781373685863869, 12.829405631407086 ], [ 120.781335803529473, 12.829515502789524 ], [ 120.78131653026135, 12.829568608221212 ], [ 120.781303589370708, 12.829605409422518 ], [ 120.781288491685686, 12.82964431353674 ], [ 120.781270158814522, 12.82968532055758 ], [ 120.781228101307676, 12.829729481846728 ], [ 120.781192514043539, 12.82979467243813 ], [ 120.781123411235725, 12.829860677794379 ], [ 120.780876895087047, 12.830063233696258 ], [ 120.780703842807526, 12.830177839299608 ], [ 120.780604756494853, 12.830267061394094 ], [ 120.780507476408204, 12.83030343921801 ], [ 120.780392344454143, 12.830355098089052 ], [ 120.7802996022792, 12.830448677687336 ], [ 120.78016480266767, 12.830572749402016 ], [ 120.780036473325808, 12.830712592988306 ], [ 120.779911379321476, 12.830820892727818 ], [ 120.779817558776344, 12.83091026631074 ], [ 120.779712954210652, 12.831019617525266 ], [ 120.77963962317439, 12.831096373638319 ], [ 120.779489726050826, 12.831225702248171 ], [ 120.779356004960817, 12.831324538607072 ], [ 120.779249243762848, 12.831404448832979 ], [ 120.779114496521657, 12.831505475989896 ], [ 120.778978566434574, 12.831596864073868 ], [ 120.778840531723446, 12.831706214824408 ], [ 120.778714359403011, 12.831799793754499 ], [ 120.778595735835964, 12.831891269776962 ], [ 120.778471720104577, 12.832022701015225 ], [ 120.778383291215846, 12.832170955624237 ], [ 120.778353095856644, 12.832246660145762 ], [ 120.778260353665559, 12.832343393399828 ], [ 120.77820427706547, 12.832387554152849 ], [ 120.778078104669461, 12.832495853165719 ], [ 120.778010917681485, 12.832560357384823 ], [ 120.777931442764569, 12.832616769455537 ], [ 120.777839778986902, 12.832709296765932 ], [ 120.777795564626302, 12.832767126382352 ], [ 120.777751350108957, 12.832855448068051 ], [ 120.777730860346125, 12.832917483571531 ], [ 120.777713605596503, 12.833011062589966 ], [ 120.777706056410807, 12.833097281471398 ], [ 120.7776995855791, 12.833190860476323 ], [ 120.777669390165855, 12.83327707918402 ], [ 120.777633802809845, 12.833360143488635 ], [ 120.777587431584607, 12.833433744674828 ], [ 120.777544295453666, 12.833523117580018 ], [ 120.777503316030618, 12.833627210734219 ], [ 120.777448317438655, 12.833746024039074 ], [ 120.777387926990414, 12.833844859770352 ], [ 120.777327536574631, 12.833937386783662 ], [ 120.777262832602489, 12.834027810849243 ], [ 120.7771560711776, 12.834151880936835 ], [ 120.777054701825193, 12.834253870641399 ], [ 120.776929607642643, 12.834396866530497 ], [ 120.776836865473214, 12.834489393180517 ], [ 120.776732260999466, 12.834580868293918 ], [ 120.77662118615882, 12.834675497672389 ], [ 120.776463740325326, 12.834798515746552 ], [ 120.776336489515955, 12.834911019485576 ], [ 120.776204925177296, 12.835016163058821 ], [ 120.776062576796434, 12.835145489690023 ], [ 120.77586523034249, 12.835292690477845 ], [ 120.775705627801173, 12.835400988073951 ], [ 120.775544946938339, 12.835495616898161 ], [ 120.775379952589404, 12.835574474070556 ], [ 120.77523329096033, 12.835641765475728 ], [ 120.775049963956477, 12.835719571072445 ], [ 120.774888204766739, 12.835801582506832 ], [ 120.77473399430329, 12.835886748267008 ], [ 120.774560372674202, 12.83599399409985 ], [ 120.774439592529191, 12.836045513955545 ], [ 120.774339301655161, 12.836130679899989 ], [ 120.774230383706325, 12.83620427996553 ], [ 120.774129014526949, 12.836272622863088 ], [ 120.774010391116903, 12.836333605601153 ], [ 120.773841083217178, 12.836409308180752 ], [ 120.773707362435601, 12.836448210655135 ], [ 120.773597366376052, 12.836467135958571 ], [ 120.773502467833922, 12.836479752719967 ], [ 120.773406490916273, 12.83648921516783 ], [ 120.773296494975625, 12.836485008879842 ], [ 120.773189734226577, 12.836477648300081 ], [ 120.773085130309752, 12.836460824807128 ], [ 120.772993467067337, 12.836449258557311 ], [ 120.772858668169675, 12.836434537785184 ], [ 120.772704458182034, 12.836427176969083 ], [ 120.772580443110371, 12.836430330663555 ], [ 120.772384175794457, 12.836432432564257 ], [ 120.772243984889258, 12.836427174689767 ], [ 120.772142616072145, 12.836425071315755 ], [ 120.772007817152883, 12.836414556286973 ], [ 120.771878410246615, 12.836393526922039 ], [ 120.771743611408453, 12.836367240346837 ], [ 120.771637929207984, 12.836329388111432 ], [ 120.771471857229656, 12.836259992468751 ], [ 120.771364018364494, 12.836199008591926 ], [ 120.771234611744674, 12.836122253033077 ], [ 120.771110597105434, 12.836041291726582 ], [ 120.771025404451606, 12.835983462222767 ], [ 120.77091756564046, 12.835911963896343 ], [ 120.770804334816404, 12.835850979908455 ], [ 120.770692182443554, 12.835778430084199 ], [ 120.770608068267947, 12.835703777499493 ], [ 120.770508856747838, 12.835601787390463 ], [ 120.770425821077495, 12.835505054520086 ], [ 120.770350334117197, 12.835414630292076 ], [ 120.770256514280419, 12.835366263566698 ], [ 120.770158380800851, 12.835332616980892 ], [ 120.77008612870253, 12.835303176282016 ], [ 120.769984760069221, 12.835265323907883 ], [ 120.769854274933309, 12.835212751207575 ], [ 120.76973349538838, 12.83514756124697 ], [ 120.769627813323027, 12.835083422785907 ], [ 120.769574972417317, 12.835026644663985 ], [ 120.769524288392418, 12.834950940579294 ], [ 120.769490858544259, 12.834893111080984 ], [ 120.769472526121675, 12.834846847514378 ], [ 120.76946282082794, 12.83480163542488 ], [ 120.769469291383984, 12.834761680622783 ], [ 120.769474683645498, 12.834702799829728 ], [ 120.769477089857602, 12.834659861978762 ], [ 120.769439871381678, 12.834606636612994 ], [ 120.769344697164101, 12.834460740479296 ], [ 120.769237918395405, 12.834303009297148 ], [ 120.769124539916078, 12.834142514253081 ], [ 120.769055697883644, 12.83401365473763 ], [ 120.768929477023363, 12.833738446833957 ], [ 120.768838823754791, 12.833414455745634 ], [ 120.768762473997029, 12.833077311671154 ], [ 120.76871543528263, 12.832907001428845 ], [ 120.76866885984866, 12.832683884137193 ], [ 120.768727184754482, 12.832589354042019 ], [ 120.768807170729843, 12.832445337559379 ], [ 120.768768349025308, 12.832367529850233 ], [ 120.768685313527698, 12.832237149221699 ], [ 120.768624924387183, 12.832081533735904 ], [ 120.768574240610675, 12.831957461848127 ], [ 120.768514929807907, 12.831812360749016 ], [ 120.768456697267283, 12.831692494514844 ], [ 120.768374740091161, 12.831575782475408 ], [ 120.768258274561546, 12.83142332067418 ], [ 120.768151514449954, 12.831291887981303 ], [ 120.768070635600779, 12.831187793257993 ], [ 120.767960640335417, 12.831052154591724 ], [ 120.767898094168189, 12.830943854023761 ], [ 120.767925054292306, 12.830879715147079 ], [ 120.767967111788025, 12.830837656979003 ], [ 120.767985444534773, 12.830820833717269 ], [ 120.76799083665037, 12.830790341414815 ], [ 120.767998385592691, 12.830751437440661 ], [ 120.768005934599856, 12.830699915939999 ], [ 120.767998386078801, 12.830656806036218 ], [ 120.767990837503746, 12.830624210729114 ], [ 120.76798544589046, 12.830556917228893 ], [ 120.767987603333012, 12.830428639005778 ], [ 120.767995153004478, 12.830247787651574 ], [ 120.768011329183722, 12.830188905855122 ], [ 120.768001624186937, 12.830085862490117 ], [ 120.767990840539142, 12.830033289299593 ], [ 120.767972508251404, 12.829960738261578 ], [ 120.767943029957195, 12.829905567627671 ], [ 120.767923981150361, 12.829857694611075 ], [ 120.767898171442368, 12.829827738724692 ], [ 120.767883002564929, 12.82979881244059 ], [ 120.767856152857192, 12.829746359959522 ], [ 120.767783252029531, 12.829661595879509 ], [ 120.767727175926694, 12.829609022376292 ], [ 120.767643061696816, 12.829544882609841 ], [ 120.767582672145679, 12.829469176827311 ], [ 120.767493165875905, 12.829420808980238 ], [ 120.767400424468562, 12.829365080848444 ], [ 120.767335721145017, 12.829329330693902 ], [ 120.767241901205466, 12.829300940651773 ], [ 120.767132983802512, 12.829268344667607 ], [ 120.767072594154158, 12.829211565195774 ], [ 120.767042399275923, 12.82919369011891 ], [ 120.766961520000024, 12.829172660390745 ], [ 120.766818633020947, 12.829185803014305 ], [ 120.766671971759692, 12.829181596423293 ], [ 120.766480017924692, 12.829200521868609 ], [ 120.766154570382056, 12.829296409698788 ], [ 120.766017275694196, 12.829329818528304 ], [ 120.765948994256618, 12.829317278176351 ], [ 120.765893670634242, 12.829290151767392 ], [ 120.765833992048144, 12.829256846441892 ], [ 120.765770900532644, 12.829238530189098 ], [ 120.765668757869051, 12.829249611488471 ], [ 120.765509465318004, 12.829200517068337 ], [ 120.765427507650344, 12.829179487335441 ], [ 120.765235014827425, 12.829157931320855 ], [ 120.765183252059529, 12.82915057079917 ], [ 120.765148743452244, 12.829164239693171 ], [ 120.765134724159211, 12.829203143880743 ], [ 120.7651304102951, 12.829260974500482 ], [ 120.765050608849407, 12.829349297241041 ], [ 120.764962180193862, 12.829452340422261 ], [ 120.764864137796224, 12.829629939769257 ], [ 120.764790420451646, 12.829748683188461 ], [ 120.764790169699083, 12.829753424049724 ], [ 120.764750423336764, 12.829825671854307 ], [ 120.764766780046415, 12.829894607674989 ], [ 120.764766494225512, 12.829899501046233 ], [ 120.76476462213904, 12.829975646781294 ], [ 120.764725187319385, 12.830028928405245 ], [ 120.76471510890542, 12.830103174183265 ], [ 120.764720875582157, 12.83020355036478 ], [ 120.76475991422565, 12.83031342247183 ], [ 120.764839924309186, 12.83041828983816 ], [ 120.764940690553289, 12.830560770950497 ], [ 120.765050305923253, 12.830654765437345 ], [ 120.765102174310854, 12.830723966831 ], [ 120.765160427137744, 12.830838092633687 ], [ 120.765134028508655, 12.830901301020164 ], [ 120.765061129492381, 12.830936818625462 ], [ 120.765028601364151, 12.831114693731681 ], [ 120.764943434155896, 12.831340626880957 ], [ 120.764954994301306, 12.831397366792439 ], [ 120.765007644466706, 12.831421236811613 ], [ 120.765067117407867, 12.831462688822288 ], [ 120.765073902020944, 12.8314777275172 ], [ 120.765052235463813, 12.831523532650333 ], [ 120.764978848088717, 12.831588646234204 ], [ 120.764964634376724, 12.831645926216078 ], [ 120.764986707484582, 12.831721886064196 ], [ 120.764986506869931, 12.831726411880695 ], [ 120.764915646150925, 12.83173838573968 ], [ 120.764830530170443, 12.83170735570741 ], [ 120.764748406466026, 12.831765129502246 ], [ 120.764721689757081, 12.831841661419244 ], [ 120.764694763302188, 12.831950379490584 ], [ 120.764663661254843, 12.832104658385422 ], [ 120.764658618896831, 12.832168754152972 ], [ 120.764678857850981, 12.832663756463669 ], [ 120.764766995878986, 12.833088329347953 ], [ 120.764927927453371, 12.833594680008019 ], [ 120.765144312646143, 12.834065433327856 ], [ 120.765380405690919, 12.834240146422244 ], [ 120.76546792136017, 12.834237515898637 ], [ 120.765560663118421, 12.834224899013863 ], [ 120.765593013991364, 12.834396284704185 ], [ 120.765529388514167, 12.834466731168559 ], [ 120.765450395823024, 12.834562675053443 ], [ 120.765396475815137, 12.834644161677007 ], [ 120.76534767811016, 12.834736951314037 ], [ 120.765282974003497, 12.834853661160674 ], [ 120.765204250771177, 12.834976679536986 ], [ 120.765116900355991, 12.83510916078526 ], [ 120.765011217096784, 12.835277390867127 ], [ 120.764943277766108, 12.835403563410686 ], [ 120.764859162634352, 12.835515015652234 ], [ 120.764766420416933, 12.835617004846295 ], [ 120.764700638112913, 12.83569586247153 ], [ 120.764626228712515, 12.835767359957288 ], [ 120.764548584169162, 12.835832548775144 ], [ 120.764459077343204, 12.835892480325679 ], [ 120.764379276064886, 12.835948206157495 ], [ 120.764310258763871, 12.835992366213267 ], [ 120.764249868651135, 12.836026011926212 ], [ 120.764188400319512, 12.836026011622057 ], [ 120.764136637540958, 12.836020754176888 ], [ 120.764027719430601, 12.836125897397888 ], [ 120.763933899037553, 12.836185828857136 ], [ 120.763849784181303, 12.836243657476365 ], [ 120.763791550798132, 12.836287817533588 ], [ 120.763750571737518, 12.836321463303042 ], [ 120.763683711166053, 12.836376137667457 ], [ 120.763636800904706, 12.836418720603215 ], [ 120.763563469842069, 12.836500732247069 ], [ 120.763462100495786, 12.836601669563146 ], [ 120.763380142363772, 12.836671063883747 ], [ 120.763308968160359, 12.836738355368908 ], [ 120.763207598857363, 12.836830881114276 ], [ 120.763134267881142, 12.836896069677685 ], [ 120.763017801028397, 12.837001212495224 ], [ 120.762897020651707, 12.837097943781073 ], [ 120.762707222941629, 12.837245143462759 ], [ 120.762603696941568, 12.837320846093361 ], [ 120.762515268448013, 12.837392343047576 ], [ 120.762405272108097, 12.837465942738294 ], [ 120.762312530123083, 12.837522719588796 ], [ 120.762237042460626, 12.837568982198635 ], [ 120.762139986876107, 12.837632067591079 ], [ 120.761997638782717, 12.837705667051519 ], [ 120.761863917823547, 12.837779266533083 ], [ 120.761723726448935, 12.83786548312264 ], [ 120.761624514070064, 12.837930671289667 ], [ 120.761518831318881, 12.838000065125955 ], [ 120.761436873230124, 12.838061047626356 ], [ 120.761298838714708, 12.838132544124548 ], [ 120.761175901673425, 12.838206143534483 ], [ 120.76104865102181, 12.838288154328328 ], [ 120.760955908928821, 12.838365959554196 ], [ 120.760921399981186, 12.838445867899482 ], [ 120.760910615609504, 12.838534187755362 ], [ 120.760908458123566, 12.838670873257366 ], [ 120.760906300443025, 12.838845410024049 ], [ 120.76090629943802, 12.839040975184835 ], [ 120.760901985114415, 12.839188174646516 ], [ 120.76087178980957, 12.839253362812036 ], [ 120.760815713253223, 12.839289110958131 ], [ 120.760725128300379, 12.839297521902891 ], [ 120.760580623845016, 12.839289109794739 ], [ 120.760401610885069, 12.839274388970344 ], [ 120.760289458269582, 12.839249154233016 ], [ 120.760233920998331, 12.839267553883039 ], [ 120.760219901759257, 12.839295942266503 ], [ 120.760230685547413, 12.83932117649748 ] ] ] ] } }
]
}
