{
"type": "FeatureCollection",
"name": "sablayan_mangrove",
"crs": { "type": "name", "properties": { "name": "urn:ogc:def:crs:OGC:1.3:CRS84" } },
"features": [
{ "type": "Feature", "properties": { "begin": "2", "end": "264", "area_ha": 10.697 }, "geometry": { "type": "MultiPolygon", "coordinates": [ [ [ [ 120.766401, 12.83132 ], [ 120.766327, 12.831312 ], [ 120.766252, 12.831313 ], [ 120.766178, 12.831322 ], [ 120.766109, 12.83134 ], [ 120.766048, 12.83137 ], [ 120.765997, 12.831411 ], [ 120.765953, 12.83146 ], [ 120.765853, 12.83158 ], [ 120.765827, 12.831616 ], [ 120.765804, 12.831655 ], [ 120.765783, 12.831697 ], [ 120.765713, 12.831865 ], [ 120.765678, 12.831939 ], [ 120.765664, 12.831976 ], [ 120.765655, 12.832019 ], [ 120.765653, 12.832064 ], [ 120.765658, 12.832108 ], [ 120.765671, 12.83215 ], [ 120.765684, 12.832176 ], [ 120.765699, 12.832201 ], [ 120.765736, 12.832248 ], [ 120.765758, 12.83227 ], [ 120.765782, 12.832291 ], [ 120.765833, 12.832329 ], [ 120.765876, 12.832354 ], [ 120.766011, 12.832418 ], [ 120.766117, 12.832473 ], [ 120.76616, 12.832499 ], [ 120.766188, 12.832526 ], [ 120.766195, 12.832557 ], [ 120.766179, 12.832587 ], [ 120.766142, 12.832609 ], [ 120.766089, 12.832626 ], [ 120.766046, 12.832636 ], [ 120.765896, 12.832665 ], [ 120.76584, 12.832679 ], [ 120.765786, 12.832696 ], [ 120.765738, 12.832719 ], [ 120.765698, 12.832749 ], [ 120.765673, 12.83278 ], [ 120.765654, 12.832816 ], [ 120.765641, 12.832856 ], [ 120.765633, 12.832898 ], [ 120.765629, 12.832942 ], [ 120.765631, 12.832985 ], [ 120.765637, 12.833029 ], [ 120.765648, 12.83307 ], [ 120.765664, 12.833109 ], [ 120.765685, 12.833144 ], [ 120.765755, 12.833235 ], [ 120.765772, 12.833261 ], [ 120.765796, 12.833307 ], [ 120.765815, 12.833357 ], [ 120.765831, 12.833408 ], [ 120.765844, 12.83346 ], [ 120.765861, 12.833541 ], [ 120.765866, 12.833571 ], [ 120.765868, 12.833601 ], [ 120.765867, 12.833631 ], [ 120.765864, 12.833661 ], [ 120.765858, 12.83369 ], [ 120.765846, 12.833727 ], [ 120.76582, 12.833802 ], [ 120.765809, 12.833844 ], [ 120.765802, 12.833888 ], [ 120.765797, 12.833934 ], [ 120.765796, 12.833991 ], [ 120.765798, 12.834049 ], [ 120.765805, 12.834105 ], [ 120.765817, 12.834159 ], [ 120.765835, 12.834209 ], [ 120.765855, 12.834248 ], [ 120.765901, 12.834322 ], [ 120.765933, 12.83438 ], [ 120.765996, 12.834501 ], [ 120.766016, 12.834543 ], [ 120.766064, 12.834663 ], [ 120.766075, 12.834697 ], [ 120.76609, 12.834751 ], [ 120.7661, 12.834807 ], [ 120.766107, 12.834866 ], [ 120.766111, 12.834926 ], [ 120.766112, 12.835007 ], [ 120.76611, 12.835071 ], [ 120.766104, 12.835134 ], [ 120.766095, 12.835195 ], [ 120.766081, 12.835252 ], [ 120.766062, 12.835305 ], [ 120.766047, 12.835336 ], [ 120.766012, 12.835393 ], [ 120.765993, 12.835419 ], [ 120.765951, 12.835469 ], [ 120.765906, 12.835516 ], [ 120.765858, 12.83556 ], [ 120.765807, 12.835601 ], [ 120.76578, 12.83562 ], [ 120.765724, 12.835657 ], [ 120.765695, 12.835674 ], [ 120.765646, 12.835698 ], [ 120.765542, 12.835741 ], [ 120.765492, 12.835765 ], [ 120.765445, 12.835791 ], [ 120.76541, 12.835818 ], [ 120.765377, 12.835846 ], [ 120.765298, 12.83592 ], [ 120.765254, 12.835967 ], [ 120.765223, 12.836011 ], [ 120.765197, 12.836058 ], [ 120.765146, 12.836155 ], [ 120.765119, 12.836202 ], [ 120.765041, 12.836309 ], [ 120.764936, 12.836483 ], [ 120.764876, 12.836563 ], [ 120.764795, 12.836664 ], [ 120.764777, 12.836691 ], [ 120.764748, 12.836749 ], [ 120.764726, 12.836812 ], [ 120.764715, 12.836854 ], [ 120.764706, 12.836895 ], [ 120.764696, 12.836962 ], [ 120.764694, 12.836989 ], [ 120.764698, 12.837025 ], [ 120.764708, 12.837058 ], [ 120.764725, 12.837088 ], [ 120.764755, 12.837119 ], [ 120.764793, 12.837146 ], [ 120.764928, 12.837219 ], [ 120.765003, 12.837264 ], [ 120.765043, 12.837285 ], [ 120.765108, 12.837312 ], [ 120.765321, 12.837378 ], [ 120.765365, 12.837396 ], [ 120.765407, 12.837416 ], [ 120.765444, 12.83744 ], [ 120.765491, 12.837485 ], [ 120.765531, 12.837537 ], [ 120.765581, 12.837609 ], [ 120.765608, 12.837643 ], [ 120.765639, 12.837674 ], [ 120.765672, 12.837702 ], [ 120.765757, 12.83777 ], [ 120.765811, 12.837807 ], [ 120.765841, 12.837826 ], [ 120.765875, 12.837844 ], [ 120.765913, 12.837862 ], [ 120.765954, 12.837878 ], [ 120.766013, 12.837899 ], [ 120.766135, 12.83794 ], [ 120.766223, 12.837972 ], [ 120.766299, 12.838005 ], [ 120.766409, 12.838064 ], [ 120.766434, 12.838074 ], [ 120.766451, 12.83808 ], [ 120.766459, 12.83808 ], [ 120.766459, 12.838073 ], [ 120.766465, 12.838056 ], [ 120.766476, 12.838032 ], [ 120.766514, 12.837965 ], [ 120.766536, 12.837922 ], [ 120.766558, 12.837872 ], [ 120.766578, 12.837816 ], [ 120.766597, 12.837754 ], [ 120.766618, 12.837671 ], [ 120.766674, 12.83743 ], [ 120.766692, 12.837367 ], [ 120.766713, 12.83731 ], [ 120.766741, 12.83726 ], [ 120.766767, 12.837225 ], [ 120.766892, 12.837087 ], [ 120.766917, 12.837056 ], [ 120.766938, 12.837023 ], [ 120.76695, 12.836996 ], [ 120.766959, 12.836966 ], [ 120.766969, 12.836904 ], [ 120.76697, 12.836872 ], [ 120.766969, 12.83684 ], [ 120.766965, 12.836808 ], [ 120.766959, 12.836776 ], [ 120.76695, 12.836745 ], [ 120.766897, 12.836586 ], [ 120.76688, 12.836514 ], [ 120.766867, 12.836436 ], [ 120.766858, 12.836354 ], [ 120.766848, 12.836199 ], [ 120.766844, 12.836058 ], [ 120.766842, 12.835914 ], [ 120.766844, 12.83578 ], [ 120.766848, 12.835648 ], [ 120.766854, 12.835561 ], [ 120.76686, 12.835494 ], [ 120.766869, 12.835429 ], [ 120.76688, 12.835367 ], [ 120.766895, 12.835309 ], [ 120.766915, 12.835255 ], [ 120.766935, 12.835214 ], [ 120.766979, 12.835136 ], [ 120.767, 12.835095 ], [ 120.767057, 12.834968 ], [ 120.767078, 12.834928 ], [ 120.767101, 12.83489 ], [ 120.767127, 12.834854 ], [ 120.767182, 12.834786 ], [ 120.767297, 12.834625 ], [ 120.767353, 12.834542 ], [ 120.767373, 12.834516 ], [ 120.767433, 12.834438 ], [ 120.767452, 12.834411 ], [ 120.767484, 12.834353 ], [ 120.76751, 12.834289 ], [ 120.767522, 12.834257 ], [ 120.767544, 12.834193 ], [ 120.767553, 12.834161 ], [ 120.76756, 12.834127 ], [ 120.767565, 12.834093 ], [ 120.767569, 12.834041 ], [ 120.767568, 12.833988 ], [ 120.767562, 12.833937 ], [ 120.767551, 12.833887 ], [ 120.76753, 12.833825 ], [ 120.767504, 12.833763 ], [ 120.76749, 12.833733 ], [ 120.767474, 12.833704 ], [ 120.767438, 12.83365 ], [ 120.767399, 12.833597 ], [ 120.767378, 12.833572 ], [ 120.767315, 12.833497 ], [ 120.767269, 12.833451 ], [ 120.767218, 12.83341 ], [ 120.767147, 12.833358 ], [ 120.767113, 12.833331 ], [ 120.767083, 12.833301 ], [ 120.767001, 12.833206 ], [ 120.766975, 12.833173 ], [ 120.766953, 12.833139 ], [ 120.766933, 12.833093 ], [ 120.76692, 12.833042 ], [ 120.766912, 12.83299 ], [ 120.766908, 12.832936 ], [ 120.766909, 12.832884 ], [ 120.766915, 12.832774 ], [ 120.766914, 12.832729 ], [ 120.766911, 12.832683 ], [ 120.766903, 12.832613 ], [ 120.766896, 12.832538 ], [ 120.766892, 12.832458 ], [ 120.766883, 12.832115 ], [ 120.766876, 12.831972 ], [ 120.766869, 12.831902 ], [ 120.766859, 12.831836 ], [ 120.766846, 12.831773 ], [ 120.766827, 12.831715 ], [ 120.766813, 12.831683 ], [ 120.76678, 12.831623 ], [ 120.766762, 12.831595 ], [ 120.766723, 12.831541 ], [ 120.76668, 12.831491 ], [ 120.766634, 12.831444 ], [ 120.766587, 12.8314 ], [ 120.766533, 12.831362 ], [ 120.766503, 12.831348 ], [ 120.766471, 12.831336 ], [ 120.766401, 12.83132 ] ] ] ] } }
]
}
