{
"type": "FeatureCollection",
"name": "sablayan_vuln",
"crs": { "type": "name", "properties": { "name": "urn:ogc:def:crs:OGC:1.3:CRS84" } },
"features": [
{ "type": "Feature", "properties": { "Type of Di": "Physical  Psychosocial", "_id": "687730674", "Type of Vu": "N/A" }, "geometry": { "type": "Point", "coordinates": [ 120.767606, 12.837776 ] } },
{ "type": "Feature", "properties": { "Type of Di": "N/A", "_id": "688697676", "Type of Vu": "Senior" }, "geometry": { "type": "Point", "coordinates": [ 120.76563, 12.834833 ] } },
{ "type": "Feature", "properties": { "Type of Di": "Physical", "_id": "686777670", "Type of Vu": "N/A" }, "geometry": { "type": "Point", "coordinates": [ 120.765386, 12.838574 ] } },
{ "type": "Feature", "properties": { "Type of Di": "N/A", "_id": "686905629", "Type of Vu": "Senior" }, "geometry": { "type": "Point", "coordinates": [ 120.7688, 12.838559 ] } },
{ "type": "Feature", "properties": { "Type of Di": "Speech", "_id": "687751072", "Type of Vu": "N/A" }, "geometry": { "type": "Point", "coordinates": [ 120.776135, 12.839685 ] } },
{ "type": "Feature", "properties": { "Type of Di": "N/A", "_id": "689007977", "Type of Vu": "Children" }, "geometry": { "type": "Point", "coordinates": [ 120.767646, 12.833467 ] } },
{ "type": "Feature", "properties": { "Type of Di": "Visual", "_id": "686786477", "Type of Vu": "N/A" }, "geometry": { "type": "Point", "coordinates": [ 120.764404, 12.839005 ] } },
{ "type": "Feature", "properties": { "Type of Di": "N/A", "_id": "686857163", "Type of Vu": "Senior" }, "geometry": { "type": "Point", "coordinates": [ 120.767881, 12.832251 ] } },
{ "type": "Feature", "properties": { "Type of Di": "Physical", "_id": "687754547", "Type of Vu": "N/A" }, "geometry": { "type": "Point", "coordinates": [ 120.782736, 12.82823 ] } },
{ "type": "Feature", "properties": { "Type of Di": "Intellectual Disability", "_id": "687857908", "Type of Vu": "N/A" }, "geometry": { "type": "Point", "coordinates": [ 120.781291, 12.836739 ] } },
{ "type": "Feature", "properties": { "Type of Di": "N/A", "_id": "686862924", "Type of Vu": "Children" }, "geometry": { "type": "Point", "coordinates": [ 120.768321, 12.831793 ] } },
{ "type": "Feature", "properties": { "Type of Di": "N/A", "_id": "686959835", "Type of Vu": "Children" }, "geometry": { "type": "Point", "coordinates": [ 120.778199, 12.841748 ] } },
{ "type": "Feature", "properties": { "Type of Di": "Physical", "_id": "687887578", "Type of Vu": "N/A" }, "geometry": { "type": "Point", "coordinates": [ 120.778996, 12.837828 ] } },
{ "type": "Feature", "properties": { "Type of Di": "Cancer", "_id": "686871879", "Type of Vu": "N/A" }, "geometry": { "type": "Point", "coordinates": [ 120.768395, 12.831836 ] } },
{ "type": "Feature", "properties": { "Type of Di": "Mental", "_id": "687690666", "Type of Vu": "N/A" }, "geometry": { "type": "Point", "coordinates": [ 120.77874, 12.84128 ] } },
{ "type": "Feature", "properties": { "Type of Di": "Physical", "_id": "688089126", "Type of Vu": "N/A" }, "geometry": { "type": "Point", "coordinates": [ 120.765854, 12.838257 ] } },
{ "type": "Feature", "properties": { "Type of Di": "N/A", "_id": "686937458", "Type of Vu": "Children" }, "geometry": { "type": "Point", "coordinates": [ 120.773697, 12.838095 ] } },
{ "type": "Feature", "properties": { "Type of Di": "N/A", "_id": "687708622", "Type of Vu": "Senior" }, "geometry": { "type": "Point", "coordinates": [ 120.785164, 12.833672 ] } },
{ "type": "Feature", "properties": { "Type of Di": "Mental", "_id": "688109900", "Type of Vu": "Senior" }, "geometry": { "type": "Point", "coordinates": [ 120.767836, 12.838687 ] } },
{ "type": "Feature", "properties": { "Type of Di": "N/A", "_id": "686816076", "Type of Vu": "Senior" }, "geometry": { "type": "Point", "coordinates": [ 120.765699, 12.834774 ] } },
{ "type": "Feature", "properties": { "Type of Di": "N/A", "_id": "686944688", "Type of Vu": "Children" }, "geometry": { "type": "Point", "coordinates": [ 120.775722, 12.838442 ] } },
{ "type": "Feature", "properties": { "Type of Di": "N/A", "_id": "687769676", "Type of Vu": "Senior" }, "geometry": { "type": "Point", "coordinates": [ 120.783575, 12.826024 ] } },
{ "type": "Feature", "properties": { "Type of Di": "Psychosocial", "_id": "686843864", "Type of Vu": "N/A" }, "geometry": { "type": "Point", "coordinates": [ 120.768464, 12.832455 ] } },
{ "type": "Feature", "properties": { "Type of Di": "Physical  Mental Visual", "_id": "686950577", "Type of Vu": "N/A" }, "geometry": { "type": "Point", "coordinates": [ 120.775922, 12.840276 ] } },
{ "type": "Feature", "properties": { "Type of Di": "N/A", "_id": "687774905", "Type of Vu": "Breastfeeding" }, "geometry": { "type": "Point", "coordinates": [ 120.78419, 12.827077 ] } },
{ "type": "Feature", "properties": { "Type of Di": "Learning", "_id": "686852721", "Type of Vu": "N/A" }, "geometry": { "type": "Point", "coordinates": [ 120.768635, 12.832503 ] } },
{ "type": "Feature", "properties": { "Type of Di": "Visual", "_id": "686958444", "Type of Vu": "N/A" }, "geometry": { "type": "Point", "coordinates": [ 120.775309, 12.839613 ] } },
{ "type": "Feature", "properties": { "Type of Di": "Visual", "_id": "687796997", "Type of Vu": "N/A" }, "geometry": { "type": "Point", "coordinates": [ 120.773947, 12.836497 ] } },
{ "type": "Feature", "properties": { "Type of Di": "N/A", "_id": "686789155", "Type of Vu": "Senior" }, "geometry": { "type": "Point", "coordinates": [ 120.764212, 12.838974 ] } },
{ "type": "Feature", "properties": { "Type of Di": "Visual", "_id": "686923755", "Type of Vu": "N/A" }, "geometry": { "type": "Point", "coordinates": [ 120.772374, 12.836874 ] } },
{ "type": "Feature", "properties": { "Type of Di": "Physical", "_id": "687755352", "Type of Vu": "N/A" }, "geometry": { "type": "Point", "coordinates": [ 120.776665, 12.837326 ] } },
{ "type": "Feature", "properties": { "Type of Di": "Physical", "_id": "690409245", "Type of Vu": "N/A" }, "geometry": { "type": "Point", "coordinates": [ 120.777565, 12.841144 ] } },
{ "type": "Feature", "properties": { "Type of Di": "Physical", "_id": "686799623", "Type of Vu": "N/A" }, "geometry": { "type": "Point", "coordinates": [ 120.764347, 12.837828 ] } },
{ "type": "Feature", "properties": { "Type of Di": "Learning", "_id": "686929517", "Type of Vu": "N/A" }, "geometry": { "type": "Point", "coordinates": [ 120.774928, 12.839005 ] } },
{ "type": "Feature", "properties": { "Type of Di": "Physical", "_id": "687758263", "Type of Vu": "N/A" }, "geometry": { "type": "Point", "coordinates": [ 120.780625, 12.830683 ] } },
{ "type": "Feature", "properties": { "Type of Di": "N/A", "_id": "690479368", "Type of Vu": "Senior" }, "geometry": { "type": "Point", "coordinates": [ 120.783809, 12.830048 ] } },
{ "type": "Feature", "properties": { "Type of Di": "Physical", "_id": "686809175", "Type of Vu": "N/A" }, "geometry": { "type": "Point", "coordinates": [ 120.763999, 12.837607 ] } },
{ "type": "Feature", "properties": { "Type of Di": "Physical", "_id": "686936292", "Type of Vu": "N/A" }, "geometry": { "type": "Point", "coordinates": [ 120.77362, 12.838082 ] } },
{ "type": "Feature", "properties": { "Type of Di": "N/A", "_id": "686882651", "Type of Vu": "N/A" }, "geometry": { "type": "Point", "coordinates": [ 120.767668, 12.836032 ] } },
{ "type": "Feature", "properties": { "Type of Di": "N/A", "_id": "687762199", "Type of Vu": "Senior" }, "geometry": { "type": "Point", "coordinates": [ 120.779418, 12.832239 ] } },
{ "type": "Feature", "properties": { "Type of Di": "Physical", "_id": "688118611", "Type of Vu": "N/A" }, "geometry": { "type": "Point", "coordinates": [ 120.767805, 12.837579 ] } },
{ "type": "Feature", "properties": { "Type of Di": "Speech", "_id": "686744017", "Type of Vu": "N/A" }, "geometry": { "type": "Point", "coordinates": [ 120.772829, 12.837383 ] } },
{ "type": "Feature", "properties": { "Type of Di": "Cancer N/A", "_id": "686898723", "Type of Vu": "Senior" }, "geometry": { "type": "Point", "coordinates": [ 120.770032, 12.838581 ] } },
{ "type": "Feature", "properties": { "Type of Di": "N/A", "_id": "687766443", "Type of Vu": "Children" }, "geometry": { "type": "Point", "coordinates": [ 120.780837, 12.83114 ] } },
{ "type": "Feature", "properties": { "Type of Di": "N/A", "_id": "687715383", "Type of Vu": "Children" }, "geometry": { "type": "Point", "coordinates": [ 120.780476, 12.836041 ] } },
{ "type": "Feature", "properties": { "Type of Di": "N/A", "_id": "688697522", "Type of Vu": "N/A" }, "geometry": { "type": "Point", "coordinates": [ 120.765585, 12.834968 ] } },
{ "type": "Feature", "properties": { "Type of Di": "Visual", "_id": "686777283", "Type of Vu": "N/A" }, "geometry": { "type": "Point", "coordinates": [ 120.765243, 12.838103 ] } },
{ "type": "Feature", "properties": { "Type of Di": "Psychosocial", "_id": "686904507", "Type of Vu": "N/A" }, "geometry": { "type": "Point", "coordinates": [ 120.768976, 12.838512 ] } },
{ "type": "Feature", "properties": { "Type of Di": "N/A", "_id": "687731877", "Type of Vu": "Children" }, "geometry": { "type": "Point", "coordinates": [ 120.767515, 12.837885 ] } },
{ "type": "Feature", "properties": { "Type of Di": "N/A", "_id": "689007524", "Type of Vu": "Senior" }, "geometry": { "type": "Point", "coordinates": [ 120.767639, 12.83346 ] } },
{ "type": "Feature", "properties": { "Type of Di": "Physical", "_id": "686785852", "Type of Vu": "N/A" }, "geometry": { "type": "Point", "coordinates": [ 120.764694, 12.839074 ] } },
{ "type": "Feature", "properties": { "Type of Di": "Physical", "_id": "686856570", "Type of Vu": "N/A" }, "geometry": { "type": "Point", "coordinates": [ 120.768242, 12.834661 ] } },
{ "type": "Feature", "properties": { "Type of Di": "Psychosocial", "_id": "687753952", "Type of Vu": "N/A" }, "geometry": { "type": "Point", "coordinates": [ 120.776561, 12.837641 ] } },
{ "type": "Feature", "properties": { "Type of Di": "N/A", "_id": "689015276", "Type of Vu": "Children" }, "geometry": { "type": "Point", "coordinates": [ 120.769235, 12.83684 ] } },
{ "type": "Feature", "properties": { "Type of Di": "N/A", "_id": "686862176", "Type of Vu": "Breastfeeding" }, "geometry": { "type": "Point", "coordinates": [ 120.768378, 12.831777 ] } },
{ "type": "Feature", "properties": { "Type of Di": "Learning", "_id": "686959310", "Type of Vu": "N/A" }, "geometry": { "type": "Point", "coordinates": [ 120.777585, 12.841688 ] } },
{ "type": "Feature", "properties": { "Type of Di": "Physical", "_id": "687876153", "Type of Vu": "N/A" }, "geometry": { "type": "Point", "coordinates": [ 120.782162, 12.837855 ] } },
{ "type": "Feature", "properties": { "Type of Di": "Learning", "_id": "686871847", "Type of Vu": "N/A" }, "geometry": { "type": "Point", "coordinates": [ 120.767831, 12.834911 ] } },
{ "type": "Feature", "properties": { "Type of Di": "Visual", "_id": "686965679", "Type of Vu": "N/A" }, "geometry": { "type": "Point", "coordinates": [ 120.778675, 12.841176 ] } },
{ "type": "Feature", "properties": { "Type of Di": "Visual", "_id": "688074888", "Type of Vu": "N/A" }, "geometry": { "type": "Point", "coordinates": [ 120.777617, 12.841737 ] } },
{ "type": "Feature", "properties": { "Type of Di": "Physical", "_id": "686881485", "Type of Vu": "N/A" }, "geometry": { "type": "Point", "coordinates": [ 120.767249, 12.835259 ] } },
{ "type": "Feature", "properties": { "Type of Di": "Speech", "_id": "687708406", "Type of Vu": "N/A" }, "geometry": { "type": "Point", "coordinates": [ 120.764301, 12.83794 ] } },
{ "type": "Feature", "properties": { "Type of Di": "Physical  N/A", "_id": "688109115", "Type of Vu": "Senior" }, "geometry": { "type": "Point", "coordinates": [ 120.767217, 12.838203 ] } },
{ "type": "Feature", "properties": { "Type of Di": "N/A", "_id": "686815350", "Type of Vu": "Senior" }, "geometry": { "type": "Point", "coordinates": [ 120.765677, 12.835116 ] } },
{ "type": "Feature", "properties": { "Type of Di": "Physical", "_id": "686944017", "Type of Vu": "N/A" }, "geometry": { "type": "Point", "coordinates": [ 120.776203, 12.839748 ] } },
{ "type": "Feature", "properties": { "Type of Di": "Physical", "_id": "687769304", "Type of Vu": "N/A" }, "geometry": { "type": "Point", "coordinates": [ 120.781759, 12.831236 ] } },
{ "type": "Feature", "properties": { "Type of Di": "Psychosocial", "_id": "686843067", "Type of Vu": "N/A" }, "geometry": { "type": "Point", "coordinates": [ 120.765497, 12.831865 ] } },
{ "type": "Feature", "properties": { "Type of Di": "N/A", "_id": "686948462", "Type of Vu": "Senior" }, "geometry": { "type": "Point", "coordinates": [ 120.775263, 12.839556 ] } },
{ "type": "Feature", "properties": { "Type of Di": "Physical", "_id": "687774702", "Type of Vu": "N/A" }, "geometry": { "type": "Point", "coordinates": [ 120.784387, 12.825263 ] } },
{ "type": "Feature", "properties": { "Type of Di": "Speech", "_id": "686850401", "Type of Vu": "N/A" }, "geometry": { "type": "Point", "coordinates": [ 120.767726, 12.833102 ] } },
{ "type": "Feature", "properties": { "Type of Di": "Physical", "_id": "686957235", "Type of Vu": "N/A" }, "geometry": { "type": "Point", "coordinates": [ 120.776069, 12.841131 ] } },
{ "type": "Feature", "properties": { "Type of Di": "Physical", "_id": "687792411", "Type of Vu": "N/A" }, "geometry": { "type": "Point", "coordinates": [ 120.782072, 12.830855 ] } },
{ "type": "Feature", "properties": { "Type of Di": "Deaf", "_id": "686788498", "Type of Vu": "N/A" }, "geometry": { "type": "Point", "coordinates": [ 120.764272, 12.839006 ] } },
{ "type": "Feature", "properties": { "Type of Di": "N/A", "_id": "686919458", "Type of Vu": "Senior" }, "geometry": { "type": "Point", "coordinates": [ 120.770046, 12.835996 ] } },
{ "type": "Feature", "properties": { "Type of Di": "Rare Disability", "_id": "687848644", "Type of Vu": "N/A" }, "geometry": { "type": "Point", "coordinates": [ 120.781008, 12.830236 ] } },
{ "type": "Feature", "properties": { "Type of Di": "Speech", "_id": "690063725", "Type of Vu": "N/A" }, "geometry": { "type": "Point", "coordinates": [ 120.765433, 12.838264 ] } },
{ "type": "Feature", "properties": { "Type of Di": "Psychosocial", "_id": "686799503", "Type of Vu": "N/A" }, "geometry": { "type": "Point", "coordinates": [ 120.76427, 12.838927 ] } },
{ "type": "Feature", "properties": { "Type of Di": "Physical", "_id": "686929112", "Type of Vu": "N/A" }, "geometry": { "type": "Point", "coordinates": [ 120.775265, 12.839307 ] } },
{ "type": "Feature", "properties": { "Type of Di": "Visual", "_id": "687756866", "Type of Vu": "Senior" }, "geometry": { "type": "Point", "coordinates": [ 120.776567, 12.837647 ] } },
{ "type": "Feature", "properties": { "Type of Di": "Speech", "_id": "690478949", "Type of Vu": "N/A" }, "geometry": { "type": "Point", "coordinates": [ 120.783822, 12.830049 ] } },
{ "type": "Feature", "properties": { "Type of Di": "Visual", "_id": "686807861", "Type of Vu": "N/A" }, "geometry": { "type": "Point", "coordinates": [ 120.765669, 12.835147 ] } },
{ "type": "Feature", "properties": { "Type of Di": "Learning", "_id": "686935294", "Type of Vu": "N/A" }, "geometry": { "type": "Point", "coordinates": [ 120.772578, 12.836942 ] } },
{ "type": "Feature", "properties": { "Type of Di": "N/A", "_id": "686881855", "Type of Vu": "Senior" }, "geometry": { "type": "Point", "coordinates": [ 120.76722, 12.836473 ] } },
{ "type": "Feature", "properties": { "Type of Di": "Physical", "_id": "687762042", "Type of Vu": "N/A" }, "geometry": { "type": "Point", "coordinates": [ 120.779466, 12.832245 ] } },
{ "type": "Feature", "properties": { "Type of Di": "Physical", "_id": "686814888", "Type of Vu": "N/A" }, "geometry": { "type": "Point", "coordinates": [ 120.764233, 12.837321 ] } },
{ "type": "Feature", "properties": { "Type of Di": "Learning", "_id": "686898042", "Type of Vu": "N/A" }, "geometry": { "type": "Point", "coordinates": [ 120.767832, 12.834932 ] } },
{ "type": "Feature", "properties": { "Type of Di": "N/A", "_id": "687766244", "Type of Vu": "Senior" }, "geometry": { "type": "Point", "coordinates": [ 120.780818, 12.831092 ] } },
{ "type": "Feature", "properties": { "Type of Di": "Learning", "_id": "687715123", "Type of Vu": "N/A" }, "geometry": { "type": "Point", "coordinates": [ 120.782392, 12.836131 ] } },
{ "type": "Feature", "properties": { "Type of Di": "Physical", "_id": "688697410", "Type of Vu": "N/A" }, "geometry": { "type": "Point", "coordinates": [ 120.76552, 12.835392 ] } },
{ "type": "Feature", "properties": { "Type of Di": "Physical  Speech", "_id": "686774631", "Type of Vu": "N/A" }, "geometry": { "type": "Point", "coordinates": [ 120.772819, 12.837378 ] } },
{ "type": "Feature", "properties": { "Type of Di": "Physical", "_id": "686900246", "Type of Vu": "N/A" }, "geometry": { "type": "Point", "coordinates": [ 120.766957, 12.837427 ] } },
{ "type": "Feature", "properties": { "Type of Di": "N/A", "_id": "687731660", "Type of Vu": "Breastfeeding  Pregnant" }, "geometry": { "type": "Point", "coordinates": [ 120.767576, 12.837816 ] } },
{ "type": "Feature", "properties": { "Type of Di": "N/A", "_id": "689007323", "Type of Vu": "Senior" }, "geometry": { "type": "Point", "coordinates": [ 120.767556, 12.833481 ] } },
{ "type": "Feature", "properties": { "Type of Di": "Visual", "_id": "686782867", "Type of Vu": "N/A" }, "geometry": { "type": "Point", "coordinates": [ 120.76508, 12.838753 ] } },
{ "type": "Feature", "properties": { "Type of Di": "Physical", "_id": "686917793", "Type of Vu": "N/A" }, "geometry": { "type": "Point", "coordinates": [ 120.768876, 12.838688 ] } },
{ "type": "Feature", "properties": { "Type of Di": "Physical", "_id": "687753516", "Type of Vu": "N/A" }, "geometry": { "type": "Point", "coordinates": [ 120.772825, 12.837379 ] } },
{ "type": "Feature", "properties": { "Type of Di": "N/A", "_id": "689015083", "Type of Vu": "Senior  Children" }, "geometry": { "type": "Point", "coordinates": [ 120.76919, 12.836828 ] } },
{ "type": "Feature", "properties": { "Type of Di": "Learning", "_id": "686862081", "Type of Vu": "N/A" }, "geometry": { "type": "Point", "coordinates": [ 120.767803, 12.832269 ] } },
{ "type": "Feature", "properties": { "Type of Di": "N/A", "_id": "686959206", "Type of Vu": "Breastfeeding" }, "geometry": { "type": "Point", "coordinates": [ 120.778223, 12.841751 ] } },
{ "type": "Feature", "properties": { "Type of Di": "N/A", "_id": "687874403", "Type of Vu": "Senior" }, "geometry": { "type": "Point", "coordinates": [ 120.782563, 12.835401 ] } },
{ "type": "Feature", "properties": { "Type of Di": "Learning", "_id": "686871103", "Type of Vu": "N/A" }, "geometry": { "type": "Point", "coordinates": [ 120.767809, 12.835028 ] } },
{ "type": "Feature", "properties": { "Type of Di": "Physical  Visual", "_id": "686964914", "Type of Vu": "N/A" }, "geometry": { "type": "Point", "coordinates": [ 120.778352, 12.841278 ] } },
{ "type": "Feature", "properties": { "Type of Di": "N/A", "_id": "688064903", "Type of Vu": "Senior" }, "geometry": { "type": "Point", "coordinates": [ 120.777625, 12.841774 ] } },
{ "type": "Feature", "properties": { "Type of Di": "Physical", "_id": "686879403", "Type of Vu": "N/A" }, "geometry": { "type": "Point", "coordinates": [ 120.767342, 12.835853 ] } },
{ "type": "Feature", "properties": { "Type of Di": "N/A", "_id": "687691482", "Type of Vu": "Children" }, "geometry": { "type": "Point", "coordinates": [ 120.764315, 12.83791 ] } },
{ "type": "Feature", "properties": { "Type of Di": "N/A", "_id": "688092137", "Type of Vu": "Senior" }, "geometry": { "type": "Point", "coordinates": [ 120.766708, 12.838596 ] } },
{ "type": "Feature", "properties": { "Type of Di": "N/A", "_id": "686815061", "Type of Vu": "Senior" }, "geometry": { "type": "Point", "coordinates": [ 120.765676, 12.835116 ] } },
{ "type": "Feature", "properties": { "Type of Di": "N/A", "_id": "686943953", "Type of Vu": "Senior" }, "geometry": { "type": "Point", "coordinates": [ 120.775575, 12.838403 ] } },
{ "type": "Feature", "properties": { "Type of Di": "N/A", "_id": "687712810", "Type of Vu": "Children" }, "geometry": { "type": "Point", "coordinates": [ 120.78277, 12.835776 ] } },
{ "type": "Feature", "properties": { "Type of Di": "Physical", "_id": "686838921", "Type of Vu": "N/A" }, "geometry": { "type": "Point", "coordinates": [ 120.769253, 12.837806 ] } },
{ "type": "Feature", "properties": { "Type of Di": "Physical", "_id": "686948072", "Type of Vu": "N/A" }, "geometry": { "type": "Point", "coordinates": [ 120.775259, 12.839558 ] } },
{ "type": "Feature", "properties": { "Type of Di": "Visual", "_id": "687774467", "Type of Vu": "N/A" }, "geometry": { "type": "Point", "coordinates": [ 120.783593, 12.826051 ] } },
{ "type": "Feature", "properties": { "Type of Di": "N/A", "_id": "686846235", "Type of Vu": "Senior" }, "geometry": { "type": "Point", "coordinates": [ 120.767518, 12.832906 ] } },
{ "type": "Feature", "properties": { "Type of Di": "Physical", "_id": "686953972", "Type of Vu": "N/A" }, "geometry": { "type": "Point", "coordinates": [ 120.776013, 12.840275 ] } },
{ "type": "Feature", "properties": { "Type of Di": "Speech", "_id": "687781187", "Type of Vu": "N/A" }, "geometry": { "type": "Point", "coordinates": [ 120.784895, 12.82687 ] } },
{ "type": "Feature", "properties": { "Type of Di": "N/A", "_id": "686853296", "Type of Vu": "Senior" }, "geometry": { "type": "Point", "coordinates": [ 120.768663, 12.832517 ] } },
{ "type": "Feature", "properties": { "Type of Di": "N/A", "_id": "686919228", "Type of Vu": "Children" }, "geometry": { "type": "Point", "coordinates": [ 120.773213, 12.837965 ] } },
{ "type": "Feature", "properties": { "Type of Di": "Intellectual Disability", "_id": "687807374", "Type of Vu": "N/A" }, "geometry": { "type": "Point", "coordinates": [ 120.785366, 12.826263 ] } },
{ "type": "Feature", "properties": { "Type of Di": "N/A", "_id": "689015881", "Type of Vu": "Breastfeeding" }, "geometry": { "type": "Point", "coordinates": [ 120.769219, 12.836804 ] } },
{ "type": "Feature", "properties": { "Type of Di": "Physical", "_id": "686798651", "Type of Vu": "N/A" }, "geometry": { "type": "Point", "coordinates": [ 120.764266, 12.837831 ] } },
{ "type": "Feature", "properties": { "Type of Di": "Learning", "_id": "686928995", "Type of Vu": "N/A" }, "geometry": { "type": "Point", "coordinates": [ 120.773051, 12.837349 ] } },
{ "type": "Feature", "properties": { "Type of Di": "N/A", "_id": "687756597", "Type of Vu": "Senior" }, "geometry": { "type": "Point", "coordinates": [ 120.776567, 12.837646 ] } },
{ "type": "Feature", "properties": { "Type of Di": "Physical", "_id": "690469954", "Type of Vu": "N/A" }, "geometry": { "type": "Point", "coordinates": [ 120.78426, 12.826273 ] } },
{ "type": "Feature", "properties": { "Type of Di": "Learning", "_id": "686807158", "Type of Vu": "N/A" }, "geometry": { "type": "Point", "coordinates": [ 120.764471, 12.839308 ] } },
{ "type": "Feature", "properties": { "Type of Di": "N/A", "_id": "686930764", "Type of Vu": "Senior" }, "geometry": { "type": "Point", "coordinates": [ 120.774929, 12.839007 ] } },
{ "type": "Feature", "properties": { "Type of Di": "Cancer", "_id": "687761200", "Type of Vu": "N/A" }, "geometry": { "type": "Point", "coordinates": [ 120.776508, 12.837368 ] } },
{ "type": "Feature", "properties": { "Type of Di": "Physical", "_id": "686814705", "Type of Vu": "N/A" }, "geometry": { "type": "Point", "coordinates": [ 120.765523, 12.835312 ] } },
{ "type": "Feature", "properties": { "Type of Di": "Deaf", "_id": "686895948", "Type of Vu": "N/A" }, "geometry": { "type": "Point", "coordinates": [ 120.768838, 12.838069 ] } },
{ "type": "Feature", "properties": { "Type of Di": "Physical", "_id": "687766106", "Type of Vu": "N/A" }, "geometry": { "type": "Point", "coordinates": [ 120.776569, 12.837655 ] } },
{ "type": "Feature", "properties": { "Type of Di": "Learning", "_id": "687714154", "Type of Vu": "N/A" }, "geometry": { "type": "Point", "coordinates": [ 120.782774, 12.83578 ] } },
{ "type": "Feature", "properties": { "Type of Di": "Intellectual Disability", "_id": "688692270", "Type of Vu": "N/A" }, "geometry": { "type": "Point", "coordinates": [ 120.774683, 12.835416 ] } },
{ "type": "Feature", "properties": { "Type of Di": "N/A", "_id": "686744876", "Type of Vu": "Senior" }, "geometry": { "type": "Point", "coordinates": [ 120.772825, 12.837383 ] } },
{ "type": "Feature", "properties": { "Type of Di": "N/A", "_id": "686899534", "Type of Vu": "Senior" }, "geometry": { "type": "Point", "coordinates": [ 120.76983, 12.838237 ] } },
{ "type": "Feature", "properties": { "Type of Di": "N/A", "_id": "687731276", "Type of Vu": "Children" }, "geometry": { "type": "Point", "coordinates": [ 120.767665, 12.837826 ] } },
{ "type": "Feature", "properties": { "Type of Di": "Psychosocial", "_id": "689006904", "Type of Vu": "N/A" }, "geometry": { "type": "Point", "coordinates": [ 120.767879, 12.833409 ] } },
{ "type": "Feature", "properties": { "Type of Di": "N/A", "_id": "686780991", "Type of Vu": "Senior" }, "geometry": { "type": "Point", "coordinates": [ 120.764382, 12.838991 ] } },
{ "type": "Feature", "properties": { "Type of Di": "Visual", "_id": "686917345", "Type of Vu": "N/A" }, "geometry": { "type": "Point", "coordinates": [ 120.76997, 12.836016 ] } },
{ "type": "Feature", "properties": { "Type of Di": "Physical", "_id": "687753294", "Type of Vu": "N/A" }, "geometry": { "type": "Point", "coordinates": [ 120.782254, 12.828015 ] } },
{ "type": "Feature", "properties": { "Type of Di": "Mental", "_id": "689014792", "Type of Vu": "Senior" }, "geometry": { "type": "Point", "coordinates": [ 120.768852, 12.834565 ] } },
{ "type": "Feature", "properties": { "Type of Di": "Speech", "_id": "686861624", "Type of Vu": "N/A" }, "geometry": { "type": "Point", "coordinates": [ 120.768427, 12.831832 ] } },
{ "type": "Feature", "properties": { "Type of Di": "N/A", "_id": "687754830", "Type of Vu": "Children" }, "geometry": { "type": "Point", "coordinates": [ 120.776579, 12.837627 ] } },
{ "type": "Feature", "properties": { "Type of Di": "Physical", "_id": "687873756", "Type of Vu": "N/A" }, "geometry": { "type": "Point", "coordinates": [ 120.784082, 12.825701 ] } },
{ "type": "Feature", "properties": { "Type of Di": "Mental", "_id": "686870345", "Type of Vu": "N/A" }, "geometry": { "type": "Point", "coordinates": [ 120.768347, 12.831667 ] } },
{ "type": "Feature", "properties": { "Type of Di": "Physical", "_id": "686962673", "Type of Vu": "N/A" }, "geometry": { "type": "Point", "coordinates": [ 120.778292, 12.841674 ] } },
{ "type": "Feature", "properties": { "Type of Di": "Deaf Psychosocial", "_id": "688064511", "Type of Vu": "N/A" }, "geometry": { "type": "Point", "coordinates": [ 120.782322, 12.835436 ] } },
{ "type": "Feature", "properties": { "Type of Di": "Physical", "_id": "686876065", "Type of Vu": "N/A" }, "geometry": { "type": "Point", "coordinates": [ 120.767351, 12.835047 ] } },
{ "type": "Feature", "properties": { "Type of Di": "N/A", "_id": "687691159", "Type of Vu": "Breastfeeding" }, "geometry": { "type": "Point", "coordinates": [ 120.764317, 12.837908 ] } },
{ "type": "Feature", "properties": { "Type of Di": "Cancer", "_id": "688091739", "Type of Vu": "N/A" }, "geometry": { "type": "Point", "coordinates": [ 120.766714, 12.838593 ] } },
{ "type": "Feature", "properties": { "Type of Di": "N/A", "_id": "686943539", "Type of Vu": "Senior" }, "geometry": { "type": "Point", "coordinates": [ 120.775767, 12.838618 ] } },
{ "type": "Feature", "properties": { "Type of Di": "Psychosocial", "_id": "687712461", "Type of Vu": "N/A" }, "geometry": { "type": "Point", "coordinates": [ 120.785163, 12.833672 ] } },
{ "type": "Feature", "properties": { "Type of Di": "Physical", "_id": "686831537", "Type of Vu": "N/A" }, "geometry": { "type": "Point", "coordinates": [ 120.767883, 12.83749 ] } },
{ "type": "Feature", "properties": { "Type of Di": "N/A", "_id": "686945511", "Type of Vu": "Children" }, "geometry": { "type": "Point", "coordinates": [ 120.776202, 12.839749 ] } },
{ "type": "Feature", "properties": { "Type of Di": "N/A", "_id": "687770456", "Type of Vu": "Senior" }, "geometry": { "type": "Point", "coordinates": [ 120.78322, 12.826794 ] } },
{ "type": "Feature", "properties": { "Type of Di": "Learning", "_id": "686845550", "Type of Vu": "N/A" }, "geometry": { "type": "Point", "coordinates": [ 120.767331, 12.832229 ] } },
{ "type": "Feature", "properties": { "Type of Di": "N/A", "_id": "686951528", "Type of Vu": "Senior" }, "geometry": { "type": "Point", "coordinates": [ 120.776008, 12.840163 ] } },
{ "type": "Feature", "properties": { "Type of Di": "N/A", "_id": "687775182", "Type of Vu": "Children" }, "geometry": { "type": "Point", "coordinates": [ 120.784723, 12.826951 ] } },
{ "type": "Feature", "properties": { "Type of Di": "Learning", "_id": "686853200", "Type of Vu": "N/A" }, "geometry": { "type": "Point", "coordinates": [ 120.767923, 12.833955 ] } },
{ "type": "Feature", "properties": { "Type of Di": "Mental", "_id": "686919161", "Type of Vu": "N/A" }, "geometry": { "type": "Point", "coordinates": [ 120.770044, 12.836 ] } },
{ "type": "Feature", "properties": { "Type of Di": "Physical", "_id": "687806275", "Type of Vu": "N/A" }, "geometry": { "type": "Point", "coordinates": [ 120.771383, 12.836405 ] } },
{ "type": "Feature", "properties": { "Type of Di": "N/A", "_id": "689015656", "Type of Vu": "Children" }, "geometry": { "type": "Point", "coordinates": [ 120.769294, 12.836879 ] } },
{ "type": "Feature", "properties": { "Type of Di": "Physical", "_id": "686796000", "Type of Vu": "N/A" }, "geometry": { "type": "Point", "coordinates": [ 120.763582, 12.83721 ] } },
{ "type": "Feature", "properties": { "Type of Di": "Physical", "_id": "686925574", "Type of Vu": "N/A" }, "geometry": { "type": "Point", "coordinates": [ 120.771649, 12.83652 ] } },
{ "type": "Feature", "properties": { "Type of Di": "Learning", "_id": "687756444", "Type of Vu": "N/A" }, "geometry": { "type": "Point", "coordinates": [ 120.776568, 12.837647 ] } },
{ "type": "Feature", "properties": { "Type of Di": "Physical", "_id": "690457750", "Type of Vu": "N/A" }, "geometry": { "type": "Point", "coordinates": [ 120.787579, 12.814628 ] } },
{ "type": "Feature", "properties": { "Type of Di": "Visual", "_id": "686805223", "Type of Vu": "N/A" }, "geometry": { "type": "Point", "coordinates": [ 120.764576, 12.837823 ] } },
{ "type": "Feature", "properties": { "Type of Di": "N/A", "_id": "686930370", "Type of Vu": "Senior" }, "geometry": { "type": "Point", "coordinates": [ 120.77493, 12.839005 ] } },
{ "type": "Feature", "properties": { "Type of Di": "Cancer", "_id": "687760998", "Type of Vu": "N/A" }, "geometry": { "type": "Point", "coordinates": [ 120.780435, 12.830841 ] } },
{ "type": "Feature", "properties": { "Type of Di": "Physical", "_id": "690499465", "Type of Vu": "N/A" }, "geometry": { "type": "Point", "coordinates": [ 120.768188, 12.837697 ] } },
{ "type": "Feature", "properties": { "Type of Di": "Learning", "_id": "686811836", "Type of Vu": "N/A" }, "geometry": { "type": "Point", "coordinates": [ 120.765713, 12.835233 ] } },
{ "type": "Feature", "properties": { "Type of Di": "Physical", "_id": "686891399", "Type of Vu": "N/A" }, "geometry": { "type": "Point", "coordinates": [ 120.766861, 12.837542 ] } },
{ "type": "Feature", "properties": { "Type of Di": "Physical", "_id": "687765959", "Type of Vu": "N/A" }, "geometry": { "type": "Point", "coordinates": [ 120.784602, 12.825305 ] } },
{ "type": "Feature", "properties": { "Type of Di": "N/A", "_id": "688119450", "Type of Vu": "Children" }, "geometry": { "type": "Point", "coordinates": [ 120.76781, 12.837655 ] } },
{ "type": "Feature", "properties": { "Type of Di": "N/A", "_id": "686744639", "Type of Vu": "Senior" }, "geometry": { "type": "Point", "coordinates": [ 120.772832, 12.837379 ] } },
{ "type": "Feature", "properties": { "Type of Di": "N/A", "_id": "686899364", "Type of Vu": "Senior" }, "geometry": { "type": "Point", "coordinates": [ 120.769834, 12.838241 ] } },
{ "type": "Feature", "properties": { "Type of Di": "N/A", "_id": "687730924", "Type of Vu": "Senior" }, "geometry": { "type": "Point", "coordinates": [ 120.767594, 12.83779 ] } },
{ "type": "Feature", "properties": { "Type of Di": "Physical", "_id": "688715246", "Type of Vu": "N/A" }, "geometry": { "type": "Point", "coordinates": [ 120.768354, 12.833336 ] } },
{ "type": "Feature", "properties": { "Type of Di": "Physical", "_id": "686779844", "Type of Vu": "N/A" }, "geometry": { "type": "Point", "coordinates": [ 120.772837, 12.837381 ] } },
{ "type": "Feature", "properties": { "Type of Di": "N/A", "_id": "686906063", "Type of Vu": "Senior" }, "geometry": { "type": "Point", "coordinates": [ 120.768834, 12.838405 ] } },
{ "type": "Feature", "properties": { "Type of Di": "N/A", "_id": "687751328", "Type of Vu": "Children" }, "geometry": { "type": "Point", "coordinates": [ 120.776106, 12.839667 ] } },
{ "type": "Feature", "properties": { "Type of Di": "Physical  N/A", "_id": "689013485", "Type of Vu": "Senior" }, "geometry": { "type": "Point", "coordinates": [ 120.767697, 12.833383 ] } },
{ "type": "Feature", "properties": { "Type of Di": "N/A", "_id": "686787344", "Type of Vu": "Senior" }, "geometry": { "type": "Point", "coordinates": [ 120.764332, 12.839026 ] } },
{ "type": "Feature", "properties": { "Type of Di": "Speech", "_id": "686861027", "Type of Vu": "N/A" }, "geometry": { "type": "Point", "coordinates": [ 120.767738, 12.833308 ] } },
{ "type": "Feature", "properties": { "Type of Di": "N/A", "_id": "687754576", "Type of Vu": "Breastfeeding" }, "geometry": { "type": "Point", "coordinates": [ 120.776545, 12.837324 ] } },
{ "type": "Feature", "properties": { "Type of Di": "N/A", "_id": "687858351", "Type of Vu": "Children" }, "geometry": { "type": "Point", "coordinates": [ 120.781177, 12.836905 ] } },
{ "type": "Feature", "properties": { "Type of Di": "N/A", "_id": "686863533", "Type of Vu": "Children" }, "geometry": { "type": "Point", "coordinates": [ 120.768368, 12.83184 ] } },
{ "type": "Feature", "properties": { "Type of Di": "Physical", "_id": "686962353", "Type of Vu": "N/A" }, "geometry": { "type": "Point", "coordinates": [ 120.778184, 12.841726 ] } },
{ "type": "Feature", "properties": { "Type of Di": "Speech", "_id": "688060837", "Type of Vu": "N/A" }, "geometry": { "type": "Point", "coordinates": [ 120.778419, 12.841616 ] } },
{ "type": "Feature", "properties": { "Type of Di": "N/A", "_id": "686873615", "Type of Vu": "Senior" }, "geometry": { "type": "Point", "coordinates": [ 120.767349, 12.835043 ] } },
{ "type": "Feature", "properties": { "Type of Di": "N/A", "_id": "687690865", "Type of Vu": "Senior" }, "geometry": { "type": "Point", "coordinates": [ 120.764327, 12.837898 ] } },
{ "type": "Feature", "properties": { "Type of Di": "N/A", "_id": "688089383", "Type of Vu": "Children" }, "geometry": { "type": "Point", "coordinates": [ 120.765938, 12.838163 ] } },
{ "type": "Feature", "properties": { "Type of Di": "Speech", "_id": "686942831", "Type of Vu": "N/A" }, "geometry": { "type": "Point", "coordinates": [ 120.775724, 12.838522 ] } },
{ "type": "Feature", "properties": { "Type of Di": "N/A", "_id": "687708845", "Type of Vu": "Children" }, "geometry": { "type": "Point", "coordinates": [ 120.785194, 12.833725 ] } },
{ "type": "Feature", "properties": { "Type of Di": "Mental", "_id": "686828611", "Type of Vu": "N/A" }, "geometry": { "type": "Point", "coordinates": [ 120.765702, 12.834774 ] } },
{ "type": "Feature", "properties": { "Type of Di": "N/A", "_id": "686944918", "Type of Vu": "Breastfeeding" }, "geometry": { "type": "Point", "coordinates": [ 120.776203, 12.83974 ] } },
{ "type": "Feature", "properties": { "Type of Di": "Intellectual Disability", "_id": "687770086", "Type of Vu": "N/A" }, "geometry": { "type": "Point", "coordinates": [ 120.783395, 12.82658 ] } },
{ "type": "Feature", "properties": { "Type of Di": "Physical", "_id": "686845435", "Type of Vu": "N/A" }, "geometry": { "type": "Point", "coordinates": [ 120.765912, 12.835008 ] } },
{ "type": "Feature", "properties": { "Type of Di": "N/A", "_id": "686950977", "Type of Vu": "Senior" }, "geometry": { "type": "Point", "coordinates": [ 120.775977, 12.840249 ] } },
{ "type": "Feature", "properties": { "Type of Di": "N/A", "_id": "687775012", "Type of Vu": "Pregnant" }, "geometry": { "type": "Point", "coordinates": [ 120.784282, 12.826854 ] } },
{ "type": "Feature", "properties": { "Type of Di": "N/A", "_id": "686853071", "Type of Vu": "Senior" }, "geometry": { "type": "Point", "coordinates": [ 120.768613, 12.832501 ] } },
{ "type": "Feature", "properties": { "Type of Di": "Learning", "_id": "686918419", "Type of Vu": "N/A" }, "geometry": { "type": "Point", "coordinates": [ 120.772904, 12.83716 ] } },
{ "type": "Feature", "properties": { "Type of Di": "Physical", "_id": "687806149", "Type of Vu": "N/A" }, "geometry": { "type": "Point", "coordinates": [ 120.77139, 12.83641 ] } },
{ "type": "Feature", "properties": { "Type of Di": "Visual", "_id": "686793421", "Type of Vu": "N/A" }, "geometry": { "type": "Point", "coordinates": [ 120.764155, 12.838972 ] } },
{ "type": "Feature", "properties": { "Type of Di": "N/A", "_id": "686924005", "Type of Vu": "Senior" }, "geometry": { "type": "Point", "coordinates": [ 120.772438, 12.836905 ] } },
{ "type": "Feature", "properties": { "Type of Di": "Physical", "_id": "687755962", "Type of Vu": "N/A" }, "geometry": { "type": "Point", "coordinates": [ 120.782615, 12.828192 ] } },
{ "type": "Feature", "properties": { "Type of Di": "N/A;Psychosocial", "_id": "690442618;690443507", "Type of Vu": "N/A;Senior" }, "geometry": { "type": "Point", "coordinates": [ 120.778633, 12.83682 ] } },
{ "type": "Feature", "properties": { "Type of Di": "N/A", "_id": "686800258", "Type of Vu": "Children" }, "geometry": { "type": "Point", "coordinates": [ 120.763869, 12.837627 ] } },
{ "type": "Feature", "properties": { "Type of Di": "Speech", "_id": "686929951", "Type of Vu": "N/A" }, "geometry": { "type": "Point", "coordinates": [ 120.774928, 12.83903 ] } },
{ "type": "Feature", "properties": { "Type of Di": "Physical", "_id": "687758380", "Type of Vu": "N/A" }, "geometry": { "type": "Point", "coordinates": [ 120.780617, 12.830738 ] } },
{ "type": "Feature", "properties": { "Type of Di": "Physical", "_id": "690494508", "Type of Vu": "N/A" }, "geometry": { "type": "Point", "coordinates": [ 120.773854, 12.836554 ] } },
{ "type": "Feature", "properties": { "Type of Di": "N/A", "_id": "686809897", "Type of Vu": "Senior" }, "geometry": { "type": "Point", "coordinates": [ 120.765513, 12.835429 ] } },
{ "type": "Feature", "properties": { "Type of Di": "N/A", "_id": "686936857", "Type of Vu": "Breastfeeding" }, "geometry": { "type": "Point", "coordinates": [ 120.775273, 12.839274 ] } },
{ "type": "Feature", "properties": { "Type of Di": "Mental", "_id": "686888891", "Type of Vu": "N/A" }, "geometry": { "type": "Point", "coordinates": [ 120.767222, 12.836469 ] } },
{ "type": "Feature", "properties": { "Type of Di": "Physical  Psychosocial", "_id": "687762210", "Type of Vu": "N/A" }, "geometry": { "type": "Point", "coordinates": [ 120.779782, 12.831546 ] } },
{ "type": "Feature", "properties": { "Type of Di": "N/A", "_id": "688119022", "Type of Vu": "Senior" }, "geometry": { "type": "Point", "coordinates": [ 120.767833, 12.837537 ] } },
{ "type": "Feature", "properties": { "Type of Di": "N/A", "_id": "686744254", "Type of Vu": "Senior" }, "geometry": { "type": "Point", "coordinates": [ 120.772829, 12.83738 ] } },
{ "type": "Feature", "properties": { "Type of Di": "Physical", "_id": "686899124", "Type of Vu": "N/A" }, "geometry": { "type": "Point", "coordinates": [ 120.769706, 12.838229 ] } }
]
}
