{
"type": "FeatureCollection",
"name": "sablayan_mpa",
"crs": { "type": "name", "properties": { "name": "urn:ogc:def:crs:EPSG::32651" } },
"features": [
{ "type": "Feature", "properties": { "ID": 288, "Points": "MPA-01", "layer": "01_Burgos_wgs84", "path": "D:/Projects/PATH/Sablayan/SABLAYAN/MPA Shapefiles/MPA Shapefiles/01_Burgos_wgs84.shp" }, "geometry": { "type": "MultiPolygon", "coordinates": [ [ [ [ 268134.895984796516132, 1403725.060586811974645 ], [ 268188.846126803255174, 1403673.178759554866701 ], [ 268235.528305908723269, 1403634.216926675988361 ], [ 268261.859753917029593, 1403605.57425052812323 ], [ 268306.565198528813198, 1403574.750714493449777 ], [ 268351.187684220320079, 1403533.775333457626402 ], [ 268395.777084632485639, 1403488.739220819203183 ], [ 268462.512046846095473, 1403402.911608855007216 ], [ 268533.184905018541031, 1403298.777018266031519 ], [ 268579.519773350737523, 1403217.177063605282456 ], [ 268617.830519215378445, 1403153.917408575071022 ], [ 268688.587559379229788, 1403059.934556024381891 ], [ 268749.32682107295841, 1402990.400034221354872 ], [ 268789.847450898145325, 1402947.427721134619787 ], [ 268844.804804572544526, 1402920.582052341196686 ], [ 268992.486151029181201, 1402856.436923395609483 ], [ 268744.439344723417889, 1402566.132585268234834 ], [ 268435.671945202571806, 1402823.788387361215428 ], [ 268279.81902751798043, 1402957.240791546879336 ], [ 268102.565190665947739, 1403057.056432473706082 ], [ 267839.354508124990389, 1403348.160806843079627 ], [ 267646.792415292176884, 1403715.229453596519306 ], [ 268134.895984796516132, 1403725.060586811974645 ] ] ] ] } },
{ "type": "Feature", "properties": { "ID": 297, "Points": "MPA-02", "layer": "02_Ligaya_wgs84", "path": "D:/Projects/PATH/Sablayan/SABLAYAN/MPA Shapefiles/MPA Shapefiles/02_Ligaya_wgs84.shp" }, "geometry": { "type": "MultiPolygon", "coordinates": [ [ [ [ 267764.921905329683796, 1405678.804707270348445 ], [ 267748.809334402729291, 1405595.943417082540691 ], [ 267759.300853597349487, 1405531.72858660412021 ], [ 267758.928319274040405, 1405486.372270173626021 ], [ 267763.290763408062048, 1405442.541113408282399 ], [ 267775.420694802480284, 1405386.133122180122882 ], [ 267783.21833663637517, 1405334.374838267453015 ], [ 267283.897912554210052, 1405168.49094313941896 ], [ 267096.978192776499782, 1405558.267856691265479 ], [ 267764.921905329683796, 1405678.804707270348445 ] ] ] ] } },
{ "type": "Feature", "properties": { "ID": 313, "Points": "MPA-03", "layer": "03_Discovery_wgs84 2", "path": "D:/Projects/PATH/Sablayan/SABLAYAN/MPA Shapefiles/MPA Shapefiles/03_Discovery_wgs84 2.shp" }, "geometry": { "type": "MultiPolygon", "coordinates": [ [ [ [ 245723.826638435508357, 1403091.700485937995836 ], [ 245818.164026628859574, 1403041.971769229043275 ], [ 245912.522320433025016, 1402960.884937620488927 ], [ 246007.453592136997031, 1402707.937713765539229 ], [ 246008.274217911530286, 1402563.743771859677508 ], [ 245932.682372974901227, 1402415.008343487977982 ], [ 245705.790265041112434, 1402461.006318901199847 ], [ 245686.272437342413468, 1402640.723326033214107 ], [ 245704.495246686768951, 1402754.003203290281817 ], [ 245649.00154013177962, 1402927.587112889392301 ], [ 245723.826638435508357, 1403091.700485937995836 ] ] ] ] } },
{ "type": "Feature", "properties": { "ID": 263, "Points": "MPA-04", "layer": "04_Receiving_wgs84", "path": "D:/Projects/PATH/Sablayan/SABLAYAN/MPA Shapefiles/MPA Shapefiles/04_Receiving_wgs84.shp" }, "geometry": { "type": "MultiPolygon", "coordinates": [ [ [ [ 259144.517430061765481, 1412119.84181728051044 ], [ 259888.913449307874544, 1411379.080617020372301 ], [ 259493.163569401600398, 1410122.69510570820421 ], [ 258778.532994907989632, 1410431.602541584521532 ], [ 259144.517430061765481, 1412119.84181728051044 ] ] ] ] } },
{ "type": "Feature", "properties": { "ID": 195, "Points": "MPA-05", "layer": "05_Dalipi-BB_wgs84", "path": "D:/Projects/PATH/Sablayan/SABLAYAN/MPA Shapefiles/MPA Shapefiles/05_Dalipi-BB_wgs84.shp" }, "geometry": { "type": "MultiPolygon", "coordinates": [ [ [ [ 259052.668002002115827, 1414546.226395877311006 ], [ 259256.277622246649116, 1414611.496142352931201 ], [ 259531.77183171917568, 1414509.84279349911958 ], [ 259511.922255455865525, 1414446.684475937625393 ], [ 259505.649926531972596, 1414361.869492209749296 ], [ 259517.085512690100586, 1414272.495024229632691 ], [ 259529.640997143607819, 1414184.211775627918541 ], [ 259537.307169588340912, 1414043.064353555440903 ], [ 259558.208387120626867, 1413892.985332118347287 ], [ 259598.151692929124692, 1413634.725371266016737 ], [ 259621.565646911767544, 1413518.790709661087021 ], [ 259637.553484728414332, 1413442.600449869874865 ], [ 259650.694364108290756, 1413422.648009405005723 ], [ 259659.144028481387068, 1413372.975491835037246 ], [ 259697.47651912807487, 1413315.331848277244717 ], [ 259719.218059600534616, 1413263.341116950614378 ], [ 259733.006820855051046, 1413189.373569441027939 ], [ 259788.681243279454065, 1413084.186446416657418 ], [ 259830.116221047792351, 1413000.062211421551183 ], [ 259863.478656638151733, 1412879.630372318206355 ], [ 259832.050723443448078, 1412706.846541257575154 ], [ 259808.849578982131789, 1412588.000974752707407 ], [ 259801.196573960332898, 1412471.226666637929156 ], [ 259785.639026263495907, 1412335.823581216391176 ], [ 259586.649504712579073, 1412318.463842674624175 ], [ 259195.486298743024236, 1412551.444457228528336 ], [ 259240.26010707905516, 1412882.449469678569585 ], [ 259185.613426310679642, 1413371.699944788590074 ], [ 259002.513682260061614, 1414291.812856587348506 ], [ 259052.668002002115827, 1414546.226395877311006 ] ] ] ] } },
{ "type": "Feature", "properties": { "ID": 258, "Points": "MPA-06", "layer": "06_Idarag-Laya_wgs84", "path": "D:/Projects/PATH/Sablayan/SABLAYAN/MPA Shapefiles/MPA Shapefiles/06_Idarag-Laya_wgs84.shp" }, "geometry": { "type": "MultiPolygon", "coordinates": [ [ [ [ 259131.82597034756327, 1416762.468894173623994 ], [ 259166.889428287133342, 1417367.460736007196829 ], [ 259671.071510770969326, 1417411.704487769631669 ], [ 259661.736209554568632, 1417345.415957516059279 ], [ 259646.31620878787362, 1417321.016280429903418 ], [ 259660.667083291715244, 1417298.374338695779443 ], [ 259712.326981628168141, 1417308.085786545882002 ], [ 259746.630445392540423, 1417250.161038824822754 ], [ 259731.881783204298699, 1417153.467531799804419 ], [ 259702.917693064024206, 1417022.316770867677405 ], [ 259643.360621931467904, 1416840.711777325952426 ], [ 259614.79119714369881, 1416755.661661450983956 ], [ 259657.900763375626411, 1416642.333570376737043 ], [ 259745.266294033324812, 1416549.373652995098382 ], [ 259825.416158748848829, 1416426.506743039935827 ], [ 259868.645646128483349, 1416327.008719173725694 ], [ 259904.698764987377217, 1416202.213440037798136 ], [ 259903.633554200438084, 1416077.735318021848798 ], [ 259882.54639662487898, 1415919.360598471947014 ], [ 259893.76220522512449, 1415717.119595792843029 ], [ 259890.278034346119966, 1415526.029140223283321 ], [ 259877.829110203165328, 1415309.708632234716788 ], [ 259393.450541802158114, 1415256.984836637973785 ], [ 259128.912734078476205, 1415720.369810567470267 ], [ 259131.82597034756327, 1416762.468894173623994 ] ] ] ] } },
{ "type": "Feature", "properties": { "ID": 322, "Points": "MPA-07", "layer": "07_Laya-Bus_wgs84", "path": "D:/Projects/PATH/Sablayan/SABLAYAN/MPA Shapefiles/MPA Shapefiles/07_Laya-Bus_wgs84.shp" }, "geometry": { "type": "MultiPolygon", "coordinates": [ [ [ [ 258890.167212677217321, 1419565.684999600285664 ], [ 259168.750808545853943, 1419354.159302762942389 ], [ 259213.881276544474531, 1419237.033163150539622 ], [ 259269.473808043228928, 1419095.433131103403866 ], [ 259276.465592212305637, 1419027.634248359594494 ], [ 259351.010729340778198, 1418887.752184241777286 ], [ 259529.431373184575932, 1418494.835396370617673 ], [ 259579.877160258736694, 1417753.016226209001616 ], [ 259619.049777496664319, 1417642.401153356768191 ], [ 259151.282923888618825, 1417517.304242483107373 ], [ 258781.021938683232293, 1418766.737957778852433 ], [ 258492.379846712748986, 1419507.017297480721027 ], [ 258890.167212677217321, 1419565.684999600285664 ] ] ] ] } },
{ "type": "Feature", "properties": { "ID": 482, "Points": "MPA-08", "layer": "08_Parola_wgs84 2", "path": "D:/Projects/PATH/Sablayan/SABLAYAN/MPA Shapefiles/MPA Shapefiles/08_Parola_wgs84 2.shp" }, "geometry": { "type": "MultiPolygon", "coordinates": [ [ [ [ 257481.123443030606722, 1419843.773575253318995 ], [ 257475.023482100048568, 1419790.612392555689439 ], [ 257463.817851572646759, 1419666.561555189080536 ], [ 257441.310221962979995, 1419602.165881564142182 ], [ 257440.866787806618959, 1419551.000383418751881 ], [ 257440.190742549690185, 1419472.993712064111605 ], [ 257404.300077625375707, 1419422.974000269314274 ], [ 257385.474199509102618, 1419393.777543867239729 ], [ 257395.313281797629315, 1419360.138331436319277 ], [ 257410.217344957956811, 1419326.455191797344014 ], [ 257438.657072013273137, 1419296.010137732839212 ], [ 257477.473857521545142, 1419293.996112052118406 ], [ 257528.225112283718772, 1419305.300361496163532 ], [ 257588.888293178606546, 1419291.353370892349631 ], [ 257636.175692574324785, 1419292.621613844064996 ], [ 257695.557187190512195, 1419325.66149532306008 ], [ 257740.070694924681447, 1419370.571152145275846 ], [ 257935.119677594368113, 1419321.234506259905174 ], [ 257725.994488879252458, 1419033.766549301100895 ], [ 257555.405636276176665, 1418981.75301529164426 ], [ 257350.57253726766794, 1418946.637572258478031 ], [ 257062.005605175276287, 1419135.126404729904607 ], [ 256955.426965689606732, 1419402.581240496132523 ], [ 256927.153206943621626, 1419620.477460788097233 ], [ 256850.597586327494355, 1419871.072057914687321 ], [ 257481.123443030606722, 1419843.773575253318995 ] ] ] ] } },
{ "type": "Feature", "properties": { "ID": 506, "Points": "MPA-09", "layer": "09_Pandan Piqueño_wgs84", "path": "D:/Projects/PATH/Sablayan/SABLAYAN/MPA Shapefiles/MPA Shapefiles/09_Pandan Piqueño_wgs84.shp" }, "geometry": { "type": "MultiPolygon", "coordinates": [ [ [ [ 255794.724181478610262, 1421210.160505556501448 ], [ 256323.370414034143323, 1421160.04944510711357 ], [ 256550.300690508593107, 1420685.879298702813685 ], [ 256431.503470435593044, 1420605.268585291691124 ], [ 256304.246755055559333, 1420789.909015475073829 ], [ 256280.31662806274835, 1420837.067394656827673 ], [ 256263.458384160563583, 1420874.205053529934958 ], [ 256247.68465629464481, 1420871.497120567830279 ], [ 256236.354915269505, 1420885.823079702444375 ], [ 256215.474499113013735, 1420954.295540006132796 ], [ 256182.904786522791255, 1420995.83826494612731 ], [ 256131.685678349545924, 1421033.275517934001982 ], [ 256045.919407011766452, 1421049.673607636475936 ], [ 255979.874334018328227, 1421028.90929368045181 ], [ 255915.000039827864384, 1420978.257841212209314 ], [ 255838.547500536486041, 1420913.480305238859728 ], [ 255831.202541867416585, 1420892.203623883891851 ], [ 255806.739003454946214, 1420878.190039639826864 ], [ 255795.073989565891679, 1420854.105615265900269 ], [ 255787.704138582164887, 1420829.983658214099705 ], [ 255757.240237515274202, 1420784.722477353177965 ], [ 255758.435876403236762, 1420757.680187446530908 ], [ 255771.110227812430821, 1420733.383078976068646 ], [ 255851.398977196688065, 1420745.486536700977013 ], [ 255877.895930603495799, 1420736.963532935129479 ], [ 255991.341480897215661, 1420578.518562201643363 ], [ 256086.795190824195743, 1420463.587724659591913 ], [ 256168.749696933926316, 1420380.722210865467787 ], [ 256211.804790985945147, 1420314.169628452975303 ], [ 256255.416822788421996, 1420311.507590204942971 ], [ 256328.369594029500149, 1420271.82310364767909 ], [ 256358.275272578699514, 1420253.06688192137517 ], [ 256375.431507697503548, 1420250.071962884161621 ], [ 256404.016978066472802, 1420244.132027824874967 ], [ 256448.388879192905733, 1420242.322921505430713 ], [ 256467.051183373725507, 1420247.851438848301768 ], [ 256468.594401155423839, 1420260.642735324800014 ], [ 256540.81336439869483, 1420332.574103586142883 ], [ 256663.78672385023674, 1420208.087837005034089 ], [ 256622.386801462213043, 1420095.625952793983743 ], [ 256509.986524580250261, 1419901.086663716472685 ], [ 256241.978271419095108, 1419920.020735495025292 ], [ 255672.681672093167435, 1420361.213445954024792 ], [ 255316.813355468824739, 1420853.428831736091524 ], [ 255794.724181478610262, 1421210.160505556501448 ] ] ] ] } },
{ "type": "Feature", "properties": { "ID": 1382, "Points": "MPA-10", "layer": "10_Pandan Grande_wgs84", "path": "D:/Projects/PATH/Sablayan/SABLAYAN/MPA Shapefiles/MPA Shapefiles/10_Pandan Grande_wgs84.shp" }, "geometry": { "type": "MultiPolygon", "coordinates": [ [ [ [ 255051.65810838266043, 1422848.449588080402464 ], [ 255347.430314355384326, 1423006.329718411201611 ], [ 256268.786325061344542, 1422993.966890570241958 ], [ 256578.368933821795508, 1422730.57559181866236 ], [ 256578.368931033503031, 1422730.575583884725347 ], [ 256349.482393503159983, 1422481.714518834836781 ], [ 256349.482384284114232, 1422481.714496197877452 ], [ 256341.605735685385298, 1422524.041262754239142 ], [ 256309.238653597130906, 1422561.715293473564088 ], [ 256257.129263349052053, 1422588.300747067201883 ], [ 256181.387710392766166, 1422614.934264485025778 ], [ 256110.379902044311166, 1422607.585630405228585 ], [ 256003.631930111761903, 1422604.840258702402934 ], [ 255974.830777133465745, 1422612.974644934758544 ], [ 255961.299265013629338, 1422631.568182229297236 ], [ 255949.490627647814108, 1422659.062128559686244 ], [ 255906.253839949058602, 1422685.991209669504315 ], [ 255870.556718252366409, 1422695.497912101214752 ], [ 255842.520659547590185, 1422709.391357151791453 ], [ 255807.026174155675108, 1422696.666387423872948 ], [ 255786.723611225868808, 1422702.973700631409883 ], [ 255775.555919486650964, 1422695.715658748522401 ], [ 255738.528610445413506, 1422694.200597819406539 ], [ 255718.18851827448816, 1422696.217457348713651 ], [ 255713.34484313253779, 1422706.680428768508136 ], [ 255697.80016454186989, 1422692.717965435935184 ], [ 255677.363537505705608, 1422683.702117993496358 ], [ 255645.882510927156545, 1422681.525671274168417 ], [ 255616.890348327957327, 1422681.779385871719569 ], [ 255602.694238644820871, 1422689.455079841893166 ], [ 255589.823851726978319, 1422690.597956380108371 ], [ 255590.564096548128873, 1422704.689946676138788 ], [ 255599.913472287968034, 1422715.641694698948413 ], [ 255598.164840264624218, 1422727.303550943965092 ], [ 255593.959526737744454, 1422740.212857647333294 ], [ 255577.932068883994361, 1422741.579100369010121 ], [ 255571.693785134557402, 1422733.665017627878115 ], [ 255580.721254828386009, 1422707.840984277427197 ], [ 255561.598775641439715, 1422708.008372250245884 ], [ 255557.431032862310531, 1422725.208202559966594 ], [ 255545.083223903609905, 1422724.090345776872709 ], [ 255529.95812390386709, 1422730.630308162653819 ], [ 255520.961522948433412, 1422716.945809048367664 ], [ 255492.489623481524177, 1422706.161517629399896 ], [ 255468.469868954736739, 1422710.662691775942221 ], [ 255426.925877566449344, 1422686.507426931755617 ], [ 255404.429175660916371, 1422653.603645669296384 ], [ 255405.904444578132825, 1422622.362175978021696 ], [ 255380.989215969835641, 1422615.5240707276389 ], [ 255378.179556992428843, 1422598.789856543764472 ], [ 255382.157344271283364, 1422575.950329751707613 ], [ 255383.149461790570058, 1422548.357507579959929 ], [ 255380.572791146289092, 1422542.648805288365111 ], [ 255376.065136880934006, 1422534.749878692440689 ], [ 255376.688365364068886, 1422529.893167657544836 ], [ 255380.64598342528916, 1422525.668783840257674 ], [ 255380.992866345914081, 1422513.436458335723728 ], [ 255368.087890901049832, 1422510.783997436519712 ], [ 255367.821380465233233, 1422488.726056303363293 ], [ 255383.011439834779594, 1422491.689273959724233 ], [ 255391.264734365424374, 1422488.827208842616528 ], [ 255390.195310786773916, 1422475.749502230202779 ], [ 255377.982715412392281, 1422474.974420887185261 ], [ 255378.787297383561963, 1422465.485360542777926 ], [ 255392.101706083340105, 1422465.368745404295623 ], [ 255394.037673221813748, 1422453.249929494457319 ], [ 255400.093102470476879, 1422369.831086058402434 ], [ 255412.548043721559225, 1422312.714376864023507 ], [ 255418.35171791218454, 1422270.980481301667169 ], [ 255435.816829621704528, 1422222.401562041603029 ], [ 255464.788037924648961, 1422219.695976828224957 ], [ 255527.745816399226896, 1422152.942174732685089 ], [ 255598.159758503024932, 1422162.746842423221096 ], [ 255644.735688988759648, 1422197.892684739781544 ], [ 255662.432011353579583, 1422231.181090888567269 ], [ 255691.880113134306157, 1422227.516687471419573 ], [ 255730.39516449382063, 1422227.208424650365487 ], [ 255769.637156582641182, 1422230.514643432339653 ], [ 255783.969716422318015, 1422246.939956402638927 ], [ 255809.985150669032009, 1422258.972230528714135 ], [ 255846.390790675272001, 1422259.879964373772964 ], [ 255881.23484787432244, 1422272.340829053893685 ], [ 255938.045323691621888, 1422300.148947964888066 ], [ 255967.422148268786259, 1422311.282167936908081 ], [ 256059.425733306939946, 1422334.970782850636169 ], [ 256164.192387876275461, 1422335.085283440770581 ], [ 256245.760034674894996, 1422333.586319869617 ], [ 256258.596616891416488, 1422352.362451748922467 ], [ 256280.660033715568716, 1422430.083409690530971 ], [ 256294.219870646571508, 1422440.983136325608939 ], [ 256336.270440761029022, 1422449.273273375816643 ], [ 256349.482384284114232, 1422481.714496197877452 ], [ 256349.48238584183855, 1422481.714487827150151 ], [ 256578.368931033503031, 1422730.575583884725347 ], [ 256426.501471018767916, 1422298.440733331022784 ], [ 255558.601763795857551, 1421872.868466264335439 ], [ 255087.483355475094868, 1422118.31908394745551 ], [ 254907.528897845942993, 1422544.752914347453043 ], [ 255051.65810838266043, 1422848.449588080402464 ] ] ], [ [ [ 256578.368943962734193, 1422730.575620674528182 ], [ 256578.368936351384036, 1422730.575589666608721 ], [ 256578.368933821795508, 1422730.57559181866236 ], [ 256578.368943962734193, 1422730.575620674528182 ] ] ] ] } }
]
}
