{
"type": "FeatureCollection",
"name": "santeodoro_muniboundary",
"crs": { "type": "name", "properties": { "name": "urn:ogc:def:crs:OGC:1.3:CRS84" } },
"features": [
{ "type": "Feature", "properties": { "Id": 0, "Barangay": "TACLIGAN", "Area": 952.0, "Elecresult": "MEF 135 votes SRP 950 votes", "Inventory": 1187 }, "geometry": { "type": "MultiPolygon", "coordinates": [ [ [ [ 121.065227777440796, 13.383438530635354 ], [ 121.056012400447713, 13.386097228629241 ], [ 121.054797476450204, 13.389280225628088 ], [ 121.052484857451589, 13.389367072626666 ], [ 121.052998463451829, 13.39030937862683 ], [ 121.051146337453446, 13.391294441625577 ], [ 121.050624128453833, 13.391421244625231 ], [ 121.050402120453555, 13.390778446625164 ], [ 121.047873691455251, 13.391110813623543 ], [ 121.047987628455658, 13.391896694623528 ], [ 121.04726750545592, 13.391707961623087 ], [ 121.044779038457577, 13.392055041621463 ], [ 121.044575835457849, 13.392394988621277 ], [ 121.042917664458855, 13.392526060620268 ], [ 121.042088237460348, 13.394285876619531 ], [ 121.042500904460297, 13.394485325619744 ], [ 121.042187204460831, 13.395267891619442 ], [ 121.040685664462089, 13.395858075618404 ], [ 121.03926418346235, 13.394813461617677 ], [ 121.038836035462552, 13.39487555361741 ], [ 121.038257075463193, 13.39540746961698 ], [ 121.035733405465223, 13.396302600615277 ], [ 121.035519905465421, 13.396370480615094 ], [ 121.03469248546692, 13.398258063614373 ], [ 121.034635313467234, 13.398715531614256 ], [ 121.035169630466882, 13.398745857614591 ], [ 121.036111323465974, 13.397981273615313 ], [ 121.036932306465943, 13.398916570615665 ], [ 121.036707977466477, 13.399475574615474 ], [ 121.039291092466911, 13.402925353616642 ], [ 121.040298252466329, 13.40293317661725 ], [ 121.040639492466383, 13.403380615617435 ], [ 121.040961751466583, 13.404144082617549 ], [ 121.040728092467049, 13.404588250617348 ], [ 121.041492960466798, 13.405088055617776 ], [ 121.042142399466883, 13.405712689618056 ], [ 121.044594937464979, 13.405018971619704 ], [ 121.044705827465577, 13.406198793619604 ], [ 121.044343257465883, 13.406356751619352 ], [ 121.043803737466078, 13.406057828619041 ], [ 121.043738800466386, 13.406641447618989 ], [ 121.044683166466001, 13.40697030361949 ], [ 121.044187903467332, 13.408643805618977 ], [ 121.044471004467198, 13.408669811619141 ], [ 121.044685013466676, 13.408095690619341 ], [ 121.045492844466395, 13.408385973619851 ], [ 121.044971848467327, 13.409537191619389 ], [ 121.044261655467849, 13.409767185618911 ], [ 121.044204601468167, 13.410211575618797 ], [ 121.044382300468499, 13.410998044618795 ], [ 121.045651949468024, 13.411335392619566 ], [ 121.046949332467165, 13.411253341620396 ], [ 121.047253588467271, 13.411635279620519 ], [ 121.047464559467358, 13.411990162620606 ], [ 121.047881011466913, 13.411731553620884 ], [ 121.048230695466529, 13.411459509621157 ], [ 121.048441457466637, 13.41184055762124 ], [ 121.048827325466533, 13.412052875621427 ], [ 121.048918445466597, 13.412354497621493 ], [ 121.048929591466774, 13.412629333621432 ], [ 121.049635515465994, 13.411860741621984 ], [ 121.050269227465179, 13.411125116622472 ], [ 121.050961282464414, 13.410423070622977 ], [ 121.05171029646354, 13.409815405623563 ], [ 121.052334787462939, 13.409238715624033 ], [ 121.05299005146216, 13.40860218262449 ], [ 121.053801040461252, 13.407844105625099 ], [ 121.054700026460395, 13.40714915162577 ], [ 121.055226625459767, 13.406637260626189 ], [ 121.055903931459156, 13.406186672626635 ], [ 121.056854830458207, 13.405647366627294 ], [ 121.057832629457394, 13.405199700628007 ], [ 121.058808153456695, 13.40481284762866 ], [ 121.059660496456047, 13.404485382629238 ], [ 121.060421826455411, 13.404255722629744 ], [ 121.061375333454791, 13.404045417630366 ], [ 121.062450112454059, 13.403896173631066 ], [ 121.063586393453292, 13.40383626163174 ], [ 121.064569233452787, 13.403895425632342 ], [ 121.065551788452325, 13.40398495163296 ], [ 121.066380338451893, 13.404136463633462 ], [ 121.067239745451516, 13.40435251763399 ], [ 121.068006704451108, 13.404525335634462 ], [ 121.068673851450953, 13.404766793634854 ], [ 121.069371538450639, 13.40500505463525 ], [ 121.069999756450272, 13.405072207635618 ], [ 121.070644783450035, 13.405212963636009 ], [ 121.071489481449603, 13.405302197636557 ], [ 121.07215471844934, 13.405467382636905 ], [ 121.072682945449088, 13.40557089363725 ], [ 121.073168782448903, 13.405790622637506 ], [ 121.073739127448718, 13.406026630637832 ], [ 121.074159463448638, 13.40620382163811 ], [ 121.074607685448456, 13.406470021638359 ], [ 121.075176658448314, 13.406795843638648 ], [ 121.075866921448153, 13.407181572639045 ], [ 121.076860115447857, 13.407716832639599 ], [ 121.077919059447481, 13.408222888640202 ], [ 121.078797650447299, 13.408699993640708 ], [ 121.079708976447023, 13.409058880641181 ], [ 121.080712138446643, 13.409508843641802 ], [ 121.081443842446475, 13.409838527642167 ], [ 121.082420644446131, 13.410318968642757 ], [ 121.083001269445987, 13.410649963643092 ], [ 121.083644070445828, 13.410981301643416 ], [ 121.084256758445662, 13.411434344643737 ], [ 121.084778570445522, 13.411736643644021 ], [ 121.085270309445477, 13.412100181644336 ], [ 121.085762785445368, 13.412434001644577 ], [ 121.086286733445249, 13.412738081644846 ], [ 121.086750046445175, 13.413103855645078 ], [ 121.087183164445165, 13.413439687645326 ], [ 121.087679085445131, 13.413837299645616 ], [ 121.088145053445018, 13.414235727645837 ], [ 121.088581064445023, 13.414605178646056 ], [ 121.088871142445001, 13.415006614646183 ], [ 121.089084690445162, 13.415430776646271 ], [ 121.089430168445134, 13.415776804646459 ], [ 121.089677181445197, 13.416007983646551 ], [ 121.090010840445274, 13.416443740646699 ], [ 121.090564280445037, 13.416662396647032 ], [ 121.093241963443646, 13.417008326648649 ], [ 121.093830082443347, 13.417042605649048 ], [ 121.094811604442526, 13.416674803649686 ], [ 121.095599158441772, 13.416204644650264 ], [ 121.094580704441583, 13.414849335649777 ], [ 121.093692912441597, 13.413874436649376 ], [ 121.092513175441567, 13.412635654648764 ], [ 121.090140888441539, 13.410092563647597 ], [ 121.083064104441348, 13.402502746644128 ], [ 121.080733169441174, 13.399981346643003 ], [ 121.079194903441135, 13.398312759642266 ], [ 121.077955408441142, 13.396926495641646 ], [ 121.076068563441012, 13.394834900640705 ], [ 121.073192359440952, 13.391843011639297 ], [ 121.070542040440941, 13.389022909638008 ], [ 121.06708416944079, 13.385254600636305 ], [ 121.065310767440806, 13.383567665635397 ], [ 121.065227777440796, 13.383438530635354 ] ] ] ] } },
{ "type": "Feature", "properties": { "Id": 0, "Barangay": "LUMANGBAYAN", "Area": 605.1, "Elecresult": "MEF 283 votes SRP 887 votes", "Inventory": 551 }, "geometry": { "type": "MultiPolygon", "coordinates": [ [ [ [ 121.017233462473826, 13.392275454602951 ], [ 121.018865932475066, 13.39609608160349 ], [ 121.018592718475688, 13.396934154603199 ], [ 121.021472036475672, 13.399664500604699 ], [ 121.021251536477408, 13.402667841604131 ], [ 121.021622338479574, 13.406839482603853 ], [ 121.021353780480212, 13.407732503603537 ], [ 121.021761081480719, 13.409040025603645 ], [ 121.02372985847893, 13.407891791605023 ], [ 121.024914737479406, 13.409957308605515 ], [ 121.024845666479663, 13.410417118605388 ], [ 121.02731297747934, 13.412206226606722 ], [ 121.023388732482886, 13.41446446960396 ], [ 121.02326575548328, 13.415125899603769 ], [ 121.028272999481359, 13.416892448606687 ], [ 121.026224256483275, 13.417971441605289 ], [ 121.02778519148282, 13.418907471606133 ], [ 121.027722147483217, 13.419420281606005 ], [ 121.027412597483334, 13.419323578605857 ], [ 121.027408662483623, 13.419805424605782 ], [ 121.02706632548383, 13.419792269605606 ], [ 121.027096120484245, 13.420730065605463 ], [ 121.027767486484066, 13.421075775605861 ], [ 121.026574551485908, 13.423006511604815 ], [ 121.026316532486064, 13.423151148604633 ], [ 121.027101634486115, 13.423984865605064 ], [ 121.026923019486389, 13.424326624604877 ], [ 121.027862732486042, 13.424674547605418 ], [ 121.02860148148541, 13.424348500605973 ], [ 121.028631688485802, 13.425041343605839 ], [ 121.029036585485983, 13.425605706606071 ], [ 121.029552288485917, 13.426023700606276 ], [ 121.029993773485202, 13.425596754607906 ], [ 121.030467900484538, 13.424989135608227 ], [ 121.030919431483824, 13.424286627608682 ], [ 121.031328436483378, 13.423832367608982 ], [ 121.031736970482896, 13.423349054609307 ], [ 121.032146100482365, 13.422836120609611 ], [ 121.032583897481857, 13.422414121609911 ], [ 121.032895937481442, 13.422113339610197 ], [ 121.033268196481075, 13.421694733610449 ], [ 121.03348365748073, 13.421486246610604 ], [ 121.03373054848052, 13.421188445610802 ], [ 121.034030446480145, 13.420894711611062 ], [ 121.034231136479832, 13.420646540611227 ], [ 121.034331458479741, 13.420427608611295 ], [ 121.034627246479332, 13.420164788611547 ], [ 121.034729210479185, 13.419985922611639 ], [ 121.034899429479111, 13.419922942611722 ], [ 121.035010175478874, 13.419768398611755 ], [ 121.035169315478825, 13.419721409611883 ], [ 121.035290834478644, 13.41958838361202 ], [ 121.035313820478549, 13.419454590611998 ], [ 121.035505673478468, 13.419423932612098 ], [ 121.03561059547836, 13.41931221361224 ], [ 121.03553995547837, 13.419247356612258 ], [ 121.035541045478254, 13.419113392612207 ], [ 121.035888960477877, 13.418740981612459 ], [ 121.036064216477797, 13.418731629612584 ], [ 121.036125433477622, 13.418608851612605 ], [ 121.036256853477525, 13.418604516612744 ], [ 121.036295999477531, 13.418503002612798 ], [ 121.0364109104774, 13.418509256612845 ], [ 121.036428204477403, 13.418402213612829 ], [ 121.036592207477185, 13.418430285612978 ], [ 121.036620317477116, 13.418339402613 ], [ 121.036844971477038, 13.41831435761312 ], [ 121.036944592476857, 13.418181161613232 ], [ 121.037328558476574, 13.418087690613447 ], [ 121.037608865476344, 13.417950541613633 ], [ 121.037653180476383, 13.417886579613695 ], [ 121.037943173476108, 13.417904913613869 ], [ 121.03807559447597, 13.417777330613958 ], [ 121.038103573475922, 13.417702523614015 ], [ 121.038563478475666, 13.41769538461433 ], [ 121.038696464475464, 13.41749813961439 ], [ 121.03880060147543, 13.417482873614468 ], [ 121.038828493475393, 13.417418783614506 ], [ 121.039003749475228, 13.417409428614599 ], [ 121.03928488147497, 13.41717046461479 ], [ 121.039516181474738, 13.417000778614989 ], [ 121.039703080474595, 13.416905771615133 ], [ 121.039857961474368, 13.416708696615226 ], [ 121.040131879474245, 13.416684031615416 ], [ 121.040248050474077, 13.416534885615491 ], [ 121.04026525547394, 13.416438558615512 ], [ 121.040584224473719, 13.416258834615768 ], [ 121.040704609473593, 13.416265129615846 ], [ 121.040832119473393, 13.4160678406159 ], [ 121.040969664473309, 13.415983166616019 ], [ 121.041145049473201, 13.415957734616144 ], [ 121.041289110473045, 13.415744497616256 ], [ 121.041465538472764, 13.415590459616393 ], [ 121.041652174472731, 13.415527602616526 ], [ 121.042019062472406, 13.415514375616731 ], [ 121.042407715472265, 13.415517392617037 ], [ 121.042980357472004, 13.415784424617307 ], [ 121.043619580471827, 13.416099308617685 ], [ 121.044123902471526, 13.416050564617976 ], [ 121.044673977471177, 13.415873332618325 ], [ 121.044948493470798, 13.415526664618584 ], [ 121.045433074470253, 13.415183296618942 ], [ 121.045903802470093, 13.415195351619264 ], [ 121.046320405469785, 13.415173929619488 ], [ 121.04693568546935, 13.414963748619902 ], [ 121.047206797468945, 13.414647441620099 ], [ 121.047513587468586, 13.414379573620353 ], [ 121.047969377468135, 13.413966111620651 ], [ 121.04818535846762, 13.413283055620937 ], [ 121.048512675467322, 13.413080858621141 ], [ 121.048929591466802, 13.412629333621432 ], [ 121.048918445466597, 13.412354497621514 ], [ 121.048827325466561, 13.412052875621434 ], [ 121.04844145746668, 13.41184055762127 ], [ 121.048230695466529, 13.411459509621183 ], [ 121.047881011466941, 13.411731553620884 ], [ 121.047464559467358, 13.411990162620619 ], [ 121.047253588467257, 13.411635279620532 ], [ 121.046949332467165, 13.41125334162041 ], [ 121.045651949468038, 13.411335392619591 ], [ 121.044382300468499, 13.410998044618813 ], [ 121.044204601468167, 13.41021157561881 ], [ 121.044261655467849, 13.409767185618898 ], [ 121.044971848467327, 13.409537191619407 ], [ 121.045492844466395, 13.40838597361989 ], [ 121.044685013466676, 13.408095690619382 ], [ 121.044471004467198, 13.408669811619141 ], [ 121.044187903467332, 13.408643805618999 ], [ 121.044683166466001, 13.40697030361949 ], [ 121.043738800466386, 13.406641447619018 ], [ 121.043803737466078, 13.406057828619081 ], [ 121.044343257465883, 13.406356751619334 ], [ 121.044705827465577, 13.406198793619623 ], [ 121.044594937464979, 13.405018971619725 ], [ 121.042142399466883, 13.405712689618051 ], [ 121.041492960466798, 13.405088055617776 ], [ 121.040728092467049, 13.404588250617349 ], [ 121.040961751466583, 13.404144082617586 ], [ 121.040639492466383, 13.403380615617442 ], [ 121.040298252466329, 13.40293317661726 ], [ 121.039291092466968, 13.402925353616661 ], [ 121.036707977466477, 13.399475574615478 ], [ 121.036932306465971, 13.39891657061569 ], [ 121.036111323465988, 13.397981273615345 ], [ 121.03516963046691, 13.398745857614607 ], [ 121.034635313467234, 13.398715531614277 ], [ 121.03469248546692, 13.398258063614373 ], [ 121.035519905465421, 13.396370480615097 ], [ 121.035733405465251, 13.396302600615256 ], [ 121.035756381464722, 13.395544559615336 ], [ 121.035932838464646, 13.395385165615508 ], [ 121.036382192463833, 13.394649131615868 ], [ 121.030778870467771, 13.395763014612257 ], [ 121.02852369946666, 13.391443428611392 ], [ 121.023267820471702, 13.394985585607584 ], [ 121.020319987471211, 13.391037547606311 ], [ 121.017356654473588, 13.392257200604282 ], [ 121.017233462473826, 13.392275454602951 ] ] ] ] } },
{ "type": "Feature", "properties": { "Id": 0, "Barangay": "POBLACION", "Area": 109.7, "Elecresult": "MEF 333 votes SRP 787 votes", "Inventory": 365 }, "geometry": { "type": "MultiPolygon", "coordinates": [ [ [ [ 121.02090394349726, 13.437600889600612 ], [ 121.021283852496552, 13.436944877600924 ], [ 121.021522239496292, 13.436554803601107 ], [ 121.02170637949601, 13.436289263601269 ], [ 121.021984500495535, 13.435786210601544 ], [ 121.022233336495205, 13.435359754601729 ], [ 121.022745508494424, 13.434568324602191 ], [ 121.023049899493969, 13.43403812360244 ], [ 121.023271910493605, 13.43369135960266 ], [ 121.023599332493134, 13.433140510602877 ], [ 121.023914087492699, 13.432620199603157 ], [ 121.02423539749222, 13.432161813603409 ], [ 121.024422426491938, 13.431859281603586 ], [ 121.024759895491442, 13.431313136603894 ], [ 121.025001981491087, 13.431003409604072 ], [ 121.025202695490833, 13.430743464604197 ], [ 121.02540681049048, 13.430373853604383 ], [ 121.025572189490248, 13.430110776604538 ], [ 121.025797045489966, 13.429772964604689 ], [ 121.026011520489632, 13.42940382460492 ], [ 121.026276017489295, 13.429075634605107 ], [ 121.026713928488732, 13.42858527760548 ], [ 121.026879802488551, 13.428461049605591 ], [ 121.027010711488515, 13.42838950260567 ], [ 121.027113020488358, 13.428265112605768 ], [ 121.027470655487974, 13.427480211604815 ], [ 121.026902147487732, 13.426967902605778 ], [ 121.02594174948841, 13.427323774605116 ], [ 121.025290254488837, 13.427297117604775 ], [ 121.024582993489432, 13.427627784604232 ], [ 121.024577773489767, 13.428265683604181 ], [ 121.023835608490003, 13.428018480603702 ], [ 121.023048663490755, 13.428400242603182 ], [ 121.022680065490817, 13.428242175602938 ], [ 121.022345306491317, 13.428791278602693 ], [ 121.022210843491592, 13.429079020602567 ], [ 121.021884499492117, 13.429675603602302 ], [ 121.021000152491993, 13.428509160601877 ], [ 121.020487673493292, 13.430324121601316 ], [ 121.020114854493244, 13.429672767601181 ], [ 121.019729063493585, 13.429934533600877 ], [ 121.017627817494215, 13.428956788599729 ], [ 121.016758144495455, 13.430294784598969 ], [ 121.015389436495624, 13.429128820598287 ], [ 121.013229909496076, 13.427745406597081 ], [ 121.013173830495404, 13.42653374759724 ], [ 121.012589561495616, 13.426365344596878 ], [ 121.011088696495904, 13.425211251596085 ], [ 121.011006350497397, 13.427723551595694 ], [ 121.010744856498263, 13.428997357595403 ], [ 121.010724447498333, 13.429337658595323 ], [ 121.010688098499344, 13.430944994595105 ], [ 121.011973963498988, 13.431627109595762 ], [ 121.012839545498679, 13.432061363596288 ], [ 121.013519370497903, 13.4313177185968 ], [ 121.013986553497872, 13.431651129597029 ], [ 121.015152406498856, 13.434633798597384 ], [ 121.015752533498457, 13.434531872597777 ], [ 121.016058315498398, 13.434889801597937 ], [ 121.016789272498201, 13.435084738598377 ], [ 121.016285834498973, 13.435931487597941 ], [ 121.017656229498598, 13.4367384295987 ], [ 121.018219375498461, 13.437033645598989 ], [ 121.01813289049862, 13.437244139598873 ], [ 121.018416164498618, 13.437465085599074 ], [ 121.018547994498363, 13.437273586599195 ], [ 121.018628900498385, 13.437340301599221 ], [ 121.01853123749855, 13.437526327599139 ], [ 121.018822464498513, 13.437717168599315 ], [ 121.01883570549856, 13.437981240599285 ], [ 121.019594872498459, 13.438424647599652 ], [ 121.019886349498421, 13.438617219599822 ], [ 121.019912150340531, 13.438634002714222 ], [ 121.020188646498312, 13.438813859599966 ], [ 121.020499331497888, 13.43828720060025 ], [ 121.02090394349726, 13.437600889600612 ] ] ] ] } },
{ "type": "Feature", "properties": { "Id": 0, "Barangay": "CALSAPA", "Area": 480.3, "Elecresult": "MEF 226 votes SRP 913 votes", "Inventory": 1230 }, "geometry": { "type": "MultiPolygon", "coordinates": [ [ [ [ 121.026902147487732, 13.426967902605778 ], [ 121.026458867488188, 13.426920507604223 ], [ 121.025909041488489, 13.42682208960391 ], [ 121.025284938488568, 13.426467522603565 ], [ 121.0246975164888, 13.426264338603243 ], [ 121.024387814488904, 13.426062966603109 ], [ 121.024163302488773, 13.425691926602978 ], [ 121.024197126488559, 13.42521740260306 ], [ 121.024475677488141, 13.424838582603316 ], [ 121.024033587488418, 13.424824744602994 ], [ 121.023503097488572, 13.424496837602732 ], [ 121.022822497488619, 13.423924262602403 ], [ 121.022483499488715, 13.423867128602136 ], [ 121.022336169488781, 13.423826729602096 ], [ 121.02192865648928, 13.424117955601773 ], [ 121.021455595489456, 13.424168319601472 ], [ 121.020467757489669, 13.423367419600964 ], [ 121.020654898489312, 13.423002361601148 ], [ 121.021034919488386, 13.42184124960154 ], [ 121.020554052488677, 13.421755700601256 ], [ 121.020016967489099, 13.42193426960087 ], [ 121.019805946490138, 13.423697962600521 ], [ 121.019482837490756, 13.424343977600186 ], [ 121.019091334491122, 13.424536082599902 ], [ 121.018630506491334, 13.42453679759965 ], [ 121.018354077491324, 13.424204981599541 ], [ 121.018538725491055, 13.42384209159969 ], [ 121.018971668490536, 13.423459466600029 ], [ 121.018910887490449, 13.423185854600009 ], [ 121.018125038490552, 13.42253991759959 ], [ 121.018001033490293, 13.422081971599599 ], [ 121.018136820490071, 13.421703032599712 ], [ 121.017897394490106, 13.421537602599585 ], [ 121.017523998490319, 13.421529855599372 ], [ 121.017267542490487, 13.421643282599161 ], [ 121.017135815490803, 13.422086756599056 ], [ 121.017632629490549, 13.422064643599386 ], [ 121.017500294490986, 13.422621587599179 ], [ 121.016494481491563, 13.422636600598564 ], [ 121.015646256491777, 13.422202938598092 ], [ 121.015468444491518, 13.421715706598023 ], [ 121.014690075492226, 13.421954897597518 ], [ 121.01358514249273, 13.421869227596861 ], [ 121.01313284549272, 13.421298058596625 ], [ 121.012674851493031, 13.421419513596351 ], [ 121.012361607493204, 13.421267926596123 ], [ 121.011894339493409, 13.421321963595879 ], [ 121.011347699493555, 13.420870302595599 ], [ 121.009885825494834, 13.421763081594523 ], [ 121.009328845494906, 13.42137386659428 ], [ 121.009603429494376, 13.420633360594504 ], [ 121.009414934494117, 13.419893404594506 ], [ 121.009807131493957, 13.419982687594725 ], [ 121.00993662749373, 13.419772061594836 ], [ 121.010146366493686, 13.419961315594962 ], [ 121.010547402493401, 13.41993233459519 ], [ 121.01099668849271, 13.419083081595565 ], [ 121.010600564492137, 13.41781226759548 ], [ 121.010702597491886, 13.417362044595636 ], [ 121.011011270491622, 13.417312000595828 ], [ 121.011662991491676, 13.417920660596131 ], [ 121.012118329491358, 13.417963611596463 ], [ 121.012255586491065, 13.417571093596555 ], [ 121.012018455490974, 13.417070664596473 ], [ 121.011620181490869, 13.416608324596268 ], [ 121.01173128249053, 13.416136881596415 ], [ 121.012068376490305, 13.415890259596633 ], [ 121.010902319490853, 13.415894183595931 ], [ 121.010468603491475, 13.416481160595582 ], [ 121.008825611492497, 13.41662324959456 ], [ 121.007115591492735, 13.415142684593647 ], [ 121.006959208492418, 13.414603530593672 ], [ 121.006303828492804, 13.414440910593241 ], [ 121.005957791493245, 13.415006540592922 ], [ 121.005709502493474, 13.415000367592826 ], [ 121.005498650493294, 13.414565742592695 ], [ 121.004954492493198, 13.413918560592514 ], [ 121.004723633493526, 13.41428409259227 ], [ 121.004989498493643, 13.414548594592409 ], [ 121.004987657493658, 13.414771618592344 ], [ 121.004582575494197, 13.415135771592075 ], [ 121.00248379049593, 13.416103147590643 ], [ 121.001402853496742, 13.416434761589921 ], [ 121.000069540497435, 13.416320166589063 ], [ 120.999226758497841, 13.416129801588609 ], [ 120.999177931497528, 13.415552139588652 ], [ 120.998818587497567, 13.415247529588433 ], [ 120.998835466497297, 13.414827827588519 ], [ 120.999318139496978, 13.414805417588843 ], [ 120.999335016496744, 13.41438571558885 ], [ 120.998892874496974, 13.414369086588612 ], [ 120.99870905649685, 13.413908431588533 ], [ 120.997986136497147, 13.413810854588135 ], [ 120.997572452497721, 13.414175031587837 ], [ 120.997205153497944, 13.41425072858757 ], [ 120.997087258497842, 13.413921795587543 ], [ 120.99714412649756, 13.413528650587628 ], [ 120.997146844497379, 13.413200675587657 ], [ 120.996705466497602, 13.413092210587399 ], [ 120.996408786497895, 13.413312891587145 ], [ 120.996392665498021, 13.413640759587111 ], [ 120.996068199498282, 13.41363789858692 ], [ 120.995867690498272, 13.413423141586849 ], [ 120.995368568498719, 13.413660573586501 ], [ 120.994399332498844, 13.413205078586341 ], [ 120.993756599498909, 13.412795186586811 ], [ 120.993806960499185, 13.413501030586799 ], [ 120.992952330499278, 13.412590983586316 ], [ 120.992864696499424, 13.412842828586264 ], [ 120.992588613499109, 13.412013165586204 ], [ 120.991390457500131, 13.412557118585365 ], [ 120.991554055500245, 13.413029915585394 ], [ 120.990374268500759, 13.412645836584785 ], [ 120.990516441501228, 13.413651736584727 ], [ 120.991594228500844, 13.414055532585328 ], [ 120.992002805501713, 13.415941052585325 ], [ 120.991577971501968, 13.416011351585079 ], [ 120.990831939502371, 13.416032201584597 ], [ 120.989942331502903, 13.41603850758403 ], [ 120.989218052503247, 13.415912160583593 ], [ 120.98874615850346, 13.415881602583294 ], [ 120.987980883503923, 13.415748226582849 ], [ 120.987575460504175, 13.415952642582527 ], [ 120.98784346150444, 13.416638022582623 ], [ 120.987547960504685, 13.416789727582412 ], [ 120.987050258504922, 13.416571404582172 ], [ 120.986714037505138, 13.416682593581923 ], [ 120.986234798505421, 13.416712258581631 ], [ 120.985174970506066, 13.416616711580991 ], [ 120.98477973850612, 13.416419297580754 ], [ 120.983871505506514, 13.416197687580208 ], [ 120.98361023850687, 13.416486874580013 ], [ 120.984046133566778, 13.416701472463336 ], [ 120.984470971506582, 13.416910625580483 ], [ 120.984636620506691, 13.417250650580574 ], [ 120.984146831507033, 13.417321227580251 ], [ 120.983319969507548, 13.417486657579671 ], [ 120.982714960507593, 13.41694795257934 ], [ 120.980417400509211, 13.417397797577861 ], [ 120.980198925509384, 13.417523749577734 ], [ 120.979675317509987, 13.418026255577281 ], [ 120.979450754510012, 13.417877090577223 ], [ 120.979054043510175, 13.417782049576958 ], [ 120.978794006510356, 13.417858429576757 ], [ 120.978760132510516, 13.418057234576732 ], [ 120.978756264510622, 13.418280126576727 ], [ 120.978966777510749, 13.418608870576819 ], [ 120.978840282510959, 13.41887025957671 ], [ 120.978877853511179, 13.419268732576626 ], [ 120.979065780511121, 13.419463216576771 ], [ 120.979224746511136, 13.419494179576859 ], [ 120.97942031851106, 13.419681302576954 ], [ 120.978879535511524, 13.419973854576567 ], [ 120.978861204511787, 13.420352238576513 ], [ 120.97919461251152, 13.420377178576738 ], [ 120.979214687511814, 13.420696493576656 ], [ 120.979348395511792, 13.420833850576793 ], [ 120.980132996511543, 13.421237499577206 ], [ 120.980869945511387, 13.421629077577579 ], [ 120.981262736511212, 13.421772468577862 ], [ 120.981751425511007, 13.421869879578095 ], [ 120.981777473511656, 13.423038794577947 ], [ 120.982121494511475, 13.423185640578154 ], [ 120.983088742511001, 13.423283033578794 ], [ 120.983815813510702, 13.423429096579218 ], [ 120.985077968510154, 13.423836552579962 ], [ 120.985993085509705, 13.424054235580527 ], [ 120.988775719508055, 13.423959589582232 ], [ 120.989428637507942, 13.424408909582636 ], [ 120.990010315507817, 13.424810912582931 ], [ 120.991737221507194, 13.425327228583944 ], [ 120.992169147506701, 13.425073553584259 ], [ 120.99263766550628, 13.424726672584599 ], [ 120.995965712505324, 13.426529610586428 ], [ 120.996450638505394, 13.427082763586647 ], [ 120.997293616504436, 13.426212928587292 ], [ 121.000273470502776, 13.426440480589141 ], [ 121.003120695500243, 13.424693093591134 ], [ 121.002733680501606, 13.426735286590649 ], [ 121.002794723502106, 13.4277508625905 ], [ 121.002989901502715, 13.428957884590513 ], [ 121.003196348502357, 13.428556940590726 ], [ 121.003696997502061, 13.428636247591005 ], [ 121.004607438501395, 13.428269470591601 ], [ 121.005084120501166, 13.428378430591911 ], [ 121.006353881500175, 13.427874244592772 ], [ 121.006562909500218, 13.428246141592854 ], [ 121.007943761499362, 13.428070258593714 ], [ 121.008467554499632, 13.429211176593927 ], [ 121.010724447498333, 13.429337658595323 ], [ 121.010744856498263, 13.428997357595403 ], [ 121.011006350497397, 13.427723551595694 ], [ 121.011088696495904, 13.425211251596085 ], [ 121.012589561495616, 13.426365344596878 ], [ 121.013173830495404, 13.42653374759724 ], [ 121.013229909496076, 13.427745406597081 ], [ 121.015389436495624, 13.429128820598287 ], [ 121.016758144495455, 13.430294784598969 ], [ 121.017627817494215, 13.428956788599729 ], [ 121.019729063493585, 13.429934533600877 ], [ 121.020114854493244, 13.429672767601181 ], [ 121.020487673493292, 13.430324121601316 ], [ 121.021000152491993, 13.428509160601877 ], [ 121.021884499492117, 13.429675603602302 ], [ 121.022210843491592, 13.429079020602567 ], [ 121.022345306491317, 13.428791278602693 ], [ 121.022680065490817, 13.428242175602938 ], [ 121.023048663490755, 13.428400242603182 ], [ 121.023835608490003, 13.428018480603702 ], [ 121.024577773489767, 13.428265683604181 ], [ 121.024582993489432, 13.427627784604232 ], [ 121.025290254488837, 13.427297117604775 ], [ 121.02594174948841, 13.427323774605116 ], [ 121.026902147487732, 13.426967902605778 ] ] ] ] } },
{ "type": "Feature", "properties": { "Id": 0, "Barangay": "ILAG", "Area": 685.0, "Elecresult": "MEF 524 votes SRP 272 votes", "Inventory": 461 }, "geometry": { "type": "MultiPolygon", "coordinates": [ [ [ [ 121.01036935950772, 13.445363890592978 ], [ 121.010993066507197, 13.445044693593426 ], [ 121.011478486507002, 13.445134228593677 ], [ 121.01186306750671, 13.445116182593953 ], [ 121.012293801506431, 13.445048955594253 ], [ 121.012882931506027, 13.444972077594597 ], [ 121.013130500505838, 13.444837928594819 ], [ 121.013407978505583, 13.444786194594972 ], [ 121.013597823505478, 13.44473027059505 ], [ 121.01376644550534, 13.444579511595173 ], [ 121.013929860505115, 13.444365625595324 ], [ 121.014056290504982, 13.444253389595437 ], [ 121.014229635504833, 13.44415366559555 ], [ 121.014374627504651, 13.444081893595625 ], [ 121.01450902650457, 13.44406662459579 ], [ 121.014628612504509, 13.444120517595818 ], [ 121.014731828504551, 13.444135372595865 ], [ 121.014879895504365, 13.444097501595973 ], [ 121.014989965504228, 13.44396678759608 ], [ 121.015050492504187, 13.443818027596128 ], [ 121.015130927504075, 13.443727266596182 ], [ 121.015366966503848, 13.443609467596325 ], [ 121.015595341503726, 13.443564435596462 ], [ 121.01576337050362, 13.443618157596585 ], [ 121.015932756503531, 13.443607791596667 ], [ 121.016043695503427, 13.443447763596795 ], [ 121.016166233503185, 13.443333662596855 ], [ 121.016265263503072, 13.443208076596997 ], [ 121.016399528502987, 13.443162841597077 ], [ 121.016492560502869, 13.443043102597127 ], [ 121.016591065502695, 13.442872175597184 ], [ 121.016818435502586, 13.442781608597398 ], [ 121.017023181502367, 13.442776449597501 ], [ 121.017187232502309, 13.442759859597567 ], [ 121.017364276502192, 13.442772198597732 ], [ 121.017355764502298, 13.442909411597716 ], [ 121.017326771502383, 13.443023805597665 ], [ 121.017368028502375, 13.443075732597668 ], [ 121.017455846502273, 13.442984554597757 ], [ 121.017626633502175, 13.442980170597865 ], [ 121.017744304502074, 13.442900736597927 ], [ 121.017808094501945, 13.442717558598 ], [ 121.017812590501762, 13.442517273598055 ], [ 121.017958944501586, 13.442345351598183 ], [ 121.018135220501449, 13.442209985598231 ], [ 121.018263868501293, 13.44203910959839 ], [ 121.01843888150097, 13.441754483598515 ], [ 121.018658459500699, 13.441379866598663 ], [ 121.018889704500353, 13.441040153598934 ], [ 121.019066290500007, 13.440662670599067 ], [ 121.019298022499626, 13.44025550359928 ], [ 121.019691180499109, 13.439620931599578 ], [ 121.020188002498315, 13.438816022600033 ], [ 121.019912150340531, 13.438634002714222 ], [ 121.019594872498459, 13.438424647599652 ], [ 121.01883570549856, 13.437981240599285 ], [ 121.018822464498513, 13.437717168599315 ], [ 121.01853123749855, 13.437526327599139 ], [ 121.018628900498385, 13.437340301599221 ], [ 121.018547994498363, 13.437273586599195 ], [ 121.018416164498618, 13.437465085599074 ], [ 121.01813289049862, 13.437244139598873 ], [ 121.018219375498461, 13.437033645598989 ], [ 121.017656229498598, 13.4367384295987 ], [ 121.016285834498973, 13.435931487597941 ], [ 121.016789272498201, 13.435084738598377 ], [ 121.016058315498398, 13.434889801597937 ], [ 121.015752533498457, 13.434531872597777 ], [ 121.015152406498856, 13.434633798597384 ], [ 121.013986553497872, 13.431651129597029 ], [ 121.013519370497903, 13.4313177185968 ], [ 121.012839545498679, 13.432061363596288 ], [ 121.011973963498988, 13.431627109595762 ], [ 121.010688098499344, 13.430944994595105 ], [ 121.010724447498333, 13.429337658595323 ], [ 121.008467554499632, 13.429211176593927 ], [ 121.007943761499362, 13.428070258593714 ], [ 121.006562909500218, 13.428246141592854 ], [ 121.006353881500175, 13.427874244592772 ], [ 121.005084120501166, 13.428378430591911 ], [ 121.004607438501395, 13.428269470591601 ], [ 121.003696997502061, 13.428636247591005 ], [ 121.003196348502357, 13.428556940590726 ], [ 121.002989901502715, 13.428957884590513 ], [ 121.002794683502103, 13.427755672590537 ], [ 121.002733680501606, 13.426735286590649 ], [ 121.003120695500243, 13.424693093591134 ], [ 121.000273470502776, 13.426440480589141 ], [ 120.997293616504436, 13.426212928587292 ], [ 120.996450638505394, 13.427082763586647 ], [ 120.995965712505324, 13.426529610586428 ], [ 120.99263766550628, 13.424726672584599 ], [ 120.992169147506701, 13.425073553584259 ], [ 120.991737221507194, 13.425327228583944 ], [ 120.990010315507817, 13.424810912582931 ], [ 120.989428637507942, 13.424408909582636 ], [ 120.988775719508055, 13.423959589582232 ], [ 120.985993085509705, 13.424054235580527 ], [ 120.985077968510154, 13.423836552579962 ], [ 120.983815813510702, 13.423429096579218 ], [ 120.983088742511001, 13.423283033578794 ], [ 120.982121494511475, 13.423185640578154 ], [ 120.981777473511656, 13.423038794577947 ], [ 120.981751425511007, 13.421869879578095 ], [ 120.981262736511212, 13.421772468577862 ], [ 120.980869945511387, 13.421629077577579 ], [ 120.980132996511543, 13.421237499577206 ], [ 120.979348395511792, 13.420833850576793 ], [ 120.978880066512247, 13.421157332576445 ], [ 120.978214948512388, 13.42074295157609 ], [ 120.977389879513098, 13.421180439575492 ], [ 120.977104928513128, 13.420991160575365 ], [ 120.976224828513494, 13.420586736574837 ], [ 120.975142861513831, 13.42005213057422 ], [ 120.976507049511937, 13.418251595575313 ], [ 120.973476911514339, 13.419395955573281 ], [ 120.973145124514062, 13.418528449573181 ], [ 120.972691968514255, 13.418466370572864 ], [ 120.972076290514252, 13.417853694572582 ], [ 120.971269443514629, 13.417543340572161 ], [ 120.970837809514933, 13.417761919571799 ], [ 120.97057994451562, 13.418612994571536 ], [ 120.970027650516087, 13.418982531571135 ], [ 120.969534554516727, 13.419410978570774 ], [ 120.969186778517013, 13.419595168570545 ], [ 120.968577247517359, 13.419672066570111 ], [ 120.967193411518082, 13.41954403956932 ], [ 120.964995401518578, 13.418275799568123 ], [ 120.964454449519181, 13.41871553656768 ], [ 120.964620203519203, 13.418880492567812 ], [ 120.965263198519139, 13.419304826568116 ], [ 120.967757369518566, 13.420932933569492 ], [ 120.96856270051839, 13.421401622569928 ], [ 120.969977001005731, 13.422350660088851 ], [ 120.970889625517842, 13.422963050571187 ], [ 120.976401136516841, 13.426748446574109 ], [ 120.98245377851552, 13.430687551577389 ], [ 120.984291387515242, 13.431940175578385 ], [ 120.987631111514503, 13.434083165580216 ], [ 120.989789552514068, 13.435521733581357 ], [ 120.992342377513523, 13.437132982582741 ], [ 120.993937390513111, 13.438202796583584 ], [ 120.996384049512642, 13.439729434584944 ], [ 120.999744197511944, 13.441995959586748 ], [ 121.000967129511722, 13.442811586587425 ], [ 121.001775062511584, 13.443383187587839 ], [ 121.002879822511403, 13.44418859358843 ], [ 121.003260921511668, 13.444976596588571 ], [ 121.003696675511691, 13.445621119588745 ], [ 121.004065929511839, 13.446225865588877 ], [ 121.004504445511955, 13.4467811785891 ], [ 121.00484624751202, 13.447321499589236 ], [ 121.005271048512085, 13.447932602589431 ], [ 121.005636733512247, 13.448473112589603 ], [ 121.005831326512549, 13.44931011358962 ], [ 121.00585557551274, 13.4496045935896 ], [ 121.00591988151281, 13.449842833589608 ], [ 121.005984200512955, 13.450098179589604 ], [ 121.006077960512968, 13.450245923589652 ], [ 121.006148705513127, 13.450518906589656 ], [ 121.006248857513086, 13.45063886458966 ], [ 121.006448083512922, 13.450627846589796 ], [ 121.007098191511986, 13.44959517059036 ], [ 121.007565888511309, 13.448790523590759 ], [ 121.007994148510775, 13.448250027591152 ], [ 121.008424246510216, 13.447670692591425 ], [ 121.00869710050975, 13.447276324591639 ], [ 121.009195539509122, 13.446646433592072 ], [ 121.009702357508516, 13.446064419592448 ], [ 121.01036935950772, 13.445363890592978 ] ] ] ] } },
{ "type": "Feature", "properties": { "Id": 0, "Barangay": "CAAGUTAYAN", "Area": 9291.0, "Elecresult": "MEF 281 votes SRP 431 votes", "Inventory": 354 }, "geometry": { "type": "MultiPolygon", "coordinates": [ [ [ [ 120.977389879513098, 13.421180439575492 ], [ 120.978214948512388, 13.42074295157609 ], [ 120.978880066512247, 13.421157332576445 ], [ 120.979348395511792, 13.420833850576793 ], [ 120.979214687511814, 13.420696493576656 ], [ 120.97919461251152, 13.420377178576738 ], [ 120.978861204511787, 13.420352238576513 ], [ 120.978879535511524, 13.419973854576567 ], [ 120.97942031851106, 13.419681302576954 ], [ 120.979224746511136, 13.419494179576859 ], [ 120.979065780511121, 13.419463216576771 ], [ 120.978877853511179, 13.419268732576626 ], [ 120.978840282510959, 13.41887025957671 ], [ 120.978966777510749, 13.418608870576819 ], [ 120.978756264510622, 13.418280126576727 ], [ 120.978760132510516, 13.418057234576732 ], [ 120.978794006510356, 13.417858429576757 ], [ 120.979054043510175, 13.417782049576958 ], [ 120.979450754510012, 13.417877090577223 ], [ 120.979675317509987, 13.418026255577281 ], [ 120.980198925509384, 13.417523749577734 ], [ 120.980417400509211, 13.417397797577861 ], [ 120.982714960507593, 13.41694795257934 ], [ 120.983319969507548, 13.417486657579671 ], [ 120.984146831507033, 13.417321227580251 ], [ 120.984636620506691, 13.417250650580574 ], [ 120.984470971506582, 13.416910625580483 ], [ 120.984046133566778, 13.416701472463336 ], [ 120.98361023850687, 13.416486874580013 ], [ 120.983871505506514, 13.416197687580208 ], [ 120.98477973850612, 13.416419297580754 ], [ 120.985174970506066, 13.416616711580991 ], [ 120.986234798505421, 13.416712258581631 ], [ 120.986714037505138, 13.416682593581923 ], [ 120.987050258504922, 13.416571404582172 ], [ 120.987547960504685, 13.416789727582412 ], [ 120.98784346150444, 13.416638022582623 ], [ 120.987575460504175, 13.415952642582527 ], [ 120.987980883503923, 13.415748226582849 ], [ 120.98874615850346, 13.415881602583294 ], [ 120.989218052503247, 13.415912160583593 ], [ 120.989942331502903, 13.41603850758403 ], [ 120.990831939502371, 13.416032201584597 ], [ 120.991577971501968, 13.416011351585079 ], [ 120.992002805501713, 13.415941052585325 ], [ 120.991594228500844, 13.414055532585328 ], [ 120.990516441501228, 13.413651736584727 ], [ 120.990374268500759, 13.412645836584785 ], [ 120.991554055500245, 13.413029915585394 ], [ 120.991390457500131, 13.412557118585365 ], [ 120.992588613499109, 13.412013165586204 ], [ 120.992864696499424, 13.412842828586264 ], [ 120.992952330499278, 13.412590983586316 ], [ 120.993806960499185, 13.413501030586799 ], [ 120.993756599498909, 13.412795186586811 ], [ 120.994399332498844, 13.413205078586341 ], [ 120.99477120749826, 13.412341628586264 ], [ 120.995129476497709, 13.411674410586579 ], [ 120.996322874496954, 13.411658221587324 ], [ 120.995814915497036, 13.411243416587066 ], [ 120.995225306497318, 13.411187384586757 ], [ 120.994504258497827, 13.411168815586302 ], [ 120.994368666498076, 13.411706871586086 ], [ 120.993782465498242, 13.411240094585793 ], [ 120.993788751497718, 13.410482790585903 ], [ 120.993393584498122, 13.410697867585652 ], [ 120.993172601498131, 13.410465052585558 ], [ 120.992947568498408, 13.41071999158536 ], [ 120.992561171498494, 13.410514846585164 ], [ 120.992123157498909, 13.410865064584824 ], [ 120.991936769498892, 13.410559349584718 ], [ 120.991723416499127, 13.410835430584603 ], [ 120.991490962499171, 13.410587939584444 ], [ 120.991827430498404, 13.40962056758479 ], [ 120.990699500499204, 13.40976273558409 ], [ 120.990453516499016, 13.409169643583978 ], [ 120.989991889499493, 13.409549102583671 ], [ 120.98974553149958, 13.409590926583508 ], [ 120.98948096949961, 13.409355205583363 ], [ 120.988907300499292, 13.408194005583125 ], [ 120.988199852499349, 13.407495382582777 ], [ 120.987622832499341, 13.406989522582487 ], [ 120.987825978499032, 13.406614457582672 ], [ 120.9874970874979, 13.404285533582787 ], [ 120.987965883495065, 13.400281119584823 ], [ 120.987769755494881, 13.399674121584756 ], [ 120.98711808949497, 13.399116117584446 ], [ 120.986410486541345, 13.398387347715284 ], [ 120.984303376495006, 13.396297194583028 ], [ 120.984303327433395, 13.396297123625972 ], [ 120.983837503556899, 13.395701627537473 ], [ 120.979748244495269, 13.391633883579534 ], [ 120.968812963493491, 13.377289981574561 ], [ 120.951960137490133, 13.354133515566923 ], [ 120.933008106374814, 13.327301607634801 ], [ 120.922477473759002, 13.312391566366072 ], [ 120.911351533368006, 13.29663648462641 ], [ 120.890019433412945, 13.266422602583146 ], [ 120.890016652029487, 13.266418662752704 ], [ 120.873072003433904, 13.242414815558828 ], [ 120.856668154912953, 13.219172284869771 ], [ 120.849592047474928, 13.222076960520258 ], [ 120.8483577664759, 13.222583591519456 ], [ 120.845309842478386, 13.223800884517438 ], [ 120.841889249481056, 13.225165681515165 ], [ 120.836632062485307, 13.227255055511613 ], [ 120.833197419488101, 13.228638649509371 ], [ 120.831657256489379, 13.229261457508311 ], [ 120.826991940493144, 13.231147928505166 ], [ 120.818530201499954, 13.234554776499516 ], [ 120.81881339650009, 13.234956186499621 ], [ 120.821579035500278, 13.238383218500982 ], [ 120.82547274150086, 13.243207901502837 ], [ 120.829956963501331, 13.248764018504941 ], [ 120.83472568750183, 13.254672322507192 ], [ 120.839846420502454, 13.261016386509654 ], [ 120.843807380502895, 13.265923348511546 ], [ 120.848066563503423, 13.271199503513518 ], [ 120.853219699504038, 13.27758270651595 ], [ 120.858368214504566, 13.283958749518447 ], [ 120.864482806505336, 13.291524205521286 ], [ 120.870692049505976, 13.299219815524248 ], [ 120.875810736506651, 13.30556170252663 ], [ 120.880457252507199, 13.31131548552886 ], [ 120.885209393507765, 13.317199735531071 ], [ 120.889641803508226, 13.3226877855332 ], [ 120.89517513150895, 13.329538548535799 ], [ 120.899499350509402, 13.334892009537789 ], [ 120.904519878510058, 13.341101975540179 ], [ 120.908303425510496, 13.345776784541931 ], [ 120.912644443511027, 13.351154415543968 ], [ 120.917561439511644, 13.357250230546221 ], [ 120.921959188512133, 13.362693269548302 ], [ 120.926909949512748, 13.368820425550693 ], [ 120.93162192251333, 13.374651715552861 ], [ 120.936630934513843, 13.380850246555203 ], [ 120.941917198514531, 13.387391465557652 ], [ 120.947442622515183, 13.394228179560224 ], [ 120.953725045515924, 13.402011361563186 ], [ 120.955724853518106, 13.407781368563635 ], [ 120.956199361518401, 13.408917275563844 ], [ 120.95657571151861, 13.409677948563955 ], [ 120.95730997251907, 13.411164068564212 ], [ 120.957906459519265, 13.412189070564436 ], [ 120.957869839519503, 13.412544189564381 ], [ 120.957583282520019, 13.413035500564101 ], [ 120.957643508520391, 13.41386528956407 ], [ 120.957566267520676, 13.414252988563934 ], [ 120.957535645520977, 13.414693717563848 ], [ 120.960268731520173, 13.416128215565424 ], [ 120.962040424519685, 13.417048347566389 ], [ 120.964454449519181, 13.41871553656768 ], [ 120.964995401518578, 13.418275799568123 ], [ 120.967193411518082, 13.41954403956932 ], [ 120.968577247517359, 13.419672066570111 ], [ 120.969186778517013, 13.419595168570545 ], [ 120.969534554516727, 13.419410978570774 ], [ 120.970027650516087, 13.418982531571135 ], [ 120.97057994451562, 13.418612994571536 ], [ 120.970837809514933, 13.417761919571799 ], [ 120.971269443514629, 13.417543340572161 ], [ 120.972076290514252, 13.417853694572582 ], [ 120.972691968514255, 13.418466370572864 ], [ 120.973145124514062, 13.418528449573181 ], [ 120.973476911514339, 13.419395955573281 ], [ 120.976507049511937, 13.418251595575313 ], [ 120.975142861513831, 13.42005213057422 ], [ 120.976224828513494, 13.420586736574837 ], [ 120.977104928513128, 13.420991160575365 ], [ 120.977389879513098, 13.421180439575492 ] ] ] ] } },
{ "type": "Feature", "properties": { "Id": 0, "Barangay": "CALANGATAN", "Area": 11870.0, "Elecresult": "MEF 270 votes SRP 641 votes", "Inventory": 642 }, "geometry": { "type": "MultiPolygon", "coordinates": [ [ [ [ 121.020319987471211, 13.39103754760627 ], [ 121.023267820471688, 13.394985585607593 ], [ 121.028523699466632, 13.391443428611371 ], [ 121.030778870467771, 13.395763014612237 ], [ 121.036382192463833, 13.394649131615873 ], [ 121.035932838464589, 13.395385165615501 ], [ 121.035756381464722, 13.395544559615344 ], [ 121.035733405465223, 13.396302600615277 ], [ 121.038257075463193, 13.39540746961698 ], [ 121.038836035462552, 13.39487555361741 ], [ 121.03926418346235, 13.394813461617677 ], [ 121.040685664462089, 13.395858075618404 ], [ 121.042187204460831, 13.395267891619442 ], [ 121.042500904460297, 13.394485325619744 ], [ 121.042088237460348, 13.394285876619531 ], [ 121.042917664458855, 13.392526060620268 ], [ 121.044575835457849, 13.392394988621277 ], [ 121.044779038457577, 13.392055041621463 ], [ 121.04726750545592, 13.391707961623087 ], [ 121.047987628455658, 13.391896694623528 ], [ 121.047873691455251, 13.391110813623543 ], [ 121.050402120453555, 13.390778446625164 ], [ 121.050624128453833, 13.391421244625231 ], [ 121.051146337453446, 13.391294441625577 ], [ 121.052998463451829, 13.39030937862683 ], [ 121.052484857451589, 13.389367072626666 ], [ 121.054797476450204, 13.389280225628088 ], [ 121.056012400447713, 13.386097228629241 ], [ 121.065227777440796, 13.383438530635354 ], [ 121.062942921440722, 13.380921981634287 ], [ 121.061766012440643, 13.37960475163367 ], [ 121.060215390440547, 13.377837788632956 ], [ 121.057505604440408, 13.374749861631622 ], [ 121.055870650440156, 13.372610234630844 ], [ 121.0548465254398, 13.371074976630409 ], [ 121.053310215439367, 13.368772084629734 ], [ 121.051482124438877, 13.366031594628932 ], [ 121.049978533438548, 13.363777453628286 ], [ 121.048189853438075, 13.361096869627486 ], [ 121.042778392436603, 13.352983660625112 ], [ 121.039485806435678, 13.348046937623645 ], [ 121.03477991043448, 13.34099207162159 ], [ 121.025402403431926, 13.326929923617453 ], [ 121.009861109427831, 13.303622008610514 ], [ 120.996699522424308, 13.283880364604677 ], [ 120.982770681420547, 13.262983863598397 ], [ 120.968356421416772, 13.241354104591922 ], [ 120.949318950411751, 13.212780893583341 ], [ 120.933570788407735, 13.189139484576193 ], [ 120.933426213407628, 13.188893385576149 ], [ 120.920620945417866, 13.193858352567624 ], [ 120.919271718418941, 13.19438158156674 ], [ 120.91301995742397, 13.196931885562581 ], [ 120.911928086424879, 13.197377274561845 ], [ 120.907121346428738, 13.199337927558608 ], [ 120.907012248428828, 13.199380249558555 ], [ 120.903691358431459, 13.200663410556347 ], [ 120.894390966438891, 13.204257099550173 ], [ 120.91227847144394, 13.231807821558156 ], [ 120.927370302448324, 13.255048310564845 ], [ 120.945449995453487, 13.282885136572816 ], [ 120.961866815458222, 13.308155920580013 ], [ 120.976558021462438, 13.330767474586466 ], [ 120.988276918465829, 13.348801134591522 ], [ 121.001368751469627, 13.368939567597193 ], [ 121.011651945472593, 13.38475758960165 ], [ 121.015568295473713, 13.390726079603324 ], [ 121.016679451473863, 13.39209661160386 ], [ 121.017233462473627, 13.392275454604203 ], [ 121.017356654473588, 13.392257200604282 ], [ 121.020319987471211, 13.39103754760627 ] ] ] ] } },
{ "type": "Feature", "properties": { "Id": 0, "Barangay": "BIGAAN", "Area": 10310.0, "Elecresult": "MEF 268 votes SRP 691 votes", "Inventory": 975 }, "geometry": { "type": "MultiPolygon", "coordinates": [ [ [ [ 121.028631688485802, 13.425041343605839 ], [ 121.02860148148541, 13.424348500605973 ], [ 121.027862732486042, 13.424674547605418 ], [ 121.026923019486389, 13.424326624604877 ], [ 121.027101634486115, 13.423984865605064 ], [ 121.026316532486064, 13.423151148604633 ], [ 121.026574551485908, 13.423006511604815 ], [ 121.027767486484066, 13.421075775605861 ], [ 121.027096120484245, 13.420730065605463 ], [ 121.02706632548383, 13.419792269605606 ], [ 121.027408662483623, 13.419805424605782 ], [ 121.027412597483334, 13.419323578605857 ], [ 121.027722147483217, 13.419420281606005 ], [ 121.02778519148282, 13.418907471606133 ], [ 121.026224256483275, 13.417971441605289 ], [ 121.028272999481359, 13.416892448606687 ], [ 121.02326575548328, 13.415125899603769 ], [ 121.023388732482886, 13.41446446960396 ], [ 121.02731297747934, 13.412206226606722 ], [ 121.024845666479663, 13.410417118605388 ], [ 121.024914737479406, 13.409957308605515 ], [ 121.02372985847893, 13.407891791605023 ], [ 121.021761081480719, 13.409040025603645 ], [ 121.021353780480212, 13.407732503603537 ], [ 121.021622338479574, 13.406839482603853 ], [ 121.021251536477408, 13.402667841604131 ], [ 121.021472036475672, 13.399664500604699 ], [ 121.018592718475688, 13.396934154603199 ], [ 121.018865932475066, 13.39609608160349 ], [ 121.017233462473826, 13.392275454602951 ], [ 121.016679451474346, 13.39209661160136 ], [ 121.016256922474241, 13.391575453601135 ], [ 121.015568295474196, 13.39072607960084 ], [ 121.015065749474104, 13.390008357600617 ], [ 121.008268386472082, 13.379553103597683 ], [ 120.998241311469144, 13.364129122593408 ], [ 120.98471507946519, 13.343320285587497 ], [ 120.970956740461219, 13.322146941581547 ], [ 120.956013367456961, 13.299146206574971 ], [ 120.921164613447004, 13.245492490559615 ], [ 120.894390966439346, 13.204257099547689 ], [ 120.89053718644243, 13.205745587545151 ], [ 120.886282970445777, 13.207397230542325 ], [ 120.88234102644897, 13.208921775539659 ], [ 120.878605917452006, 13.210449010537141 ], [ 120.874751844455147, 13.212024807534563 ], [ 120.870975526458182, 13.21356568853208 ], [ 120.867893413460635, 13.214761612530047 ], [ 120.863187576464441, 13.216589392526901 ], [ 120.858960186467797, 13.218231279524078 ], [ 120.856668107469616, 13.21917221252251 ], [ 120.856668154912953, 13.219172284869771 ], [ 120.873072003433904, 13.242414815558828 ], [ 120.889273038476631, 13.26536529353741 ], [ 120.890016652029487, 13.266418662752704 ], [ 120.890019433412945, 13.266422602583146 ], [ 120.911351533368006, 13.29663648462641 ], [ 120.922477473759002, 13.312391566366072 ], [ 120.933008106374814, 13.327301607634801 ], [ 120.938390622487375, 13.334921799559606 ], [ 120.951960137490133, 13.354133515566923 ], [ 120.968812963493491, 13.377289981574561 ], [ 120.979748244495269, 13.391633883579534 ], [ 120.983837454495443, 13.395701556580361 ], [ 120.983837503556899, 13.395701627537473 ], [ 120.984303327433395, 13.396297123625972 ], [ 120.986390077495386, 13.398366232581603 ], [ 120.986410486541345, 13.398387347715284 ], [ 120.98711479049544, 13.399116017581928 ], [ 120.987766457495312, 13.399674021582294 ], [ 120.987962585495652, 13.400281019582319 ], [ 120.9874970874979, 13.404285533582787 ], [ 120.987825978499032, 13.406614457582672 ], [ 120.987622832499341, 13.406989522582487 ], [ 120.988199852499349, 13.407495382582777 ], [ 120.988907300499292, 13.408194005583125 ], [ 120.98948096949961, 13.409355205583363 ], [ 120.98974553149958, 13.409590926583508 ], [ 120.989991889499493, 13.409549102583671 ], [ 120.990453516499016, 13.409169643583978 ], [ 120.990699500499204, 13.40976273558409 ], [ 120.991827430498404, 13.40962056758479 ], [ 120.991490962499171, 13.410587939584444 ], [ 120.991723416499127, 13.410835430584603 ], [ 120.991936769498892, 13.410559349584718 ], [ 120.992123157498909, 13.410865064584824 ], [ 120.992561171498494, 13.410514846585164 ], [ 120.992947568498408, 13.41071999158536 ], [ 120.993172601498131, 13.410465052585558 ], [ 120.993393584498122, 13.410697867585652 ], [ 120.993788751497718, 13.410482790585903 ], [ 120.993782465498242, 13.411240094585793 ], [ 120.994368666498076, 13.411706871586086 ], [ 120.994504258497827, 13.411168815586302 ], [ 120.995225306497318, 13.411187384586757 ], [ 120.995814915497036, 13.411243416587066 ], [ 120.996322874496954, 13.411658221587324 ], [ 120.995129476497709, 13.411674410586579 ], [ 120.99477120749826, 13.412341628586264 ], [ 120.994399332498844, 13.413205078586341 ], [ 120.995368568498719, 13.413660573586501 ], [ 120.995867690498272, 13.413423141586849 ], [ 120.996068199498282, 13.41363789858692 ], [ 120.996392665498021, 13.413640759587111 ], [ 120.996408786497895, 13.413312891587145 ], [ 120.996705466497602, 13.413092210587399 ], [ 120.997146844497379, 13.413200675587657 ], [ 120.99714412649756, 13.413528650587628 ], [ 120.997087258497842, 13.413921795587543 ], [ 120.997205153497944, 13.41425072858757 ], [ 120.997572452497721, 13.414175031587837 ], [ 120.997986136497147, 13.413810854588135 ], [ 120.99870905649685, 13.413908431588533 ], [ 120.998892874496974, 13.414369086588612 ], [ 120.999335016496744, 13.41438571558885 ], [ 120.999318139496978, 13.414805417588843 ], [ 120.998835466497297, 13.414827827588519 ], [ 120.998818587497567, 13.415247529588433 ], [ 120.999177931497528, 13.415552139588652 ], [ 120.999226758497841, 13.416129801588609 ], [ 121.000069540497435, 13.416320166589063 ], [ 121.001402853496742, 13.416434761589921 ], [ 121.00248379049593, 13.416103147590643 ], [ 121.004582575494197, 13.415135771592075 ], [ 121.004987657493658, 13.414771618592344 ], [ 121.004989498493643, 13.414548594592409 ], [ 121.004723633493526, 13.41428409259227 ], [ 121.004954492493198, 13.413918560592514 ], [ 121.005498650493294, 13.414565742592695 ], [ 121.005709502493474, 13.415000367592826 ], [ 121.005957791493245, 13.415006540592922 ], [ 121.006303828492804, 13.414440910593241 ], [ 121.006959208492418, 13.414603530593672 ], [ 121.007115591492735, 13.415142684593647 ], [ 121.008825611492497, 13.41662324959456 ], [ 121.010468603491475, 13.416481160595582 ], [ 121.010902319490853, 13.415894183595931 ], [ 121.012068376490305, 13.415890259596633 ], [ 121.01173128249053, 13.416136881596415 ], [ 121.011620181490869, 13.416608324596268 ], [ 121.012018455490974, 13.417070664596473 ], [ 121.012255586491065, 13.417571093596555 ], [ 121.012118329491358, 13.417963611596463 ], [ 121.011662991491676, 13.417920660596131 ], [ 121.011011270491622, 13.417312000595828 ], [ 121.010702597491886, 13.417362044595636 ], [ 121.010600564492137, 13.41781226759548 ], [ 121.01099668849271, 13.419083081595565 ], [ 121.010547402493401, 13.41993233459519 ], [ 121.010146366493686, 13.419961315594962 ], [ 121.00993662749373, 13.419772061594836 ], [ 121.009807131493957, 13.419982687594725 ], [ 121.009414934494117, 13.419893404594506 ], [ 121.009603429494376, 13.420633360594504 ], [ 121.009328845494906, 13.42137386659428 ], [ 121.009885825494834, 13.421763081594523 ], [ 121.011347699493555, 13.420870302595599 ], [ 121.011894339493409, 13.421321963595879 ], [ 121.012361607493204, 13.421267926596123 ], [ 121.012674851493031, 13.421419513596351 ], [ 121.01313284549272, 13.421298058596625 ], [ 121.01358514249273, 13.421869227596861 ], [ 121.014690075492226, 13.421954897597518 ], [ 121.015468444491518, 13.421715706598023 ], [ 121.015646256491777, 13.422202938598092 ], [ 121.016494481491563, 13.422636600598564 ], [ 121.017500294490986, 13.422621587599179 ], [ 121.017632629490549, 13.422064643599386 ], [ 121.017135815490803, 13.422086756599056 ], [ 121.017267542490487, 13.421643282599161 ], [ 121.017523998490319, 13.421529855599372 ], [ 121.017897394490106, 13.421537602599585 ], [ 121.018136820490071, 13.421703032599712 ], [ 121.018001033490293, 13.422081971599599 ], [ 121.018125038490552, 13.42253991759959 ], [ 121.018910887490449, 13.423185854600009 ], [ 121.018971668490536, 13.423459466600029 ], [ 121.018538725491055, 13.42384209159969 ], [ 121.018354077491324, 13.424204981599541 ], [ 121.018630506491334, 13.42453679759965 ], [ 121.019091334491122, 13.424536082599902 ], [ 121.019482837490756, 13.424343977600186 ], [ 121.019805946490138, 13.423697962600521 ], [ 121.020016967489099, 13.42193426960087 ], [ 121.020554052488677, 13.421755700601256 ], [ 121.021034919488386, 13.42184124960154 ], [ 121.020654898489312, 13.423002361601148 ], [ 121.020467757489669, 13.423367419600964 ], [ 121.021455595489456, 13.424168319601472 ], [ 121.02192865648928, 13.424117955601773 ], [ 121.022336169488781, 13.423826729602096 ], [ 121.022483499488715, 13.423867128602136 ], [ 121.022822497488619, 13.423924262602403 ], [ 121.023503097488572, 13.424496837602732 ], [ 121.024033587488418, 13.424824744602994 ], [ 121.024475677488141, 13.424838582603316 ], [ 121.024197126488559, 13.42521740260306 ], [ 121.024163302488773, 13.425691926602978 ], [ 121.024387814488904, 13.426062966603109 ], [ 121.0246975164888, 13.426264338603243 ], [ 121.025284938488568, 13.426467522603565 ], [ 121.025909041488489, 13.42682208960391 ], [ 121.026458867488188, 13.426920507604223 ], [ 121.026902102488123, 13.426967828603276 ], [ 121.027470655487974, 13.427480211604815 ], [ 121.027783528487973, 13.427434381603769 ], [ 121.028070429487627, 13.427187322604013 ], [ 121.028477596487221, 13.42697305960427 ], [ 121.028823885486958, 13.426757922604502 ], [ 121.029203684486546, 13.42639062560484 ], [ 121.029552288485917, 13.426023700606276 ], [ 121.029036585485983, 13.425605706606071 ], [ 121.028631688485802, 13.425041343605839 ] ] ] ] } }
]
}
