{
"type": "FeatureCollection",
"name": "santeodoro_settlements",
"crs": { "type": "name", "properties": { "name": "urn:ogc:def:crs:OGC:1.3:CRS84" } },
"features": [
{ "type": "Feature", "properties": { "id": 1 }, "geometry": { "type": "MultiPolygon", "coordinates": [ [ [ [ 121.011637651407852, 13.443332475680382 ], [ 121.011809891804603, 13.443250270036454 ], [ 121.011997790419258, 13.443109346075463 ], [ 121.012232663687584, 13.443093687857575 ], [ 121.012624119134784, 13.44294493478764 ], [ 121.013007745473033, 13.442522162904666 ], [ 121.013587099534888, 13.441927150624924 ], [ 121.014753636767537, 13.441441745870398 ], [ 121.015982806871747, 13.440901537353264 ], [ 121.016233338357949, 13.441253847255743 ], [ 121.016452553408385, 13.441590498940334 ], [ 121.016710914003511, 13.441739252010271 ], [ 121.017008420143384, 13.441668790029775 ], [ 121.017282438956428, 13.441426087652511 ], [ 121.01760343242313, 13.441504378741952 ], [ 121.017736527275176, 13.441715764683439 ], [ 121.018041862523987, 13.442028929041197 ], [ 121.018863918963106, 13.440917195571153 ], [ 121.018488121733796, 13.440697980520723 ], [ 121.01826890668336, 13.440494423688179 ], [ 121.018065349850829, 13.440189088439364 ], [ 121.018151470049204, 13.439758487447447 ], [ 121.018597729259014, 13.439163475167705 ], [ 121.018856089854154, 13.438912943681498 ], [ 121.019051817577761, 13.439038209424602 ], [ 121.019576367877008, 13.439116500514041 ], [ 121.020053943522583, 13.438928601899386 ], [ 121.020727246891767, 13.437746406448847 ], [ 121.021298771844684, 13.436689476741412 ], [ 121.02118916431948, 13.436540723671477 ], [ 121.020922974615374, 13.436391970601541 ], [ 121.02078205065439, 13.436164926442167 ], [ 121.02081336709017, 13.435656034360809 ], [ 121.020954291051154, 13.435233262477833 ], [ 121.021103044121091, 13.434896610793244 ], [ 121.021377062934135, 13.434638250198093 ], [ 121.021424037587792, 13.434293769404558 ], [ 121.02143186669673, 13.433964946828912 ], [ 121.021541474221948, 13.433675269797984 ], [ 121.021878125906539, 13.433299472568674 ], [ 121.021972075213867, 13.432986308210916 ], [ 121.022394847096848, 13.432931504448307 ], [ 121.022880251851376, 13.433182035934514 ], [ 121.023130783337578, 13.433072428409298 ], [ 121.022950713831861, 13.432853213358868 ], [ 121.022418334423676, 13.432587023654772 ], [ 121.022128657392742, 13.432320833950678 ], [ 121.021713714618713, 13.43200766959292 ], [ 121.022089511848023, 13.431819770978263 ], [ 121.022332214225287, 13.431819770978263 ], [ 121.022559258384661, 13.431639701472553 ], [ 121.022708011454597, 13.43139699909529 ], [ 121.023130783337578, 13.430817645033436 ], [ 121.023232561753844, 13.430441847804126 ], [ 121.023193416209125, 13.430120854337423 ], [ 121.023428289477451, 13.429627620473953 ], [ 121.02338131482378, 13.429337943443025 ], [ 121.023201245318077, 13.429369259878802 ], [ 121.022974201158704, 13.429604133147121 ], [ 121.022848935415595, 13.429979930376431 ], [ 121.02262972036516, 13.430457506022014 ], [ 121.022379188878958, 13.430637575527724 ], [ 121.02228523957163, 13.430551455329342 ], [ 121.02226958135374, 13.430441847804126 ], [ 121.022073853630147, 13.429901639286992 ], [ 121.022050366303304, 13.430026905030095 ], [ 121.022066024521195, 13.430175658100032 ], [ 121.021940758778086, 13.430324411169966 ], [ 121.021760689272384, 13.430559284438285 ], [ 121.021635423529275, 13.430997714539147 ], [ 121.021721543727665, 13.431185613153803 ], [ 121.0215493033309, 13.431483119293674 ], [ 121.021643252638228, 13.431780625433545 ], [ 121.021345746498355, 13.431788454542488 ], [ 121.021196993428418, 13.431530093947337 ], [ 121.020969949269045, 13.431451802857898 ], [ 121.020969949269045, 13.431616214145722 ], [ 121.02078205065439, 13.431780625433545 ], [ 121.02079770887228, 13.432195568207575 ], [ 121.021196993428418, 13.43230517573279 ], [ 121.021259626299965, 13.432540049001108 ], [ 121.020915145506436, 13.432673143853156 ], [ 121.020531519168173, 13.432673143853156 ], [ 121.020531519168173, 13.432688802071045 ], [ 121.020437569860846, 13.432579194545829 ], [ 121.02043756986086, 13.432359979495399 ], [ 121.020296645899876, 13.432054644246584 ], [ 121.020335791444595, 13.431780625433545 ], [ 121.020578493821859, 13.430841132360269 ], [ 121.020711588673905, 13.430661062854558 ], [ 121.020977778377997, 13.430809815924492 ], [ 121.021173506101604, 13.430841132360269 ], [ 121.021525816004072, 13.430473164239903 ], [ 121.021674569073994, 13.429917297504884 ], [ 121.021635423529275, 13.429580645820295 ], [ 121.021486670459339, 13.429165703046264 ], [ 121.021243968082089, 13.428907342451113 ], [ 121.021196993428433, 13.428594178093352 ], [ 121.021369233825197, 13.428382792151865 ], [ 121.021643252638228, 13.428014824031498 ], [ 121.021627594420352, 13.427756463436348 ], [ 121.021580619766681, 13.427521590168029 ], [ 121.021596277984571, 13.427114476502942 ], [ 121.021784176599226, 13.426723021055743 ], [ 121.022073853630147, 13.426151496102834 ], [ 121.022441821750519, 13.42586964818085 ], [ 121.022754986108282, 13.42565043313042 ], [ 121.022770644326172, 13.425407730753156 ], [ 121.02284893541561, 13.425071079068566 ], [ 121.023389143932746, 13.424663965403479 ], [ 121.023303023734357, 13.424327313718889 ], [ 121.023091637792874, 13.424280339065225 ], [ 121.022919397396095, 13.424335142827832 ], [ 121.022527941948908, 13.424695281839256 ], [ 121.022120828283818, 13.42496147154335 ], [ 121.021729372836617, 13.425188515702725 ], [ 121.021604107093509, 13.42537641431738 ], [ 121.021823322143945, 13.425525167387317 ], [ 121.022183461155365, 13.425415559862101 ], [ 121.022034708085428, 13.425564312932035 ], [ 121.02163542352929, 13.425807015309299 ], [ 121.021517986895134, 13.425971426597123 ], [ 121.021564961548791, 13.426355052935376 ], [ 121.021510157786182, 13.426707362837856 ], [ 121.021298771844698, 13.426730850164688 ], [ 121.02117350610159, 13.426895261452511 ], [ 121.02117350610159, 13.427114476502943 ], [ 121.021040411249544, 13.42728671689971 ], [ 121.02053934827714, 13.427200596701326 ], [ 121.020265329464095, 13.427153622047662 ], [ 121.02016355104783, 13.427435469969646 ], [ 121.02043756986086, 13.42766251412902 ], [ 121.020829025308061, 13.427928703833116 ], [ 121.020750734218623, 13.428335817498201 ], [ 121.020508031841359, 13.428954317104775 ], [ 121.020523690059235, 13.429478867404024 ], [ 121.020609810257625, 13.429674595127624 ], [ 121.02043756986086, 13.430105196119541 ], [ 121.020241842137253, 13.430527968002517 ], [ 121.020445398969798, 13.43049665156674 ], [ 121.020367107880361, 13.430661062854563 ], [ 121.020241842137253, 13.431216929589585 ], [ 121.020006968868941, 13.431240416916417 ], [ 121.019858215799005, 13.431436144640015 ], [ 121.020194867483596, 13.431475290184736 ], [ 121.020179209265706, 13.431553581274175 ], [ 121.02004611441366, 13.431866745631934 ], [ 121.019850386690067, 13.431890232958766 ], [ 121.019615513421741, 13.43189806206771 ], [ 121.01958419698596, 13.431968524048205 ], [ 121.019748608273787, 13.432054644246589 ], [ 121.02004611441366, 13.43215642266286 ], [ 121.019952165106332, 13.432485245238508 ], [ 121.019850386690067, 13.432665314744218 ], [ 121.019521564114413, 13.432782751378378 ], [ 121.019286690846101, 13.432837555140987 ], [ 121.019411956589195, 13.432962820884089 ], [ 121.019811241145348, 13.432915846230426 ], [ 121.019834728472176, 13.433166377716633 ], [ 121.019756437382739, 13.433690928015878 ], [ 121.019545051441256, 13.433792706432151 ], [ 121.019286690846101, 13.434113699898854 ], [ 121.019208399756664, 13.434669566633875 ], [ 121.019364981935539, 13.435045363863185 ], [ 121.019654658966473, 13.435201946042065 ], [ 121.019748608273815, 13.435397673765666 ], [ 121.019889532234799, 13.435757812777087 ], [ 121.020163551047844, 13.436227559313725 ], [ 121.020508031841374, 13.43672862228614 ], [ 121.020453228078765, 13.436994811990234 ], [ 121.02029664589989, 13.436642502087755 ], [ 121.019975652433175, 13.436219730204783 ], [ 121.019639000748583, 13.436712964068253 ], [ 121.019036159359899, 13.437574166052089 ], [ 121.018566412823262, 13.438231811203384 ], [ 121.017666065294691, 13.439531443288081 ], [ 121.017485995788974, 13.43980546210112 ], [ 121.017196318758053, 13.440228233984094 ], [ 121.016663939349854, 13.440478765470301 ], [ 121.016076756179061, 13.440658834976013 ], [ 121.015473914790377, 13.440831075372779 ], [ 121.014687089341521, 13.44110509418582 ], [ 121.014530507162647, 13.441144239730541 ], [ 121.014076418843899, 13.441336052899668 ], [ 121.0135440394357, 13.441664875475315 ], [ 121.013183900424281, 13.441895834189161 ], [ 121.012667179233972, 13.442197254883503 ], [ 121.012451878738034, 13.442416469933937 ], [ 121.012354014876223, 13.442451700924185 ], [ 121.012052594181881, 13.442545650231512 ], [ 121.01173160071518, 13.442659172311201 ], [ 121.011520214773697, 13.442647428647785 ], [ 121.011293170614323, 13.442647428647785 ], [ 121.011328401604572, 13.442753121618528 ], [ 121.011426265466369, 13.442850985480328 ], [ 121.011477154674509, 13.44299190944132 ], [ 121.011508471110275, 13.443105431521007 ], [ 121.011606334972086, 13.44321112449175 ], [ 121.011637651407852, 13.443332475680382 ] ] ] ] } },
{ "type": "Feature", "properties": { "id": 2 }, "geometry": { "type": "MultiPolygon", "coordinates": [ [ [ [ 121.012720025719275, 13.44189583418915 ], [ 121.013150626711209, 13.441723593792384 ], [ 121.013354183543754, 13.441606157158224 ], [ 121.014066632457642, 13.441191214384192 ], [ 121.01448157523167, 13.440979828442705 ], [ 121.0152175114724, 13.44075278428333 ], [ 121.016180491872518, 13.440470936361347 ], [ 121.017026035638466, 13.440165601112533 ], [ 121.017292225342572, 13.439868094972663 ], [ 121.017957699602803, 13.438959918335163 ], [ 121.018709294061424, 13.437785551993565 ], [ 121.019672274461527, 13.436517236344642 ], [ 121.019836685749354, 13.435937882282788 ], [ 121.019640958025747, 13.43558557238031 ], [ 121.019351280994826, 13.435342870003046 ], [ 121.018826730695579, 13.435374186438823 ], [ 121.01846659168416, 13.435147142279448 ], [ 121.018129939999568, 13.435382015547766 ], [ 121.018255205742676, 13.435601230598198 ], [ 121.018349155050004, 13.435828274757572 ], [ 121.018200401980067, 13.43615709733322 ], [ 121.017981186929632, 13.436509407235699 ], [ 121.01776197187921, 13.436603356543026 ], [ 121.017738484552368, 13.436368483274707 ], [ 121.017613218809274, 13.436219730204771 ], [ 121.017339199996229, 13.43649374901781 ], [ 121.017323541778339, 13.436814742484513 ], [ 121.017104326727903, 13.436767767830849 ], [ 121.016932086331138, 13.436814742484513 ], [ 121.016658067518108, 13.437229685258544 ], [ 121.016509314448172, 13.437198368822767 ], [ 121.016532801775, 13.436783426048738 ], [ 121.016579776428671, 13.43645460347309 ], [ 121.016509314448172, 13.436517236344642 ], [ 121.016282270288798, 13.43645460347309 ], [ 121.015882985732645, 13.436893033573952 ], [ 121.016055226129424, 13.437206197931712 ], [ 121.016431023358734, 13.43740192565531 ], [ 121.016493656230267, 13.437644628032574 ], [ 121.016611092864437, 13.437785551993567 ], [ 121.016830307914859, 13.437973450608222 ], [ 121.017370516431995, 13.437793381102511 ], [ 121.017621047918198, 13.437848184865118 ], [ 121.01764453524504, 13.438020425261886 ], [ 121.017425320194604, 13.438427538926971 ], [ 121.017112155836841, 13.438834652592059 ], [ 121.01679116237014, 13.439500126852295 ], [ 121.016579776428657, 13.439719341902727 ], [ 121.016329244942455, 13.440071651805205 ], [ 121.016031738802582, 13.44029869596458 ], [ 121.01533494810657, 13.440361328836131 ], [ 121.014990467313027, 13.440267379528803 ], [ 121.014559866321108, 13.440095139132037 ], [ 121.014379796815405, 13.440173430221476 ], [ 121.014442429686952, 13.440392645271908 ], [ 121.014223214636516, 13.440494423688179 ], [ 121.013863075625096, 13.440690151411779 ], [ 121.013980512259252, 13.440885879135378 ], [ 121.013706493446222, 13.441175556166305 ], [ 121.013495107504738, 13.441316480127297 ], [ 121.013111481166476, 13.441676619138718 ], [ 121.012782658590837, 13.441621815376111 ], [ 121.012500810668854, 13.441645302702943 ], [ 121.012720025719275, 13.44189583418915 ] ] ] ] } },
{ "type": "Feature", "properties": { "id": 4 }, "geometry": { "type": "MultiPolygon", "coordinates": [ [ [ [ 121.016822478805921, 13.433878826630524 ], [ 121.017026035638466, 13.433902313957356 ], [ 121.017119984945793, 13.433855339303692 ], [ 121.017456636630385, 13.433565662272766 ], [ 121.017793288314977, 13.433056770191408 ], [ 121.017761971879196, 13.432680972962096 ], [ 121.017456636630385, 13.432673143853153 ], [ 121.017386174649886, 13.432939333557249 ], [ 121.017198276035231, 13.433275985241838 ], [ 121.017088668510013, 13.432947162666192 ], [ 121.017112155836855, 13.432532219892162 ], [ 121.017292225342558, 13.432211226425459 ], [ 121.017527098610884, 13.43197635315714 ], [ 121.017315712669387, 13.431764967215653 ], [ 121.017198276035231, 13.431537923056277 ], [ 121.017119984945793, 13.431334366223734 ], [ 121.016838137023811, 13.431459631966838 ], [ 121.01680682058803, 13.431624043254661 ], [ 121.016673725735984, 13.431584897709941 ], [ 121.01641536514083, 13.431420486422118 ], [ 121.016391877814002, 13.43163970147255 ], [ 121.016368390487173, 13.43185891652298 ], [ 121.016008251475753, 13.431694505235157 ], [ 121.01571074533588, 13.431671017908325 ], [ 121.01569508711799, 13.432062473355524 ], [ 121.015836011078989, 13.432305175732786 ], [ 121.01571074533588, 13.432594852763714 ], [ 121.015914302168426, 13.433009795537744 ], [ 121.016164833654628, 13.43345605474755 ], [ 121.016822478805921, 13.433878826630524 ] ] ] ] } },
{ "type": "Feature", "properties": { "id": 5 }, "geometry": { "type": "MultiPolygon", "coordinates": [ [ [ [ 121.023398930318876, 13.423450453517155 ], [ 121.023641632696112, 13.423317358665107 ], [ 121.023672949131893, 13.423278213120387 ], [ 121.02385301863761, 13.423058998069957 ], [ 121.024080062796983, 13.422784979256917 ], [ 121.024432372699465, 13.422424840245494 ], [ 121.024839486364542, 13.422401352918662 ], [ 121.025113505177586, 13.422628397078038 ], [ 121.025457985971116, 13.422487473117046 ], [ 121.026006023597191, 13.42219779608612 ], [ 121.026146947558189, 13.421853315292585 ], [ 121.02655406122328, 13.421696733113706 ], [ 121.026757618055811, 13.421994239253577 ], [ 121.027023807759917, 13.421751536876313 ], [ 121.026945516670466, 13.421383568755948 ], [ 121.026640181421683, 13.421242644794955 ], [ 121.026381820826529, 13.421180011923404 ], [ 121.026483599242795, 13.420765069149374 ], [ 121.026366162608639, 13.420545854098942 ], [ 121.0259668780525, 13.420506708554223 ], [ 121.026084314686656, 13.420279664394847 ], [ 121.025943390725658, 13.419982158254976 ], [ 121.026029510924047, 13.419387145975234 ], [ 121.025747663002065, 13.419073981617476 ], [ 121.025544106169519, 13.419692481224049 ], [ 121.025293574683289, 13.420021303799695 ], [ 121.025043043197087, 13.420052620235472 ], [ 121.02489429012715, 13.42040493013795 ], [ 121.024761195275104, 13.420749410931485 ], [ 121.024651587749887, 13.42109389172502 ], [ 121.024510663788917, 13.421383568755948 ], [ 121.024369739827932, 13.421555809152714 ], [ 121.024056575470169, 13.421915948164136 ], [ 121.023735582003468, 13.422182137868232 ], [ 121.023704265567687, 13.422542276879653 ], [ 121.023391101209938, 13.42269102994959 ], [ 121.023171886159503, 13.422667542622758 ], [ 121.022686481404975, 13.422706688167478 ], [ 121.022772601603364, 13.422886757673188 ], [ 121.02278825982124, 13.423082485396788 ], [ 121.023093595070065, 13.423293871338275 ], [ 121.023398930318876, 13.423450453517155 ] ] ] ] } },
{ "type": "Feature", "properties": { "id": 6 }, "geometry": { "type": "MultiPolygon", "coordinates": [ [ [ [ 121.027740171228317, 13.419383231420763 ], [ 121.027646221921017, 13.419414547856544 ], [ 121.027630563703127, 13.419465437064678 ], [ 121.027591418158408, 13.419602446471199 ], [ 121.027489639742143, 13.419778601422438 ], [ 121.02751704162344, 13.419962585482621 ], [ 121.027614905485251, 13.42008002211678 ], [ 121.027838035090141, 13.420181800533053 ], [ 121.028053335586108, 13.420056534789948 ], [ 121.027959386278781, 13.419849063402934 ], [ 121.028147284893436, 13.419606361025672 ], [ 121.028613116875604, 13.419625933798031 ], [ 121.028902793906525, 13.41958287369884 ], [ 121.02920812915535, 13.41958678825331 ], [ 121.029489977077333, 13.419516326272815 ], [ 121.029693533909864, 13.419351914984992 ], [ 121.02990883440583, 13.419222734687416 ], [ 121.030143707674142, 13.419261880232137 ], [ 121.03023765698147, 13.419375402311823 ], [ 121.030417726487187, 13.419461522510208 ], [ 121.030574308666047, 13.419418462411015 ], [ 121.03075437817175, 13.419304940331326 ], [ 121.031028396984794, 13.419285367558967 ], [ 121.031122346292122, 13.419406718747599 ], [ 121.031134089955543, 13.419578959144365 ], [ 121.031192808272621, 13.419672908451693 ], [ 121.031318074015715, 13.419665079342749 ], [ 121.031603836492181, 13.419582873698838 ], [ 121.03188176985968, 13.419524155381758 ], [ 121.032265396197943, 13.41966899389722 ], [ 121.032449380258129, 13.419684652115109 ], [ 121.032449380258129, 13.419469351619149 ], [ 121.032645107981722, 13.419402804193126 ], [ 121.032797775606127, 13.419363658648406 ], [ 121.032621620654893, 13.41929319666791 ], [ 121.031924829958882, 13.419261880232135 ], [ 121.031267184807589, 13.419230563796356 ], [ 121.030503846685562, 13.419187503697165 ], [ 121.029760081335851, 13.419136614489029 ], [ 121.02945474608704, 13.419124870825613 ], [ 121.02836258538936, 13.419046579736172 ], [ 121.027779316773035, 13.418980032310149 ], [ 121.027528785286819, 13.419109212607724 ], [ 121.02755618716813, 13.419234478350827 ], [ 121.027740171228317, 13.419383231420763 ] ] ] ] } },
{ "type": "Feature", "properties": { "id": 7 }, "geometry": { "type": "MultiPolygon", "coordinates": [ [ [ [ 121.024968666662147, 13.424656136294526 ], [ 121.025048915028819, 13.424644392631111 ], [ 121.025152650722333, 13.424536742383131 ], [ 121.025209411762177, 13.424401690253847 ], [ 121.025256386415833, 13.424264680847328 ], [ 121.025097846959724, 13.424172688817237 ], [ 121.025031299533708, 13.424241193520496 ], [ 121.02487471735482, 13.4242196634709 ], [ 121.024806212651569, 13.424268595401799 ], [ 121.024739665225539, 13.424360587431892 ], [ 121.024600698541789, 13.424307740946519 ], [ 121.02454589477918, 13.424200090698539 ], [ 121.024606570373493, 13.424047423074132 ], [ 121.024496962848275, 13.423961302875748 ], [ 121.024354081610042, 13.423998491143232 ], [ 121.024252303193776, 13.4241217996091 ], [ 121.024238602253121, 13.424307740946519 ], [ 121.024426500867776, 13.424331228273351 ], [ 121.024600698541789, 13.424358630154655 ], [ 121.024678989631227, 13.424417348471735 ], [ 121.024741622502773, 13.424513255056299 ], [ 121.024819913592211, 13.424587631591265 ], [ 121.024968666662147, 13.424656136294526 ] ] ] ] } },
{ "type": "Feature", "properties": { "id": 8 }, "geometry": { "type": "MultiPolygon", "coordinates": [ [ [ [ 121.018709294061424, 13.428345603884372 ], [ 121.019085091290776, 13.428110730616051 ], [ 121.019147724162323, 13.427985464872949 ], [ 121.019265160796493, 13.427578351207861 ], [ 121.019625299807913, 13.427155579324888 ], [ 121.019460888520086, 13.426654516352473 ], [ 121.01896765465662, 13.426357010212604 ], [ 121.018764097824075, 13.426302206449995 ], [ 121.018458762575264, 13.426403984866267 ], [ 121.01820040198011, 13.426231744469499 ], [ 121.01796552871177, 13.425722852388144 ], [ 121.017840262968662, 13.425276593178339 ], [ 121.017323541778353, 13.42504171991002 ], [ 121.017088668510041, 13.42541751713933 ], [ 121.016517143557124, 13.425550611991374 ], [ 121.016524972666062, 13.425785485259693 ], [ 121.016814649696983, 13.426184769815837 ], [ 121.016916428113262, 13.425754168823918 ], [ 121.017198276035245, 13.425589757536095 ], [ 121.017448807521447, 13.42581680169547 ], [ 121.017433149303557, 13.426137795162173 ], [ 121.017691509898711, 13.426341351994715 ], [ 121.017981186929646, 13.426364839321547 ], [ 121.018216060197958, 13.426795440313466 ], [ 121.018474420793112, 13.427241699523272 ], [ 121.018693635843547, 13.427578351207863 ], [ 121.018764097824032, 13.427828882694071 ], [ 121.018709294061424, 13.428345603884372 ] ] ] ] } }
]
}
