{
"type": "FeatureCollection",
"name": "santeodoro_mpa",
"crs": { "type": "name", "properties": { "name": "urn:ogc:def:crs:OGC:1.3:CRS84" } },
"features": [
{ "type": "Feature", "properties": { "id": 1, "Name": "Punta Ilag Fish Sanctuary" }, "geometry": { "type": "MultiPolygon", "coordinates": [ [ [ [ 121.01886478, 13.44346627 ], [ 121.01867192, 13.44443585 ], [ 121.0185664, 13.44496636 ], [ 121.01935716, 13.44550308 ], [ 121.02116327, 13.44672893 ], [ 121.02287921, 13.44789355 ], [ 121.02397577, 13.44655931 ], [ 121.02515505, 13.4451244 ], [ 121.02445164, 13.44446142 ], [ 121.02318156, 13.44326426 ], [ 121.02146995, 13.44312204 ], [ 121.02012646, 13.443056 ], [ 121.01886478, 13.44346627 ] ] ] ] } },
{ "type": "Feature", "properties": { "id": 2, "Name": "Tamauyan Fish Sanctuary" }, "geometry": { "type": "MultiPolygon", "coordinates": [ [ [ [ 121.08808905, 13.41400655 ], [ 121.08153961, 13.40974706 ], [ 121.08037323, 13.40885095 ], [ 121.07679701, 13.40758655 ], [ 121.07466403, 13.41133326 ], [ 121.07622823, 13.41473001 ], [ 121.07923629, 13.41617158 ], [ 121.08267083, 13.41696494 ], [ 121.08583541, 13.41665034 ], [ 121.08808905, 13.41400655 ] ] ] ] } },
{ "type": "Feature", "properties": { "id": 3, "Name": "Bulaso Reef Marine Protected Area" }, "geometry": { "type": "MultiPolygon", "coordinates": [ [ [ [ 121.046667422956119, 13.418990396023704 ], [ 121.053213917186056, 13.425419014024335 ], [ 121.064129961392354, 13.41652249221166 ], [ 121.059666442599251, 13.411342858550936 ], [ 121.05468609531431, 13.41518189185814 ], [ 121.052885026327601, 13.413658473284112 ], [ 121.046698745895, 13.419013246866436 ], [ 121.046667422956119, 13.418990396023704 ] ] ] ] } }
]
}
