{
"type": "FeatureCollection",
"name": "santeodoro_mangrove",
"crs": { "type": "name", "properties": { "name": "urn:ogc:def:crs:OGC:1.3:CRS84" } },
"features": [
{ "type": "Feature", "properties": { "id": 1, "layer": "Mangrove Areas" }, "geometry": { "type": "MultiPolygon", "coordinates": [ [ [ [ 121.026167009649868, 13.419408186705528 ], [ 121.026130473808124, 13.419549110666519 ], [ 121.026185277570733, 13.419752667499063 ], [ 121.026495832225521, 13.420128464728373 ], [ 121.02692643321744, 13.420553846314329 ], [ 121.027129990049971, 13.420686941166377 ], [ 121.027730221735681, 13.421036641365873 ], [ 121.028236504114062, 13.421352415426616 ], [ 121.028432231837655, 13.421341976614691 ], [ 121.028573155798654, 13.421446364733944 ], [ 121.028147774212698, 13.421923940379527 ], [ 121.027620614210448, 13.422299737608837 ], [ 121.027310059555674, 13.422453710084735 ], [ 121.027163916188726, 13.422560707906969 ], [ 121.027009943712827, 13.422675534838147 ], [ 121.026942091435316, 13.4228634334528 ], [ 121.026803777177307, 13.423056551473417 ], [ 121.026704608464016, 13.423111355236026 ], [ 121.026561074800043, 13.423140061968819 ], [ 121.026391444106252, 13.423111355236026 ], [ 121.026096547669368, 13.423108745533044 ], [ 121.025945184896457, 13.42321835305826 ], [ 121.025856454995093, 13.423325350880495 ], [ 121.025822528856338, 13.423434958405711 ], [ 121.025812090044411, 13.423656783159123 ], [ 121.025877332618947, 13.423951679596012 ], [ 121.026070450639565, 13.424139578210667 ], [ 121.026164399946893, 13.424366622370041 ], [ 121.026190496976696, 13.424606715044323 ], [ 121.026153961134966, 13.42485724653053 ], [ 121.026039134203785, 13.425340041582075 ], [ 121.025976501332224, 13.425710619405422 ], [ 121.026010427470979, 13.425908956832002 ], [ 121.026240081333327, 13.426840620796334 ], [ 121.026375785888362, 13.427083323173596 ], [ 121.026540197176175, 13.427182491886887 ], [ 121.026715047275928, 13.427221637431607 ], [ 121.026947310841265, 13.427237295649494 ], [ 121.027167684596222, 13.427207172618242 ], [ 121.027310059555674, 13.42718771129285 ], [ 121.027552761932952, 13.426939789509625 ], [ 121.027761538171461, 13.426699696835342 ], [ 121.028166042133563, 13.426389142180565 ], [ 121.028351331045229, 13.426146439803302 ], [ 121.028432231837655, 13.426013344951254 ], [ 121.028445280352557, 13.425830665742563 ], [ 121.028395695995926, 13.425624499207037 ], [ 121.02834611163928, 13.425465307325176 ], [ 121.028233894411073, 13.425303505740334 ], [ 121.028045995796418, 13.425180849700212 ], [ 121.027774586686363, 13.425024267521332 ], [ 121.027670198567108, 13.424922489105061 ], [ 121.027670198567108, 13.424865075639472 ], [ 121.02783721955791, 13.424893782372266 ], [ 121.028181700351453, 13.425052974254127 ], [ 121.028215626490194, 13.425154752670398 ], [ 121.028612301343344, 13.425222604947914 ], [ 121.028805419363962, 13.425170410888287 ], [ 121.028909807483217, 13.425066022769034 ], [ 121.028977659760741, 13.425032096630277 ], [ 121.028985488869679, 13.424825930094752 ], [ 121.028909807483217, 13.424739809896369 ], [ 121.028706250650671, 13.424677177024817 ], [ 121.028536619956881, 13.424677177024817 ], [ 121.028395695995897, 13.424729371084444 ], [ 121.028176480945461, 13.424773736035126 ], [ 121.028043386093415, 13.424771126332145 ], [ 121.027892023320504, 13.424611934450285 ], [ 121.027881584508577, 13.424439694053518 ], [ 121.027852877775786, 13.424335305934266 ], [ 121.027852877775786, 13.424176114052404 ], [ 121.027931168865223, 13.424019531873526 ], [ 121.027978143518894, 13.423821194446944 ], [ 121.028207797381242, 13.423432348702727 ], [ 121.028536619956895, 13.423121794047951 ], [ 121.028565326689687, 13.423025235037642 ], [ 121.028695811838759, 13.423027844740622 ], [ 121.028855003720622, 13.422897359591557 ], [ 121.028925465701121, 13.422808629690191 ], [ 121.028967220948815, 13.42266509602622 ], [ 121.028836735799757, 13.422529391471191 ], [ 121.028935904513048, 13.422362370480386 ], [ 121.029063779959131, 13.422247543549208 ], [ 121.029241239761859, 13.422205788301506 ], [ 121.029418699564587, 13.422237104737283 ], [ 121.029523087683842, 13.422328444341629 ], [ 121.029760570655156, 13.422419783945978 ], [ 121.029930201348932, 13.422646828105353 ], [ 121.030029370062223, 13.422892140185597 ], [ 121.030003273032406, 13.423001747710812 ], [ 121.029872787883335, 13.423226182167205 ], [ 121.02973186392235, 13.423317521771551 ], [ 121.029666621347815, 13.423419300187822 ], [ 121.029413480158624, 13.423638515238254 ], [ 121.029129022533667, 13.423842072070798 ], [ 121.028935904513048, 13.423982996031789 ], [ 121.028857613423611, 13.424048238606321 ], [ 121.02877410292821, 13.424134358804706 ], [ 121.028706250650686, 13.42425962454781 ], [ 121.028682763323857, 13.424353573855138 ], [ 121.028721908868576, 13.424460571677372 ], [ 121.028776712631185, 13.424452742568427 ], [ 121.028951562730938, 13.424210040191165 ], [ 121.029092486691923, 13.424001263952658 ], [ 121.029350847287077, 13.423808145932041 ], [ 121.029705766892533, 13.423601979396516 ], [ 121.029752741546204, 13.423565443554777 ], [ 121.030123319369551, 13.42321574335528 ], [ 121.030183342538109, 13.42315311048373 ], [ 121.03038428966768, 13.423053941770439 ], [ 121.030642650262834, 13.422751216224606 ], [ 121.030809671253635, 13.422432832460885 ], [ 121.031047154224936, 13.422046596419646 ], [ 121.031336831255871, 13.421733432061888 ], [ 121.031644776207656, 13.421462022951831 ], [ 121.03219542353672, 13.421070567504634 ], [ 121.032448564725911, 13.420908765919792 ], [ 121.032513807300433, 13.420848742751222 ], [ 121.032654731261431, 13.420692160572342 ], [ 121.032753899974722, 13.420535578393462 ], [ 121.032808703737331, 13.420350289481789 ], [ 121.03282958136117, 13.420196317005889 ], [ 121.032866117202914, 13.41998232136142 ], [ 121.032907872450622, 13.41982573918254 ], [ 121.032902653044658, 13.419755277202045 ], [ 121.032991382946022, 13.41963001145894 ], [ 121.03293135977745, 13.41954650096354 ], [ 121.032727802944905, 13.419413406111492 ], [ 121.032586878983906, 13.419397747893603 ], [ 121.032479881161677, 13.41945255165621 ], [ 121.032490319973604, 13.419598695023165 ], [ 121.032545123736213, 13.419718741360306 ], [ 121.032534684924286, 13.419797032449745 ], [ 121.03246944234975, 13.419890981757073 ], [ 121.032461613240812, 13.420352899184767 ], [ 121.032054499575722, 13.420582553047124 ], [ 121.031950111456467, 13.420530358987497 ], [ 121.031955330862431, 13.419924907895831 ], [ 121.031931843535602, 13.419734399578195 ], [ 121.031895307693873, 13.419601304726147 ], [ 121.031738725514984, 13.419580427102296 ], [ 121.031469926107917, 13.419653498785774 ], [ 121.031185468482946, 13.419726570469249 ], [ 121.0309819116504, 13.419734399578195 ], [ 121.030820110065562, 13.419671766706642 ], [ 121.030689624916491, 13.41960652413211 ], [ 121.030459971054142, 13.419502136012857 ], [ 121.030238146300732, 13.41942906432938 ], [ 121.03009200293377, 13.419332505319073 ], [ 121.029961517784713, 13.419267262744539 ], [ 121.029867568477385, 13.419285530665409 ], [ 121.029744912437266, 13.419397747893605 ], [ 121.029609207882231, 13.419525623339689 ], [ 121.029436967485466, 13.419580427102298 ], [ 121.029293433821493, 13.41960391442913 ], [ 121.029003756790573, 13.419601304726148 ], [ 121.028641008076164, 13.419637840567887 ], [ 121.028343501936291, 13.419635230864905 ], [ 121.028132115994808, 13.419700473439439 ], [ 121.028056434608345, 13.419791813043785 ], [ 121.028025118172565, 13.419890981757076 ], [ 121.028116457776918, 13.420037125124029 ], [ 121.028257381737916, 13.420256340174461 ], [ 121.02833045342139, 13.420433799977191 ], [ 121.028325234015426, 13.420530358987499 ], [ 121.02819213916338, 13.420582553047126 ], [ 121.028035556984491, 13.420517310472594 ], [ 121.027894633023507, 13.420465116412966 ], [ 121.027735441141644, 13.420318973046014 ], [ 121.027568420150828, 13.42011541621347 ], [ 121.027466641734563, 13.419948395222667 ], [ 121.027464032031588, 13.419823129479562 ], [ 121.027474470843501, 13.419692644330496 ], [ 121.027542323121025, 13.4195804271023 ], [ 121.027576249259781, 13.419494306903916 ], [ 121.027586688071707, 13.419457771062177 ], [ 121.027563200744865, 13.419355992645906 ], [ 121.027430105892819, 13.419251604526654 ], [ 121.027226549060273, 13.419165484328271 ], [ 121.026942091435316, 13.419123729080569 ], [ 121.026835093613073, 13.419115899971626 ], [ 121.026688950246125, 13.419118509674602 ], [ 121.026427979947997, 13.419178532843173 ], [ 121.026274007472097, 13.419282920962425 ], [ 121.026167009649868, 13.419408186705528 ] ] ], [ [ [ 121.030248422006281, 13.424556804474815 ], [ 121.030206340545703, 13.424530381232127 ], [ 121.030144686312767, 13.424518148249403 ], [ 121.030099179617039, 13.424521573484567 ], [ 121.030060523391626, 13.424532827828672 ], [ 121.030036546745464, 13.424552889920342 ], [ 121.030019909888964, 13.424581759759574 ], [ 121.02999935847798, 13.424606715044332 ], [ 121.029971467277377, 13.424628734413238 ], [ 121.02989415482655, 13.424661029487631 ], [ 121.029794333687519, 13.424677666344136 ], [ 121.029748826991778, 13.424683538175843 ], [ 121.029714085320848, 13.424681091579298 ], [ 121.02965634564238, 13.424668369277263 ], [ 121.029618668055591, 13.424670815873808 ], [ 121.029588819577739, 13.424683538175843 ], [ 121.029563374973662, 13.424708982779912 ], [ 121.029550163352326, 13.424728066232962 ], [ 121.029545759478552, 13.424754489475648 ], [ 121.029551631310255, 13.424784337953497 ], [ 121.029564353612287, 13.424805378683784 ], [ 121.029606435072864, 13.424821526220981 ], [ 121.029651941768591, 13.424833269884397 ], [ 121.02968766207816, 13.424846970825048 ], [ 121.029711638724294, 13.42487094747119 ], [ 121.029734636731817, 13.42491449688969 ], [ 121.029733658093207, 13.424957067669574 ], [ 121.02972533966495, 13.42498887342466 ], [ 121.029709681447059, 13.425020189860435 ], [ 121.029679832969208, 13.425051506296212 ], [ 121.029639708785865, 13.425088205244386 ], [ 121.029575607956389, 13.425118543041544 ], [ 121.02953450513445, 13.425130776024272 ], [ 121.029507103253138, 13.425127350789108 ], [ 121.029468447027725, 13.425123436234637 ], [ 121.029439087869193, 13.425134201259434 ], [ 121.029428322844396, 13.425147412880778 ], [ 121.029407282114107, 13.425167964291756 ], [ 121.029364711334225, 13.425178239997244 ], [ 121.029301589143344, 13.425182154551713 ], [ 121.029239445591102, 13.425198791408219 ], [ 121.029186599105728, 13.425213960306799 ], [ 121.029149900157549, 13.425232065121232 ], [ 121.029119562360393, 13.425258488363918 ], [ 121.0290926497984, 13.4253010591438 ], [ 121.029078459538439, 13.425341672646447 ], [ 121.029085799328072, 13.425346076520228 ], [ 121.029113690528689, 13.42535977746088 ], [ 121.029148432199619, 13.425378860913931 ], [ 121.029226723289057, 13.425400880282835 ], [ 121.02928250569029, 13.425412623946251 ], [ 121.02934905311632, 13.425416049181417 ], [ 121.029415600542336, 13.425411645307635 ], [ 121.029489977077304, 13.425400880282837 ], [ 121.029545270159218, 13.425375924998079 ], [ 121.029580011830163, 13.425347055158847 ], [ 121.029615732139717, 13.425318185319615 ], [ 121.029652920407202, 13.425264360195625 ], [ 121.029694512548488, 13.425223257373672 ], [ 121.029738061966995, 13.425210535071638 ], [ 121.029760570655199, 13.425197812769603 ], [ 121.029779654108253, 13.425168942930373 ], [ 121.029803630754401, 13.425137137175289 ], [ 121.029830053997074, 13.425128818747035 ], [ 121.029859902474925, 13.425120989638092 ], [ 121.029878985927979, 13.42509260911817 ], [ 121.029901494616183, 13.425063739278936 ], [ 121.029959234294637, 13.425025572372835 ], [ 121.030018931250339, 13.424996213214294 ], [ 121.030088414592214, 13.424978597719171 ], [ 121.030156919295479, 13.424961960862664 ], [ 121.030199000756056, 13.424925751233799 ], [ 121.030244996771088, 13.424881712495988 ], [ 121.030283163677197, 13.424872904748428 ], [ 121.030319373306057, 13.424830823287854 ], [ 121.030331116969478, 13.424758404030122 ], [ 121.030330138330868, 13.424728555552274 ], [ 121.030319373306071, 13.424678644982757 ], [ 121.030292460744079, 13.424606715044334 ], [ 121.030248422006281, 13.424556804474815 ] ] ], [ [ [ 121.023739985877228, 13.432036539432149 ], [ 121.023878300135237, 13.431838202005569 ], [ 121.024019224096222, 13.43162159665812 ], [ 121.024097515185659, 13.431538086162718 ], [ 121.024259316770511, 13.431391942795763 ], [ 121.024340217562909, 13.43124840913179 ], [ 121.024366314592712, 13.430909147744218 ], [ 121.02435326607781, 13.4307160297236 ], [ 121.024541164692451, 13.430413304177767 ], [ 121.024716014792205, 13.430293257840626 ], [ 121.024776037960777, 13.430100139820007 ], [ 121.024742111822022, 13.430060994275289 ], [ 121.024695137168351, 13.430011409918643 ], [ 121.024622065484877, 13.430008800215662 ], [ 121.024504628850721, 13.430047945760382 ], [ 121.024269755582395, 13.430175821206467 ], [ 121.02401400469023, 13.430217576454167 ], [ 121.023990517363401, 13.430167992097521 ], [ 121.024334998156931, 13.430094920414046 ], [ 121.024504628850721, 13.42998531288883 ], [ 121.024603797564012, 13.429907021799391 ], [ 121.025076153803639, 13.4298078530861 ], [ 121.02534495321072, 13.429666929125109 ], [ 121.025577216776057, 13.429737391105604 ], [ 121.025895600539798, 13.429486859619397 ], [ 121.025908649054699, 13.429129330310955 ], [ 121.025999988659052, 13.428837043577047 ], [ 121.026185277570704, 13.428821385359161 ], [ 121.026367956779396, 13.428860530903881 ], [ 121.026529758364234, 13.428646535259412 ], [ 121.026712437572925, 13.428479514268608 ], [ 121.026780289850436, 13.428320322386748 ], [ 121.026772460741498, 13.428158520801905 ], [ 121.026717656978889, 13.428001938623026 ], [ 121.026529758364234, 13.427800991493465 ], [ 121.026297494798897, 13.427571337631107 ], [ 121.026164399946836, 13.427386048719434 ], [ 121.025973891629206, 13.427025909708012 ], [ 121.025715531034052, 13.42623256000169 ], [ 121.025574607073068, 13.425945492673744 ], [ 121.025337124101767, 13.425752374653127 ], [ 121.024804744693569, 13.425608840989154 ], [ 121.024502019147732, 13.425590573068284 ], [ 121.02433760785992, 13.4255044528699 ], [ 121.024256707067494, 13.425530549899714 ], [ 121.024228000334702, 13.425653205939835 ], [ 121.024256707067494, 13.425773252276976 ], [ 121.024274974988359, 13.425872420990267 ], [ 121.024301072018176, 13.426047271090015 ], [ 121.024387192216565, 13.426232560001688 ], [ 121.024512457959673, 13.426373483962681 ], [ 121.024679478950475, 13.42645177505212 ], [ 121.024812573802521, 13.426467433270009 ], [ 121.025039617961895, 13.426556163171373 ], [ 121.025217077764623, 13.426644893072739 ], [ 121.025360611428596, 13.426751890894973 ], [ 121.025488486874679, 13.426845840202299 ], [ 121.02555111974624, 13.426921521588758 ], [ 121.02570509222214, 13.427119859015338 ], [ 121.025830357965248, 13.427237295649498 ], [ 121.02597911103517, 13.427401706937321 ], [ 121.025999988659024, 13.427511314462537 ], [ 121.026041743906731, 13.427636580205641 ], [ 121.026104376778278, 13.427777504166633 ], [ 121.026161790243862, 13.427934086345511 ], [ 121.026198326085606, 13.428111546148241 ], [ 121.026146132025971, 13.428268128327122 ], [ 121.026018256579889, 13.428440368723889 ], [ 121.025984330441133, 13.428573463575937 ], [ 121.025887771430817, 13.42873787486376 ], [ 121.025796431826478, 13.428837043577049 ], [ 121.025415415191205, 13.429244157242136 ], [ 121.025245784497415, 13.429395520015053 ], [ 121.025029179149968, 13.429494688728342 ], [ 121.024736892416058, 13.42962778358039 ], [ 121.024546384098414, 13.429643441798278 ], [ 121.024387192216551, 13.429596467144615 ], [ 121.024199293601896, 13.42951034694623 ], [ 121.024055759937923, 13.429416397638903 ], [ 121.024000956175314, 13.429298961004744 ], [ 121.023943542709731, 13.429116281796052 ], [ 121.023893958353099, 13.429022332488724 ], [ 121.02365386567881, 13.428917944369472 ], [ 121.023426821519436, 13.428839653280031 ], [ 121.023319823697207, 13.428743094269722 ], [ 121.023158022112369, 13.428589121793825 ], [ 121.02302231755732, 13.428479514268608 ], [ 121.022782224883045, 13.42834380971358 ], [ 121.022693494981681, 13.428249860406252 ], [ 121.022513425475964, 13.428064571494579 ], [ 121.02237250151498, 13.427915818424642 ], [ 121.022200261118215, 13.427751407136819 ], [ 121.022038459533363, 13.42767311604738 ], [ 121.021970607255852, 13.427680945156323 ], [ 121.021960168443925, 13.427735748918931 ], [ 121.022007143097596, 13.427816649711353 ], [ 121.022111531216851, 13.427921037830606 ], [ 121.022273332801689, 13.42803064535582 ], [ 121.02244035379249, 13.428189837237682 ], [ 121.022570838941562, 13.428289005950973 ], [ 121.022724811417461, 13.428401223179169 ], [ 121.022904880923164, 13.428563024764012 ], [ 121.023077121319929, 13.428727436051835 ], [ 121.023189338548121, 13.428912724963508 ], [ 121.023259800528606, 13.429037990706611 ], [ 121.023445089440287, 13.429139769122884 ], [ 121.02352077082675, 13.429212840806359 ], [ 121.023562526074443, 13.42931200951965 ], [ 121.023591232807235, 13.429479030510455 ], [ 121.023510332014823, 13.429609515659521 ], [ 121.023510332014823, 13.429703464966849 ], [ 121.023531209638662, 13.429745220214551 ], [ 121.023580793995308, 13.42978175605629 ], [ 121.023648646272832, 13.429862656848711 ], [ 121.02374259558016, 13.429920070314299 ], [ 121.023786960530842, 13.430071433087216 ], [ 121.023836544887487, 13.430170601800507 ], [ 121.023836544887487, 13.430228015266097 ], [ 121.023677353005624, 13.430342842197275 ], [ 121.023632988054942, 13.430431572098641 ], [ 121.023559916371468, 13.43046810794038 ], [ 121.023426821519436, 13.43056988635665 ], [ 121.023319823697193, 13.430684713287828 ], [ 121.023220654983902, 13.430851734278633 ], [ 121.023155412409366, 13.430969170912793 ], [ 121.022891832408263, 13.431277115864589 ], [ 121.022740469635337, 13.431451965964337 ], [ 121.022664788248889, 13.431572012301478 ], [ 121.022557790426646, 13.431778178837002 ], [ 121.022437744089544, 13.432122659630538 ], [ 121.022409037356738, 13.432266193294511 ], [ 121.022403817950774, 13.432401897849539 ], [ 121.022440353792518, 13.432477579235998 ], [ 121.022557790426674, 13.432574138246308 ], [ 121.022808321912891, 13.432712452504317 ], [ 121.023144973597482, 13.432829889138477 ], [ 121.023332872212123, 13.432540212107547 ], [ 121.023580793995365, 13.432274022403449 ], [ 121.023591232807291, 13.432091343194758 ], [ 121.023739985877228, 13.432036539432149 ] ] ], [ [ [ 121.021512604382636, 13.436162479845628 ], [ 121.02158567606611, 13.435986324894388 ], [ 121.021675710818968, 13.435841486378926 ], [ 121.021726600027108, 13.435644453803835 ], [ 121.021776184383754, 13.43557138212036 ], [ 121.021888401611946, 13.435448726080237 ], [ 121.021979741216285, 13.435303887564773 ], [ 121.02202932557293, 13.435162963603782 ], [ 121.022124579731752, 13.435113379247134 ], [ 121.02221852903908, 13.434971150434652 ], [ 121.022332051118767, 13.434796300334902 ], [ 121.022480804188703, 13.434554902809131 ], [ 121.022629557258639, 13.434310895580378 ], [ 121.022807669487122, 13.433919440133176 ], [ 121.022920212928184, 13.433729910454156 ], [ 121.022935871146089, 13.433663036815265 ], [ 121.02296849243335, 13.433506454636383 ], [ 121.023006659339458, 13.433431751888545 ], [ 121.023066682508031, 13.433354765650595 ], [ 121.02308625528039, 13.433307790996931 ], [ 121.023073859191229, 13.433241895996654 ], [ 121.023009921468187, 13.433251029957088 ], [ 121.022918581863834, 13.433337802581217 ], [ 121.022861168398251, 13.433395868472552 ], [ 121.022803102506913, 13.433467635304538 ], [ 121.022774395774121, 13.433536140007797 ], [ 121.02274699389281, 13.433612473820002 ], [ 121.022703281367882, 13.43360725441404 ], [ 121.02266022126868, 13.433587029215934 ], [ 121.022616508743752, 13.433525701195874 ], [ 121.022585844733726, 13.433433709165783 ], [ 121.022526473990894, 13.433200140748955 ], [ 121.022482761465952, 13.433100972035662 ], [ 121.022424695574628, 13.433021376094732 ], [ 121.022374458792228, 13.432978968421287 ], [ 121.022315740475136, 13.432952871391475 ], [ 121.022256369732318, 13.432946999559766 ], [ 121.022222443593563, 13.432959395648927 ], [ 121.022167639830954, 13.432982882975759 ], [ 121.022116098197074, 13.433029205203677 ], [ 121.022054770177007, 13.4331029293129 ], [ 121.021969954830112, 13.433245810551128 ], [ 121.021911236513034, 13.433365204462524 ], [ 121.02184273180977, 13.433527006047365 ], [ 121.021809458096769, 13.433604644711059 ], [ 121.021752697056925, 13.433739696840343 ], [ 121.021713551512207, 13.433848651939813 ], [ 121.021650266214905, 13.434067214564498 ], [ 121.021633303145521, 13.434175517238224 ], [ 121.021628736165297, 13.434247936495957 ], [ 121.021636565274235, 13.434308612090273 ], [ 121.021659400175324, 13.434359501298408 ], [ 121.021695283591313, 13.434388860456949 ], [ 121.021745520373699, 13.43441104293229 ], [ 121.021784665918432, 13.434420176892724 ], [ 121.021842731809755, 13.434425396298687 ], [ 121.021906017107057, 13.434426048724433 ], [ 121.022112836068331, 13.434245979218721 ], [ 121.022335313247481, 13.434321008179435 ], [ 121.022191779583494, 13.434455407882972 ], [ 121.022187865029025, 13.434475633081078 ], [ 121.02216894468242, 13.434504339813872 ], [ 121.022105006959364, 13.434553271744772 ], [ 121.021956906315182, 13.434608075507379 ], [ 121.021814025076949, 13.43464134922039 ], [ 121.021690064185336, 13.434767919814986 ], [ 121.021573279976934, 13.434887966152125 ], [ 121.02139777745144, 13.43480054110225 ], [ 121.021307090272842, 13.434882094320416 ], [ 121.021177909975265, 13.435030847390353 ], [ 121.02110810042052, 13.435138497638333 ], [ 121.021041552994504, 13.435271592490379 ], [ 121.020956737647609, 13.435459491105034 ], [ 121.02091759210289, 13.435548873432143 ], [ 121.02088627566711, 13.435642822739471 ], [ 121.020873227152208, 13.435713937145712 ], [ 121.020873879577962, 13.435793533086644 ], [ 121.020884970815629, 13.435858775661176 ], [ 121.020909762993952, 13.435952724968503 ], [ 121.020896062053311, 13.436001656899403 ], [ 121.020859526211552, 13.436068856751172 ], [ 121.02088105626116, 13.436128227493997 ], [ 121.020887580518604, 13.436187598236822 ], [ 121.020889537795838, 13.436297205762038 ], [ 121.020944341558447, 13.436344832841447 ], [ 121.021065692747101, 13.4362606699203 ], [ 121.021103533440339, 13.4363096018512 ], [ 121.021200092450641, 13.43636962501977 ], [ 121.021289474777731, 13.436342549351339 ], [ 121.021389948342502, 13.436294269846185 ], [ 121.02148259279835, 13.436218588459726 ], [ 121.021512604382636, 13.436162479845628 ] ] ], [ [ [ 121.089815526221045, 13.409928623664653 ], [ 121.089790597321738, 13.410027825041325 ], [ 121.089767934686037, 13.410100572691524 ], [ 121.089744138918519, 13.410108288350102 ], [ 121.089701079910682, 13.410102777165434 ], [ 121.089653488375646, 13.4100983682176 ], [ 121.089577568546005, 13.410086243610651 ], [ 121.089492583662107, 13.410070812291835 ], [ 121.089406465646405, 13.410052074260506 ], [ 121.089299951258539, 13.410030029515898 ], [ 121.089241028405681, 13.410019007142838 ], [ 121.08915377725819, 13.409996411276481 ], [ 121.089118650172807, 13.409985388901875 ], [ 121.089066526110685, 13.409969957576582 ], [ 121.089031399025302, 13.409957281844344 ], [ 121.08898210779266, 13.409939094923018 ], [ 121.08892998373048, 13.409919254643633 ], [ 121.088896556342817, 13.409902169957297 ], [ 121.08886086269159, 13.409886187507686 ], [ 121.088817237117809, 13.409860284914684 ], [ 121.088781543466581, 13.409841546866938 ], [ 121.088754348303695, 13.4098255644133 ], [ 121.088730552536234, 13.409807928601154 ], [ 121.088703923939264, 13.409786434953348 ], [ 121.088685793830692, 13.409768799138332 ], [ 121.088671629683347, 13.40974675436774 ], [ 121.088651799877098, 13.409723056237098 ], [ 121.088638768861571, 13.409708176014334 ], [ 121.088480696977427, 13.409532368868266 ], [ 121.088290330837467, 13.409435371767099 ], [ 121.088136224914578, 13.409391282162723 ], [ 121.088036509317448, 13.409347192550259 ], [ 121.087927728666017, 13.409259013301057 ], [ 121.087619516820254, 13.40913556229782 ], [ 121.087275044757433, 13.409100290570967 ], [ 121.087039353346, 13.409065018838934 ], [ 121.086767401717424, 13.409047382970973 ], [ 121.086522645251705, 13.409034156069154 ], [ 121.086305083948844, 13.409012111231171 ], [ 121.086073925064568, 13.409029747101723 ], [ 121.085919819141694, 13.409095881604749 ], [ 121.085833701125992, 13.409188469878401 ], [ 121.085770245746005, 13.409360419434844 ], [ 121.085801973435977, 13.409545595742662 ], [ 121.085901689033122, 13.409704318178656 ], [ 121.086015002211724, 13.409867449461965 ], [ 121.086178173188856, 13.409990900089243 ], [ 121.086354941747445, 13.410109941705482 ], [ 121.08653624283312, 13.410198120642459 ], [ 121.086785531825996, 13.410290708491464 ], [ 121.087048418400286, 13.410383296304794 ], [ 121.087383825408878, 13.410502337726657 ], [ 121.087868805813159, 13.410696331028522 ], [ 121.088145289968864, 13.410802145490809 ], [ 121.088324324791031, 13.410901346506884 ], [ 121.088417241597455, 13.41092780010425 ], [ 121.088448969287469, 13.410883710773682 ], [ 121.088498827086028, 13.410888119707105 ], [ 121.088560016202464, 13.410967480494849 ], [ 121.08862800410958, 13.411013774275595 ], [ 121.088666530590331, 13.411053454651997 ], [ 121.088748116078875, 13.411093135021838 ], [ 121.088872760575299, 13.411154860028576 ], [ 121.089020067707438, 13.411223198410395 ], [ 121.089135647149604, 13.411293741235761 ], [ 121.089185504948148, 13.411333421565924 ], [ 121.089205901320327, 13.41139294204889 ], [ 121.089178706157469, 13.411456871440096 ], [ 121.089160576048897, 13.411551663264714 ], [ 121.089126582095318, 13.411648659511664 ], [ 121.089088055614624, 13.411763291389393 ], [ 121.089038197816066, 13.411877923212435 ], [ 121.088981541226758, 13.412007986176198 ], [ 121.088924884637464, 13.412074119859584 ], [ 121.088888624420321, 13.412151275800534 ], [ 121.088813837722469, 13.412228431716704 ], [ 121.088754914869611, 13.412296769793196 ], [ 121.088682394435324, 13.412312200969069 ], [ 121.088600808946737, 13.412294565339423 ], [ 121.088528288512464, 13.412265907438481 ], [ 121.088478430713906, 13.412239453988423 ], [ 121.088387780171018, 13.41217993371515 ], [ 121.088297129628145, 13.412113800060883 ], [ 121.088242739302444, 13.412069710947927 ], [ 121.088158887550293, 13.411990350524221 ], [ 121.088095432170306, 13.411933034646349 ], [ 121.088031976790305, 13.411871309839512 ], [ 121.087991184046018, 13.411818402849597 ], [ 121.087945858774589, 13.411761086930721 ], [ 121.087896000976002, 13.411712588834829 ], [ 121.08786653954958, 13.411655272890705 ], [ 121.087800817906029, 13.411591343552287 ], [ 121.087775889006735, 13.411540640961446 ], [ 121.087716966153835, 13.411478916053808 ], [ 121.087662575828148, 13.411419395592137 ], [ 121.087608185502447, 13.411368692965015 ], [ 121.087549262649588, 13.411306968013209 ], [ 121.087490339796744, 13.411271696605059 ], [ 121.087451813316022, 13.411256265362359 ], [ 121.087345298928156, 13.411254060899036 ], [ 121.08727731102104, 13.411267287678669 ], [ 121.087200258059596, 13.411315785864435 ], [ 121.087109607516751, 13.411368692965015 ], [ 121.087028022028136, 13.411430417900965 ], [ 121.086975897966028, 13.411461280362998 ], [ 121.086901111268148, 13.411511982970582 ], [ 121.086828590833889, 13.411536232039994 ], [ 121.086765135453874, 13.411569298948882 ], [ 121.086747005345302, 13.411578116790489 ], [ 121.086703946337465, 13.411595752472723 ], [ 121.086631425903178, 13.411606774773462 ], [ 121.086520378988183, 13.411606774773462 ], [ 121.086431994708889, 13.411595752472723 ], [ 121.086368539328888, 13.411604570313354 ], [ 121.086320947793894, 13.411637637212843 ], [ 121.086268823731729, 13.411672908567278 ], [ 121.086223498460313, 13.411688339783213 ], [ 121.086166841871048, 13.411650863971364 ], [ 121.086092055173154, 13.411613388153663 ], [ 121.086028599793167, 13.411567094488436 ], [ 121.085958345622444, 13.411509778509608 ], [ 121.085919819141751, 13.411483324976308 ], [ 121.085924351668851, 13.411448053594039 ], [ 121.085969676940309, 13.411417191130315 ], [ 121.086015002211724, 13.41136648850272 ], [ 121.086033132320324, 13.411331217103308 ], [ 121.086026333529588, 13.411302559087474 ], [ 121.085996872103181, 13.411260674288947 ], [ 121.085949280568158, 13.411218789483121 ], [ 121.085917552878144, 13.411181313598036 ], [ 121.085953813095315, 13.411130610920674 ], [ 121.086084123250657, 13.411031409999245 ], [ 121.086116984072461, 13.411006058646091 ], [ 121.086200835824613, 13.410944333601131 ], [ 121.086250693623157, 13.410913471072709 ], [ 121.086294885762825, 13.410881506306946 ], [ 121.08630621708069, 13.410877097373401 ], [ 121.086311882739608, 13.410835212500713 ], [ 121.086308483344268, 13.410745931563524 ], [ 121.086235962909967, 13.410670979640017 ], [ 121.086204235219952, 13.410622481324113 ], [ 121.086109052149979, 13.410551938301694 ], [ 121.085954946227105, 13.410481395258564 ], [ 121.085705657234229, 13.410375580655044 ], [ 121.085551551311411, 13.410309446504185 ], [ 121.085383847807108, 13.410216858662398 ], [ 121.085220676829977, 13.41011986183751 ], [ 121.085075635961388, 13.410018456024169 ], [ 121.084894334875671, 13.409890596459411 ], [ 121.084762891588525, 13.409798008456253 ], [ 121.084667708518552, 13.409731874146448 ], [ 121.084595188084265, 13.409687784596466 ], [ 121.084463744797119, 13.409608423386114 ], [ 121.084250716021415, 13.409520244232761 ], [ 121.084024089664268, 13.409445291926975 ], [ 121.083838256051408, 13.409361521675194 ], [ 121.083575369477089, 13.409260115541874 ], [ 121.083380470809985, 13.409171936260725 ], [ 121.083076791491365, 13.409066121080631 ], [ 121.082958945785663, 13.408991168633218 ], [ 121.082827502498517, 13.408925034101379 ], [ 121.082718721847101, 13.408819218812591 ], [ 121.082709656792815, 13.408764106664558 ], [ 121.082643935149193, 13.408702381043764 ], [ 121.082505693071369, 13.408603179119984 ], [ 121.082383314838509, 13.408521613063087 ], [ 121.082308528140658, 13.408457682891038 ], [ 121.082229208915663, 13.408431229021764 ], [ 121.082170286062805, 13.408380525764192 ], [ 121.082100031892068, 13.408327618005753 ], [ 121.082050174093496, 13.408257074309718 ], [ 121.082045641566367, 13.408166690168917 ], [ 121.082072836729225, 13.408098350917943 ], [ 121.082156688481362, 13.408060874546248 ], [ 121.082301729349922, 13.408063079038863 ], [ 121.082530621970648, 13.408071897009119 ], [ 121.082648467676378, 13.408127009315875 ], [ 121.082834301289225, 13.408212984489186 ], [ 121.083022401165664, 13.408314391064328 ], [ 121.083230897414211, 13.408431229021764 ], [ 121.08337140575567, 13.408510590620843 ], [ 121.083532310469252, 13.408589952193717 ], [ 121.083681883864969, 13.408669313740385 ], [ 121.083817859679272, 13.408739857315423 ], [ 121.083890380113516, 13.408786151525288 ], [ 121.083969699338525, 13.408830241240683 ], [ 121.084067148672105, 13.408869921977621 ], [ 121.084130604052135, 13.40887873991827 ], [ 121.0842008582228, 13.408847877124574 ], [ 121.084273378657116, 13.408766311150725 ], [ 121.084311905137824, 13.408711198990563 ], [ 121.084289242502095, 13.408667109253335 ], [ 121.084225787122108, 13.408614201557981 ], [ 121.084141935369971, 13.408565702827008 ], [ 121.08403542098209, 13.408503977155256 ], [ 121.08395383549356, 13.4084642963579 ], [ 121.083913042749245, 13.408429024532531 ], [ 121.083842788578536, 13.408371707805264 ], [ 121.083768001880685, 13.408314391064328 ], [ 121.083693215182834, 13.408257074309725 ], [ 121.083625227275647, 13.408201962032786 ], [ 121.083539109259959, 13.408140236267622 ], [ 121.083455257507836, 13.408093941933339 ], [ 121.083391802127821, 13.408067488024036 ], [ 121.08333741180212, 13.40803221614043 ], [ 121.083280755212826, 13.40799694425165 ], [ 121.083190104669953, 13.407919786976898 ], [ 121.08312664928998, 13.407858061139262 ], [ 121.083076791491408, 13.407805153265818 ], [ 121.08303146621995, 13.407778699324723 ], [ 121.082940815677134, 13.407747836389776 ], [ 121.082845632607089, 13.407723586938102 ], [ 121.082743650746409, 13.407683906011908 ], [ 121.082560083397141, 13.407597930649345 ], [ 121.082433172637124, 13.407492114776289 ], [ 121.082410510001395, 13.407448024815432 ], [ 121.082387847365666, 13.407284891889946 ], [ 121.082455835272853, 13.407121758853735 ], [ 121.082546485815698, 13.407033578788074 ], [ 121.082736851955715, 13.407033578788074 ], [ 121.083049596328578, 13.407029169783938 ], [ 121.083221832359982, 13.407077668824947 ], [ 121.083439393662857, 13.40717025787607 ], [ 121.083530044205702, 13.407196711884124 ], [ 121.083593499585703, 13.407130576858524 ], [ 121.083638824857147, 13.407042396796093 ], [ 121.083647889911433, 13.406918944654343 ], [ 121.08363429232999, 13.406786674432109 ], [ 121.083666020020004, 13.406707312263832 ], [ 121.083688682655676, 13.406535360809347 ], [ 121.083702280237119, 13.406407499391655 ], [ 121.083715877818562, 13.406301682994551 ], [ 121.083729475399991, 13.406182639492126 ], [ 121.083756670562821, 13.40614736733194 ], [ 121.083865451214265, 13.406151776352246 ], [ 121.083865451214265, 13.406248774778527 ], [ 121.083842788578565, 13.406394272344562 ], [ 121.083811060888564, 13.406522133769288 ], [ 121.083806528361407, 13.406680858201918 ], [ 121.083770268144264, 13.406848400544877 ], [ 121.083770268144264, 13.407024760779729 ], [ 121.083774800671421, 13.407201120885185 ], [ 121.083811060888564, 13.407306936886346 ], [ 121.083956101757138, 13.407439206822291 ], [ 121.084092077571412, 13.407562658696834 ], [ 121.08428244371143, 13.407686110507981 ], [ 121.084513602595706, 13.407818380235266 ], [ 121.084672241045709, 13.407906560013025 ], [ 121.084703968735681, 13.407926400458557 ], [ 121.084817281914283, 13.407941831915064 ], [ 121.085077902224995, 13.407935218433826 ], [ 121.085143623868547, 13.407910969001065 ], [ 121.08525467078357, 13.407875697094488 ], [ 121.085333990008579, 13.407884515071615 ], [ 121.085424640551395, 13.40790876450705 ], [ 121.085531154939275, 13.407928604952408 ], [ 121.085667130753563, 13.40794403640877 ], [ 121.08579630777713, 13.407966081344718 ], [ 121.085932283591461, 13.407963876851214 ], [ 121.086041064242877, 13.407955058877 ], [ 121.086138513576444, 13.407933013940038 ], [ 121.08630168455359, 13.407910969001065 ], [ 121.086448991685728, 13.407866879117035 ], [ 121.08660989639931, 13.407840425182737 ], [ 121.086768534849313, 13.407798539780812 ], [ 121.086859185392157, 13.40778310831511 ], [ 121.086956634725738, 13.407758858866995 ], [ 121.087045019005032, 13.407752245380719 ], [ 121.087108474385033, 13.40774342739874 ], [ 121.087149267129291, 13.4076464295756 ], [ 121.087214988772899, 13.407531795734144 ], [ 121.087420025135671, 13.407174450761515 ], [ 121.08717075971289, 13.406907114787415 ], [ 121.087161731578945, 13.406905717635397 ], [ 121.087012158183228, 13.406839582529733 ], [ 121.086878448632518, 13.406804310465944 ], [ 121.086744739081794, 13.406755811369779 ], [ 121.086651822275357, 13.4067227437986 ], [ 121.086597431949656, 13.406676449191311 ], [ 121.086468254926089, 13.40659488248059 ], [ 121.086352675483937, 13.406478043630516 ], [ 121.086271089995364, 13.406372227264466 ], [ 121.086237096041813, 13.406310501029424 ], [ 121.086207634615377, 13.406213502628052 ], [ 121.086196303297513, 13.40612311771881 ], [ 121.086187238243255, 13.405964392917911 ], [ 121.086196303297513, 13.405887234990733 ], [ 121.086202093643365, 13.405868225059393 ], [ 121.084471085650122, 13.404011727263246 ], [ 121.084283576843418, 13.404206288287767 ], [ 121.083857519292025, 13.404347378036642 ], [ 121.08343146174056, 13.404320923715035 ], [ 121.083050729460538, 13.404241560732746 ], [ 121.082706257397717, 13.404109289037384 ], [ 121.082289264900552, 13.403959381027997 ], [ 121.082111363210331, 13.403918597215172 ], [ 121.082035443380605, 13.403884426989352 ], [ 121.081777089333585, 13.403794041203389 ], [ 121.080929506757684, 13.403553747122212 ], [ 121.080666620183393, 13.403377384341026 ], [ 121.080476254043418, 13.403077567316124 ], [ 121.080421863717675, 13.402786568081495 ], [ 121.080566904586235, 13.402557295709199 ], [ 121.080847921269125, 13.402425023087277 ], [ 121.081174263223403, 13.402363295838816 ], [ 121.081536865394824, 13.402336841298913 ], [ 121.082053573489119, 13.402336841298913 ], [ 121.08237085038914, 13.402389750375812 ], [ 121.082579346637687, 13.402442659441073 ], [ 121.083069654790435, 13.402508699366988 ], [ 121.083064104441348, 13.40250274664413 ], [ 121.080733169441174, 13.399981346643001 ], [ 121.080641190100835, 13.399881574866457 ], [ 121.080537443159642, 13.400007728107207 ], [ 121.080211101205364, 13.400307548959576 ], [ 121.079830368925343, 13.400625005925271 ], [ 121.079630937731068, 13.400907189542979 ], [ 121.079377116211063, 13.401401010077221 ], [ 121.079250205451046, 13.401753738409402 ], [ 121.079050774256785, 13.401965375160364 ], [ 121.078905733388225, 13.402097648035129 ], [ 121.078597521542491, 13.402132920789443 ], [ 121.078262114533914, 13.402071193465998 ], [ 121.078008293013923, 13.402000647934081 ], [ 121.077718211276803, 13.401912465990089 ], [ 121.077319348888224, 13.401736102005085 ], [ 121.077029267151076, 13.401630283551995 ], [ 121.076847966065372, 13.401612647138617 ], [ 121.076684795088227, 13.401471555785049 ], [ 121.076632671026189, 13.401358021276366 ], [ 121.076449103676794, 13.401348100782775 ], [ 121.076224743583339, 13.401380066816225 ], [ 121.076025312389049, 13.401384475923958 ], [ 121.075857608884775, 13.401380066816225 ], [ 121.075789620977645, 13.401437385210405 ], [ 121.075662710217628, 13.401521158223474 ], [ 121.075644580109056, 13.401662249547938 ], [ 121.075807751086217, 13.401754840684632 ], [ 121.075850810093939, 13.401877193203436 ], [ 121.075995850962514, 13.402035920702627 ], [ 121.076122761722502, 13.402247557205236 ], [ 121.076322192916763, 13.402406284459953 ], [ 121.076503494002495, 13.402494466222857 ], [ 121.076739185413956, 13.402529738918959 ], [ 121.076847966065372, 13.402706102321883 ], [ 121.077083657476805, 13.403076465046958 ], [ 121.077391869322497, 13.403446827201554 ], [ 121.077609430625387, 13.40369373498768 ], [ 121.077935772579636, 13.403975915004205 ], [ 121.078098943556796, 13.404363911986168 ], [ 121.078044553231081, 13.404575546439681 ], [ 121.077881382253935, 13.404804816887429 ], [ 121.077643424579023, 13.404964644714452 ], [ 121.077380538004732, 13.405211550941821 ], [ 121.077264958562509, 13.405386810118976 ], [ 121.077224165818208, 13.405532308206716 ], [ 121.077142580329649, 13.405629306882952 ], [ 121.077090456267612, 13.405667885891033 ], [ 121.077040598469026, 13.4057119761784 ], [ 121.076945415399024, 13.405764884512564 ], [ 121.076854764856179, 13.405784725134875 ], [ 121.076757315522599, 13.405806770268855 ], [ 121.07656921564616, 13.405751657430116 ], [ 121.076505760266173, 13.405707567150026 ], [ 121.076396979614728, 13.405700953607317 ], [ 121.076317660389734, 13.405718589720806 ], [ 121.076206613474739, 13.405850860530748 ], [ 121.076100099086872, 13.405865189865001 ], [ 121.076068371396886, 13.405877314684004 ], [ 121.076025312389021, 13.405846451504924 ], [ 121.076016247334735, 13.405780316107839 ], [ 121.075986785908299, 13.405705362635809 ], [ 121.075950525691155, 13.405632613655317 ], [ 121.075866673939018, 13.405586318838086 ], [ 121.075687639116879, 13.405542228527674 ], [ 121.075574325938305, 13.405482706595789 ], [ 121.075440616387581, 13.405354844618204 ], [ 121.075388492325445, 13.40529311812193 ], [ 121.07530010804615, 13.405215959979296 ], [ 121.07511427443329, 13.405154233447359 ], [ 121.074849121595449, 13.405015348692553 ], [ 121.074636092819745, 13.404843396027822 ], [ 121.074495584478314, 13.404600898471102 ], [ 121.074314283392596, 13.404384854987267 ], [ 121.074185106369001, 13.404208492815727 ], [ 121.074117118461871, 13.404096061863841 ], [ 121.074108053407571, 13.403972608209056 ], [ 121.074148846151886, 13.403818291051426 ], [ 121.074194171423315, 13.403734518838665 ], [ 121.074357342400447, 13.403624292198458 ], [ 121.074742607207597, 13.403655155662808 ], [ 121.074987363673301, 13.403699246319295 ], [ 121.075136937069018, 13.403760973224795 ], [ 121.075136937069018, 13.403849154490876 ], [ 121.075098410588311, 13.403924108541615 ], [ 121.075028156417602, 13.403985835389387 ], [ 121.075034955208309, 13.404100470921767 ], [ 121.075012292572609, 13.404184243007023 ], [ 121.074917109502579, 13.404245969788002 ], [ 121.074978298619016, 13.404281242227166 ], [ 121.07501002630903, 13.404342968983242 ], [ 121.075112008169739, 13.404398082144922 ], [ 121.075311439364015, 13.404605307519773 ], [ 121.075680840326143, 13.404969053756455 ], [ 121.076242873691882, 13.405198323828927 ], [ 121.076551085537602, 13.405374685274353 ], [ 121.076750516731892, 13.40547168401419 ], [ 121.076872894964723, 13.405447434332903 ], [ 121.076936350344738, 13.405352640100752 ], [ 121.076881960019008, 13.405141006331306 ], [ 121.076841167274665, 13.404809225932357 ], [ 121.076766380576785, 13.404694590737918 ], [ 121.07673012035967, 13.404657113835571 ], [ 121.076662132452526, 13.404551296667998 ], [ 121.076625872235383, 13.40442343419504 ], [ 121.076548819273953, 13.404282344490801 ], [ 121.076449103676794, 13.404070709779187 ], [ 121.076326725443934, 13.403938437989826 ], [ 121.076231542373947, 13.403828211443106 ], [ 121.076100099086773, 13.403673894192801 ], [ 121.075959590745384, 13.403585712862444 ], [ 121.075918798001084, 13.403523985911953 ], [ 121.075855342621054, 13.403449031736473 ], [ 121.075746561969652, 13.403334395893493 ], [ 121.075624183736778, 13.40322857814377 ], [ 121.075433817596803, 13.403100714967387 ], [ 121.075220788821042, 13.402968442644402 ], [ 121.07505308531681, 13.402893488295748 ], [ 121.074908044448193, 13.402858215652996 ], [ 121.074749405998233, 13.402867033814168 ], [ 121.074654222928189, 13.402814124842291 ], [ 121.074450259206799, 13.402725943196614 ], [ 121.074250828012509, 13.402646579687858 ], [ 121.07420550274108, 13.402633352433853 ], [ 121.074214567795366, 13.402355579931637 ], [ 121.074114852198235, 13.402311489028762 ], [ 121.073960746275361, 13.402227716291026 ], [ 121.073838368042502, 13.402174807178472 ], [ 121.073688794646785, 13.402104261676955 ], [ 121.073557351359653, 13.402046943441734 ], [ 121.073251405777583, 13.401997341111761 ], [ 121.073083702273294, 13.401935613753508 ], [ 121.073063305901087, 13.401711851947027 ], [ 121.073138092599009, 13.401649022239782 ], [ 121.073119962490438, 13.401499112696545 ], [ 121.073208346769661, 13.401306214249736 ], [ 121.073536954987588, 13.401119929317099 ], [ 121.073806640352529, 13.400830029992896 ], [ 121.073933551112518, 13.400618392242757 ], [ 121.074006071546791, 13.400442027308699 ], [ 121.074042331763962, 13.400195116183735 ], [ 121.073861030678259, 13.400001114407717 ], [ 121.073643469375398, 13.399930568268543 ], [ 121.073262737095405, 13.400001114407717 ], [ 121.072990785466828, 13.40015984314519 ], [ 121.072945460195356, 13.400133388362889 ], [ 121.072895602396741, 13.40015543401501 ], [ 121.072804951853925, 13.400208343571862 ], [ 121.072650845931022, 13.400353844793171 ], [ 121.072623650768193, 13.400472891181495 ], [ 121.072619118241064, 13.400552255407643 ], [ 121.072678041093937, 13.400666892576949 ], [ 121.072714301311066, 13.400821211757027 ], [ 121.072673508566751, 13.401090167805618 ], [ 121.072650845931022, 13.401279759593541 ], [ 121.072646313403979, 13.401359123553405 ], [ 121.072587390551092, 13.401566351547352 ], [ 121.072528467698248, 13.401694215539633 ], [ 121.071993629495395, 13.401297396031326 ], [ 121.071821393463978, 13.401178350051147 ], [ 121.071798730828249, 13.401151895380885 ], [ 121.071721677866819, 13.401028440214505 ], [ 121.071689950176832, 13.400949076145503 ], [ 121.071735275448233, 13.400658074335094 ], [ 121.071948304223937, 13.400613983120978 ], [ 121.072048019821096, 13.400622801364445 ], [ 121.072097877619683, 13.400516982421475 ], [ 121.072138670363969, 13.400389117803259 ], [ 121.072113741464676, 13.400234798345915 ], [ 121.072086546301819, 13.400151024884746 ], [ 121.072036688503232, 13.400071660526194 ], [ 121.071966434332538, 13.400014341806509 ], [ 121.071902978952537, 13.399970250474372 ], [ 121.071823659727528, 13.399941591104156 ], [ 121.071753405556805, 13.399886476921054 ], [ 121.071660488750396, 13.399822544452839 ], [ 121.071578903261809, 13.39976522567378 ], [ 121.071507515959297, 13.399711213734861 ], [ 121.071378338935759, 13.39967704291009 ], [ 121.071326214873594, 13.399660508638302 ], [ 121.071177774609666, 13.399641769795565 ], [ 121.071050863849649, 13.399650588074682 ], [ 121.071059928903935, 13.399901908893595 ], [ 121.071096189121079, 13.400060637696546 ], [ 121.071059928903935, 13.400206139007221 ], [ 121.070982875942505, 13.400263457681193 ], [ 121.070923953089661, 13.400417777120149 ], [ 121.070910355508218, 13.400602960316187 ], [ 121.070960213306776, 13.400726415700991 ], [ 121.071019136159649, 13.400823416316028 ], [ 121.071068993958221, 13.400938053356072 ], [ 121.071037266268206, 13.401096781475147 ], [ 121.070946615725333, 13.401330464348693 ], [ 121.070846900128174, 13.401524465052329 ], [ 121.070692794205328, 13.401647919964063 ], [ 121.07046616784821, 13.401789011214158 ], [ 121.070293931816764, 13.401833102212837 ], [ 121.070221411382491, 13.4018419204116 ], [ 121.070162488529647, 13.401771374812423 ], [ 121.070089968095346, 13.401696420090623 ], [ 121.069994785025344, 13.401639101758185 ], [ 121.069895069428213, 13.401612647138608 ], [ 121.069836146575341, 13.401612647138608 ], [ 121.069763626141068, 13.401524465052329 ], [ 121.069672975598209, 13.401440692040417 ], [ 121.069686573179624, 13.401401010077215 ], [ 121.069604987691065, 13.401392191862282 ], [ 121.06955059736535, 13.401409828291824 ], [ 121.06955059736535, 13.401511237736594 ], [ 121.069591390109622, 13.401612647138608 ], [ 121.069636715381023, 13.401740511106276 ], [ 121.069691105706781, 13.401850738610042 ], [ 121.06971376834251, 13.401952147868883 ], [ 121.069799886358211, 13.40204032979832 ], [ 121.069922264591057, 13.402159375351777 ], [ 121.070035577769644, 13.40229605721084 ], [ 121.07015795600249, 13.402432738992212 ], [ 121.070248606545306, 13.402569420695885 ], [ 121.070375517305337, 13.402719329571879 ], [ 121.070516025646754, 13.402842783870165 ], [ 121.070661066515342, 13.40293537455228 ], [ 121.070828770019659, 13.403045601508321 ], [ 121.070951148252519, 13.403085283200122 ], [ 121.071118851756808, 13.403120555809558 ], [ 121.071386270858227, 13.403147010263242 ], [ 121.071481453928229, 13.40317346471401 ], [ 121.071495051509672, 13.403323373213407 ], [ 121.071508649091086, 13.403460054410811 ], [ 121.0714769214011, 13.40356587205866 ], [ 121.071427063602485, 13.403632008064918 ], [ 121.071363608222526, 13.403636417131358 ], [ 121.071186839663952, 13.40366287152828 ], [ 121.071096189121079, 13.40366287152828 ], [ 121.070910355508232, 13.403667280594147 ], [ 121.070681462887521, 13.403676098725649 ], [ 121.070588546081069, 13.403671689659939 ], [ 121.07041857631323, 13.403669485127056 ], [ 121.070248606545348, 13.403667280594153 ], [ 121.070148890948204, 13.403647439797096 ], [ 121.070017447661044, 13.40364082619771 ], [ 121.069908667009628, 13.40361878086512 ], [ 121.069799886358169, 13.403605553664597 ], [ 121.069702437024588, 13.403632008064918 ], [ 121.069620851536058, 13.403678303258479 ], [ 121.069487141985306, 13.403733416572518 ], [ 121.069403290233183, 13.403773098150802 ], [ 121.069228787938201, 13.403781916278421 ], [ 121.06906335069749, 13.403775302682737 ], [ 121.068920576092452, 13.403779711746546 ], [ 121.068841256867472, 13.403777507214649 ], [ 121.068782334014614, 13.403792938937489 ], [ 121.068752872588206, 13.403803961596054 ], [ 121.068712079843905, 13.403830415974541 ], [ 121.06874380753392, 13.40384805222525 ], [ 121.068780067751035, 13.403876711129893 ], [ 121.069089412728403, 13.403952216304615 ], [ 121.069319438481074, 13.404026619190825 ], [ 121.069560795551268, 13.404040397500552 ], [ 121.069743229768918, 13.404035437309146 ], [ 121.070086568699821, 13.40412857866415 ], [ 121.070359653460372, 13.404227231302594 ], [ 121.070840101337524, 13.404324230505393 ], [ 121.07130128597413, 13.404393121960879 ], [ 121.071846322363257, 13.404469729236213 ], [ 121.07222705464325, 13.404460911133823 ], [ 121.072670109171241, 13.404476893944164 ], [ 121.07293299574556, 13.404565074947664 ], [ 121.073250272645538, 13.404662074014157 ], [ 121.073540354382672, 13.404732618765207 ], [ 121.07388482644555, 13.404794345405401 ], [ 121.074183973236956, 13.404908980552275 ], [ 121.074464989919846, 13.405032433726239 ], [ 121.074764136711266, 13.405332248313369 ], [ 121.074900112525569, 13.405517427724508 ], [ 121.075008893176985, 13.405799605600533 ], [ 121.075226454479861, 13.406028874880908 ], [ 121.07557092654271, 13.406187599639232 ], [ 121.075657044558454, 13.406280189033188 ], [ 121.075806617954115, 13.406483003771521 ], [ 121.076006049148432, 13.406677000317634 ], [ 121.076191882761293, 13.406809270600222 ], [ 121.076409444064154, 13.406954767827001 ], [ 121.076563549987, 13.407042947921578 ], [ 121.076835501615591, 13.407206081011271 ], [ 121.076971477429865, 13.407263398016498 ], [ 121.076998672592694, 13.407281034015359 ], [ 121.077043997864109, 13.407232535015382 ], [ 121.077075725554124, 13.407166399999642 ], [ 121.077089323135567, 13.40710026496571 ], [ 121.07708479060841, 13.407012084892155 ], [ 121.077161843569854, 13.406950358821419 ], [ 121.077302351911271, 13.406875405714217 ], [ 121.077429262671288, 13.406822497624473 ], [ 121.077646823974135, 13.406756362495921 ], [ 121.077791864842709, 13.406716681410053 ], [ 121.077936905711297, 13.406707863390086 ], [ 121.07813180437843, 13.406707863390086 ], [ 121.078376560844148, 13.406716681410053 ], [ 121.078476276441293, 13.40672109041992 ], [ 121.078603187201281, 13.406826906632398 ], [ 121.078508004131294, 13.406848951670804 ], [ 121.078349365681305, 13.406870996707186 ], [ 121.078245117556975, 13.406941540810022 ], [ 121.078154467014159, 13.407003266883022 ], [ 121.078054751417, 13.406937131804204 ], [ 121.077850787695581, 13.406937131804204 ], [ 121.077628693865563, 13.406967994843248 ], [ 121.077460990361303, 13.407012084892155 ], [ 121.07737033981843, 13.407109082971285 ], [ 121.077288754329828, 13.407223717014334 ], [ 121.077293286857014, 13.407391258978913 ], [ 121.077356742236958, 13.407505892887393 ], [ 121.077429262671288, 13.407549982837637 ], [ 121.077565238485562, 13.407567618815467 ], [ 121.077751072098422, 13.407611708754388 ], [ 121.077864385276996, 13.407691070624058 ], [ 121.078023023726985, 13.407761614486217 ], [ 121.078177129649887, 13.40786743024063 ], [ 121.078331235572733, 13.407973245948456 ], [ 121.078503471604137, 13.408070243639711 ], [ 121.078671175108425, 13.408127560438869 ], [ 121.078861541248443, 13.408206922138216 ], [ 121.079038309807032, 13.408303919735166 ], [ 121.079138025404134, 13.408374463417449 ], [ 121.079264936164151, 13.408392099334787 ], [ 121.07936465176131, 13.408440598100789 ], [ 121.079550485374142, 13.408489096857002 ], [ 121.079709123824173, 13.408533186626888 ], [ 121.079826969529876, 13.408568458436976 ], [ 121.079931217654163, 13.408568458436976 ], [ 121.080162376538468, 13.408564049460997 ], [ 121.080429795639859, 13.408564049460997 ], [ 121.080547641345589, 13.408634593066934 ], [ 121.080660954524134, 13.40874040843701 ], [ 121.080734608090253, 13.408826383390894 ], [ 121.080832057423819, 13.408966368185901 ], [ 121.080939704943447, 13.40907769461821 ], [ 121.081023556695612, 13.409180203069692 ], [ 121.081075680757735, 13.409232008399508 ], [ 121.081166331300594, 13.409309165252996 ], [ 121.081268313161303, 13.409397344483791 ], [ 121.081363496231276, 13.409450252006742 ], [ 121.08149493951845, 13.409534022227593 ], [ 121.081585590061323, 13.409582520763161 ], [ 121.081676240604182, 13.409633223767147 ], [ 121.081809950154891, 13.409703767059254 ], [ 121.081964056077737, 13.409776514807556 ], [ 121.082043375302746, 13.409822808817729 ], [ 121.082192948698463, 13.409904374433012 ], [ 121.082371983520645, 13.410030029515891 ], [ 121.082521556916319, 13.410162297953208 ], [ 121.082625805040649, 13.410254885816011 ], [ 121.082757248327766, 13.410321019981888 ], [ 121.082943081940613, 13.410426834609433 ], [ 121.083147045662045, 13.410519422370317 ], [ 121.083292086530648, 13.410312202094156 ], [ 121.083360074437778, 13.410241658980649 ], [ 121.083650156174926, 13.410356291529585 ], [ 121.08357763574061, 13.410532649190387 ], [ 121.083514180360652, 13.410722233531402 ], [ 121.083568570686325, 13.410755300552312 ], [ 121.083670552547034, 13.410814821178475 ], [ 121.083790664516314, 13.410865523922464 ], [ 121.083890380113473, 13.410947089183828 ], [ 121.084008225819204, 13.411057312466012 ], [ 121.084135136579192, 13.41118958033789 ], [ 121.084200858222744, 13.411249100856482 ], [ 121.084289242502038, 13.411308621360334 ], [ 121.084413886998448, 13.411407822167321 ], [ 121.084509070068449, 13.411478364938485 ], [ 121.084658643464167, 13.411559929991824 ], [ 121.084744761479882, 13.411610632578599 ], [ 121.084887536084921, 13.411678970830797 ], [ 121.084998582999916, 13.411727468933469 ], [ 121.085109629914911, 13.411798011610795 ], [ 121.085309061109214, 13.411921461246271 ], [ 121.085499427249189, 13.412040501906134 ], [ 121.085744183714908, 13.412137497955747 ], [ 121.086025200397742, 13.412243311783397 ], [ 121.086342477297791, 13.412375579002429 ], [ 121.086555506073495, 13.4124549392989 ], [ 121.086945303407774, 13.412635704320788 ], [ 121.087171929764921, 13.412754744626788 ], [ 121.087394023594911, 13.412909056046779 ], [ 121.087593454789214, 13.413103047405587 ], [ 121.087874471472063, 13.413354354160242 ], [ 121.088155488154925, 13.413596842884848 ], [ 121.088318659132028, 13.41372029159608 ], [ 121.088499960217788, 13.41380846920813 ], [ 121.088676728776349, 13.413879011274458 ], [ 121.088824035908516, 13.413938531126822 ], [ 121.088978141831362, 13.413964984389803 ], [ 121.089163975444208, 13.413958371074331 ], [ 121.089338477739233, 13.413958371074331 ], [ 121.089429128282077, 13.413914282299862 ], [ 121.089542441460679, 13.413856966880958 ], [ 121.089635358267103, 13.413762175965841 ], [ 121.089723742546383, 13.413685020542198 ], [ 121.089796262980627, 13.413603456210272 ], [ 121.089859718360671, 13.413486620767642 ], [ 121.089959433957816, 13.413341127495503 ], [ 121.090056883291368, 13.413186816353017 ], [ 121.090179261524199, 13.412988416167041 ], [ 121.090256314485686, 13.412922282735313 ], [ 121.09031523733853, 13.41283851369565 ], [ 121.09041495293566, 13.412794424715678 ], [ 121.090510136005634, 13.412767971323813 ], [ 121.090641579292807, 13.412776789121427 ], [ 121.090754892471352, 13.412834104798018 ], [ 121.090859140595697, 13.412944327214575 ], [ 121.090976986301399, 13.413129500760565 ], [ 121.091094832007101, 13.413336718607091 ], [ 121.091180950022803, 13.413605660652035 ], [ 121.09123987287569, 13.413870193517303 ], [ 121.091312393309977, 13.414073001850076 ], [ 121.091448369124265, 13.414289036624938 ], [ 121.091584344938568, 13.414434529323017 ], [ 121.091711255698556, 13.414540342139004 ], [ 121.091779243605686, 13.414659381501277 ], [ 121.091851764039987, 13.414716696728746 ], [ 121.092005869962861, 13.414681425821152 ], [ 121.092073857869991, 13.414557977603804 ], [ 121.092105585559992, 13.41448302686946 ], [ 121.092205301157094, 13.414412484980486 ], [ 121.092332211917139, 13.41427140114039 ], [ 121.092382069715669, 13.414112681721251 ], [ 121.092382069715669, 13.413879011274458 ], [ 121.092359407079996, 13.413618887302219 ], [ 121.092305016754253, 13.413411669699059 ], [ 121.092178105994279, 13.413072185154435 ], [ 121.092116916877856, 13.412939918318887 ], [ 121.092069325342862, 13.412823082553585 ], [ 121.092035331389269, 13.412701837831403 ], [ 121.092017201280726, 13.412664362177626 ], [ 121.09201266875354, 13.412527686214311 ], [ 121.092010402490018, 13.412391010173247 ], [ 121.09200813622644, 13.412289605318341 ], [ 121.092023464345672, 13.412110684490806 ], [ 121.090140888441539, 13.410092563647598 ], [ 121.089826249469965, 13.409755114854995 ], [ 121.089835922593167, 13.40983603567615 ], [ 121.089815526221045, 13.409928623664653 ] ], [ [ 121.078268913324877, 13.403033476545643 ], [ 121.078374294580939, 13.402943090440871 ], [ 121.078480808968806, 13.402906715535458 ], [ 121.078607719728794, 13.402906715535458 ], [ 121.078722166039157, 13.402919942774425 ], [ 121.078885337016303, 13.402970647183729 ], [ 121.079038309807359, 13.403061033278146 ], [ 121.079142557931647, 13.403258339390606 ], [ 121.079201480784491, 13.403414861442862 ], [ 121.079240007265227, 13.403591224196557 ], [ 121.079249072319513, 13.403756564160659 ], [ 121.079215078365934, 13.403842540897058 ], [ 121.079166353699165, 13.403915290419222 ], [ 121.079062105574877, 13.403946153846222 ], [ 121.078953324923461, 13.403941744785463 ], [ 121.078794686473458, 13.403871199802351 ], [ 121.078645113077741, 13.403778609480613 ], [ 121.078500072209152, 13.40365515566282 ], [ 121.07838222650345, 13.40354492898623 ], [ 121.078246250689162, 13.403328884553527 ], [ 121.078214522999147, 13.403174566982745 ], [ 121.078268913324877, 13.403033476545643 ] ], [ [ 121.079634337126734, 13.404815839499626 ], [ 121.079679662398178, 13.404617432403217 ], [ 121.079724987669579, 13.404507206167793 ], [ 121.079820170739609, 13.404457604345362 ], [ 121.079948214631386, 13.404415718354009 ], [ 121.080071725996035, 13.404417922880048 ], [ 121.080202036151391, 13.404431150035879 ], [ 121.080334612570326, 13.404470831499008 ], [ 121.08071307858674, 13.404556807979983 ], [ 121.081361229968181, 13.404845600549958 ], [ 121.081603720170321, 13.404953622109122 ], [ 121.081782754992489, 13.40502857581553 ], [ 121.081819015209604, 13.405063848139871 ], [ 121.081637714123872, 13.405630409140427 ], [ 121.081467744356004, 13.405819997348289 ], [ 121.081055284386011, 13.406366715994132 ], [ 121.080842255610278, 13.406622438804886 ], [ 121.080289287298868, 13.406613620781455 ], [ 121.080226965050571, 13.406457100811764 ], [ 121.080044530833192, 13.405746146145569 ], [ 121.079922152600318, 13.405463968206798 ], [ 121.079822437003187, 13.405278788754478 ], [ 121.079745384041757, 13.405133290513303 ], [ 121.079634337126734, 13.404815839499626 ] ] ], [ [ [ 121.087322636292456, 13.407748387513642 ], [ 121.087440481998158, 13.407743978522621 ], [ 121.087626315611018, 13.407805704389554 ], [ 121.087771356479578, 13.40787183922939 ], [ 121.087997982836725, 13.408034971756519 ], [ 121.088174751395314, 13.408206922138223 ], [ 121.088319792263874, 13.408400917292976 ], [ 121.088446703023891, 13.408594912291148 ], [ 121.088596276419608, 13.408837405818666 ], [ 121.088705057071053, 13.408996128722372 ], [ 121.088818370249598, 13.409119579797231 ], [ 121.088927150901043, 13.409203350133339 ], [ 121.089058594188188, 13.409287120440251 ], [ 121.089235362746763, 13.409353254872446 ], [ 121.089407598778195, 13.409410571365635 ], [ 121.089565170045617, 13.409475108420699 ], [ 121.087497173959477, 13.407257192506171 ], [ 121.087426884416715, 13.407391258978919 ], [ 121.087347565191706, 13.407501483891931 ], [ 121.087231985749582, 13.40773956953152 ], [ 121.087322636292456, 13.407748387513642 ] ] ], [ [ [ 121.049211488008211, 13.411734607920518 ], [ 121.049334489170306, 13.411354422510415 ], [ 121.049558127646847, 13.41100778287179 ], [ 121.05007249614286, 13.410683507080819 ], [ 121.05062041041036, 13.410247412051582 ], [ 121.051090051211077, 13.409665952012601 ], [ 121.051548510087969, 13.409252220831014 ], [ 121.051951059345726, 13.408793761954124 ], [ 121.052387154374969, 13.408178756143663 ], [ 121.05280088555655, 13.407776206885906 ], [ 121.052990978261604, 13.407396021475801 ], [ 121.053102797499875, 13.407161201075443 ], [ 121.053225798661956, 13.40700465414187 ], [ 121.053315254052578, 13.406937562598911 ], [ 121.053617165995888, 13.406859289132125 ], [ 121.054176262187227, 13.406691560274727 ], [ 121.054478174130537, 13.406400830255235 ], [ 121.054220989882538, 13.405830552140079 ], [ 121.053963805634524, 13.405864097911559 ], [ 121.053717803310334, 13.405864097911559 ], [ 121.053382345595537, 13.406043008692786 ], [ 121.053002160185443, 13.406166009854877 ], [ 121.052633156699159, 13.405998280997478 ], [ 121.052308880908186, 13.406009462921304 ], [ 121.052074060507834, 13.406434376026715 ], [ 121.05177214856451, 13.406669196427075 ], [ 121.051682693173902, 13.406814561436819 ], [ 121.051268961992321, 13.407217110694576 ], [ 121.051246598144672, 13.40769793341912 ], [ 121.051760966640686, 13.407932753819479 ], [ 121.051850422031308, 13.408268211534276 ], [ 121.051727420869213, 13.408715488487339 ], [ 121.05151496431651, 13.408670760792033 ], [ 121.051168324677874, 13.408558941553768 ], [ 121.051112415058739, 13.408838489649431 ], [ 121.051380781230591, 13.409050946202138 ], [ 121.051347235459104, 13.409151583516577 ], [ 121.050922322353699, 13.409431131612241 ], [ 121.05067632002951, 13.409397585840761 ], [ 121.050665138105686, 13.409229856983362 ], [ 121.050553318867415, 13.408860853497085 ], [ 121.050251406924104, 13.408346485001061 ], [ 121.049871221513996, 13.408044573057744 ], [ 121.049737038428077, 13.408033391133918 ], [ 121.049390398789456, 13.408111664600703 ], [ 121.048395207568888, 13.408368848848715 ], [ 121.048026204082603, 13.40881612580178 ], [ 121.048551754502455, 13.409140401592749 ], [ 121.049300943398833, 13.409084491973617 ], [ 121.049737038428077, 13.409173947364229 ], [ 121.049602855342158, 13.409453495459895 ], [ 121.049245033779712, 13.409487041231374 ], [ 121.048864848369604, 13.40956531469816 ], [ 121.048976667607874, 13.409923136260611 ], [ 121.048999031455523, 13.410124410889489 ], [ 121.048820120674293, 13.410415140908981 ], [ 121.048361661797401, 13.410616415537859 ], [ 121.048451117188023, 13.410951873252657 ], [ 121.048473481035671, 13.411209057500669 ], [ 121.047713110215469, 13.411376786358067 ], [ 121.047813747529901, 13.411857609082611 ], [ 121.048227478711482, 13.412081247559142 ], [ 121.04860766412159, 13.41202533794001 ], [ 121.048820120674293, 13.412148339102101 ], [ 121.04897666760786, 13.412125975254449 ], [ 121.049021395303171, 13.412070065635316 ], [ 121.049122032617603, 13.411947064473225 ], [ 121.049211488008211, 13.411734607920518 ] ] ], [ [ [ 121.093397003949761, 13.414132312024888 ], [ 121.093416811811878, 13.414392861036299 ], [ 121.093433651385453, 13.414567776892651 ], [ 121.093472071824806, 13.41477852704589 ], [ 121.093492920993697, 13.414907100748508 ], [ 121.093513967170921, 13.415010706149355 ], [ 121.093571591261423, 13.415096752533525 ], [ 121.093636559113136, 13.415175720203541 ], [ 121.093672489793477, 13.415240199884959 ], [ 121.093719436078317, 13.415294061501427 ], [ 121.093748409986972, 13.415316575000775 ], [ 121.093794898714791, 13.415321143470184 ], [ 121.093980100564082, 13.415201503469344 ], [ 121.094111930998736, 13.415119267265634 ], [ 121.094309742130619, 13.414987590036192 ], [ 121.094470853358203, 13.414888928364615 ], [ 121.094536740300896, 13.414851377023501 ], [ 121.094567725477873, 13.4148350832362 ], [ 121.093692912441597, 13.413874436649378 ], [ 121.093311778740983, 13.41347422747722 ], [ 121.09332496081484, 13.413564596358936 ], [ 121.093362958992998, 13.413828850014708 ], [ 121.093397003949761, 13.414132312024888 ] ] ], [ [ [ 121.093794528636622, 13.415321382539894 ], [ 121.093797565072435, 13.415321405494419 ], [ 121.093794898714791, 13.415321143470184 ], [ 121.093794528636622, 13.415321382539894 ] ] ], [ [ [ 121.094262871569995, 13.41546314831756 ], [ 121.09413472221101, 13.415540656252412 ], [ 121.094127153413837, 13.415576270184177 ], [ 121.094177743595267, 13.415630159277438 ], [ 121.09426841482265, 13.415684351299248 ], [ 121.094344736223505, 13.415709897926357 ], [ 121.094417498303997, 13.415724716289375 ], [ 121.094515963414452, 13.415714759069974 ], [ 121.094621744110484, 13.41570128997728 ], [ 121.094807236879802, 13.41574549698967 ], [ 121.095032838915515, 13.415786439788013 ], [ 121.095142403976453, 13.415755163488459 ], [ 121.09523002226706, 13.415734422696094 ], [ 121.095243423803183, 13.415731250312012 ], [ 121.094758588158356, 13.415086054639879 ], [ 121.094695531345593, 13.415123974897138 ], [ 121.09457455722783, 13.415215805774199 ], [ 121.094405989570163, 13.415335813825294 ], [ 121.094262871569995, 13.41546314831756 ] ] ] ] } }
]
}
